geocoded_address,hhs_id,ccn,facility_name,address,city,zip,fips_code,state,geohash,geocoded_hospital_address
POINT (-149.863023 61.187999),,,,,,,,,,
POINT (-134.465047 58.328624),,,,,,,,,,
POINT (-87.866268 30.657051),,,,,,,,,,
POINT (-86.800882 33.504615),,,,,,,,,,
POINT (-86.786134 33.365751),,,,,,,,,,
POINT (-85.439972 32.605612),,,,,,,,,,
POINT (-86.572527 34.692379),,,,,,,,,,
POINT (-87.836677 32.503688),,,,,,,,,,
POINT (-86.246393 32.378893),,,,,,,,,,
POINT (-86.254598 33.164666),,,,,,,,,,
POINT (-85.968394 32.93103),C010065-A,010065,RUSSELL MEDICAL CENTER,3316 HIGHWAY 280,ALEXANDER CITY,35010.0,1123.0,AL,"32.88577,-85.86917",POINT (-85.968394 32.93103)
POINT (-87.596099 33.27226),,,,,,,,,,
POINT (-87.589857 34.241718),,,,,,,,,,
POINT (-91.939011 33.137339),,,,,,,,,,
POINT (-92.395905 36.343067),,,,,,,,,,
POINT (-90.635674 35.864196),,,,,,,,,,
POINT (-90.703102 35.838397),,,,,,,,,,
POINT (-91.634368 35.769566),,,,,,,,,,
POINT (-92.026468 34.201824),,,,,,,,,,
POINT (-93.72501 35.29204),,,,,,,,,,
POINT (-92.394431 34.73916),,,,,,,,,,
POINT (-92.3813 34.745758),,,,,,,,,,
POINT (-92.338251 34.750183),,,,,,,,,,
POINT (-92.3678 34.743601),,,,,,,,,,
POINT (-92.321037 34.751585),,,,,,,,,,
POINT (-90.996348 36.289922),,,,,,,,,,
POINT (-92.593674 34.563662),,,,,,,,,,
POINT (-94.353957 35.354072),,,,,,,,,,
POINT (-94.357178 34.046177),,,,,,,,,,
POINT (-94.157859 36.11091),C040004-A,040004,Washington Regional Medical Center,3215 N NORTH HILLS BOULEVARD,FAYETTEVILLE,72703.0,5143.0,AR,"36.10797,-94.15589",POINT (-94.157859 36.11091)
,C350006-C,,TRINITY HOSPITAL,ONE WEST BURDICK EXPRESSWAY,MINOT,58701.0,38101.0,ND,"48.232636,-101.2938045",
,C040007-A,040007,CHI St Vincent Infirmary,TWO ST VINCENT CIRCLE,LITTLE ROCK,72205.0,5119.0,AR,"34.74957565,-92.3382277",
,C100331-A,100331,Touchton Surgery Center,"9726 TOUCHTON ROAD, SUITE 305",JACKSONVILLE,32246.0,12031.0,FL,"30.26746,-81.55554",
,C141346-A,141346,Fayette County Hospital,7TH AND TAYLOR,VANDALIA,62471.0,17051.0,IL,"38.97,-89.11",
,C261318-A,261318,Salem Memorial District Hospital,"PO BOX 774,",SALEM,65560.0,29065.0,MO,"37.63,-91.53",
,C381319-A,381319,St Anthony Hospital,2801 ST ANTHONY WAY,PENDLETON,97801.0,41059.0,OR,"45.648782,-118.812205",
,C650003-A,650003,Guam Regional Medical City,133 ROUTE 3,DEDEDO,96929.0,66010.0,GU,"13.52,144.82",
,C030074-A,030074,Sells Indian Hospital,"HIGHWAY 86, AT TOPAWA ROAD",SELLS,85634.0,4019.0,AZ,"31.92,-111.88",
,C161321-A,161321,AVERA MERRILL PIONEER HOSPITAL,1100 S 10TH AVE,ROCK RAPIDS,51246.0,19119.0,IA,"43.4166,-96.17144",
,C171324-A,171324,Satanta District Hospital,401 CHEYENNE,SATANTA,67870.0,20081.0,KS,"37.437192,-100.986665",
,C390146-A,390146,Warren General Hospital,TWO CRESCENT PARK WEST,WARREN,16365.0,42123.0,PA,"41.85,-79.15",
,C44016F-A,44016F,MOUNTAIN HOME VA MEDICAL CENTER,P O BOX 4000,MOUNTAIN HOME,37684.0,47179.0,TN,"36.310561,-82.37333",
,C470001-A,470001,CENTRAL VERMONT MEDICAL CENTER,BOX 547,BARRE,5641.0,50023.0,VT,"44.2,-72.5",
,C040114-A,040114,Baptist Health - Little Rock,9601 INTERSTATE,LITTLE ROCK,72205.0,5119.0,AR,"34.746129,-92.368837",
,C050153-A,050153,OConnor Hospital,2105 FOREST AVE,SAN JOSE,95128.0,6085.0,CA,"37.328929,-121.939583",
,C171364-A,171364,Osborne County Memorial Hospital,237 W HARRISON STREET SUITE 100,OSBORNE,67473.0,20141.0,KS,"39.450701,-98.699323",
,C28005F-A,28005F,EHRLING BERGQUIST USAF HOSPITAL,OFFUTT AFB,OMAHA,68113.0,31153.0,NE,"41.12,-95.92",
,C400016-A,400016,Hospital Auxilio Mutuo,PONCE DE LEON AVENUE STOP 37 1/2,SAN JUAN,918.0,72127.0,PR,"18.42,-66.07",
,C443037-A,443037,KNOXVILLE REHABILITATION HOSPITAL,1250 TENNOVA MEDICAL WAY,KNOXVILLE,37909.0,47093.0,TN,"35.94489,-84.0388",
,C640001-A,640001,LBJ Tropical Medical Center,"FAGAALU VILLAGE, P O BOX LBJ",PAGO PAGO,96799.0,,AS,"-14.27,-170.7",
,C460014-A,460014,Mountain West Medical Center,2055 NORTH MAIN STREET,TOOELE,84074.0,49045.0,UT,"40.566751,-112.297059",
,C040161-A,040161,Arkansas Heart Hospital Encore Medical Center,1901 ENCORE WAY,BRYANT,72022.0,5125.0,AR,"34.61304,-92.520969",
,C010012-A,010012,DeKalb Regional Medical Center,200 MED CENTER DRIVE,FORT PAYNE,35968.0,1049.0,AL,"34.44,-85.75",
,C400135-A,400135,HOSPITAL DEL CENTRO COMPRENSIVO DE CANCER,PR 21 INT PR 18 BO MONACILLOS URBANO,SAN JUAN,927.0,72127.0,PR,"18.3744,-66.0571",
,C140286-A,140286,Northwestern Medicine Kishwaukee Hospital (FKA Kishwaukee Community Hospital),ONE  KISH HOSPITAL DRIVE,DEKALB,60115.0,17037.0,IL,"41.961993,-88.722709",
,C250134-A,250134,Whitfield Medical Surgical Hospital,"3550 HWY 468 W, BLDG 60",WHITFIELD,39193.0,28121.0,MS,"32.24252,-90.073904",
,C251307-A,251307,Noxubee General Hospital,78 HOSPITAL ROAD,MACON,39341.0,28103.0,MS,"33.12323,-88.5461",
,C010174-A,010174,THOMASVILLE REGIONAL MEDICAL CENTER,300 MED PARK DRIVE,THOMASVILLE,36784.0,1025.0,AL,"31.86683,-87.74028",
,C400114-A,400114,Manati Medical Center,CALLE HERNANDEZ CARRION URB ATENAS,MANATI,674.0,72091.0,PR,"18.43,-66.48",
,C454138-A,454138,Garland Behavioral Hospital,2300 MARIE CURIE BLVD 5TH FLOOR,GARLAND,75042.0,48113.0,TX,"32.918788,-96.662265",
,C45068F-A,45068F,WILLIAM BEAUMONT ARMY MEDICAL CENTER,DYER ST,EL PASO,79920.0,48141.0,TX,"31.82471,-106.451736",
,C451318-A,451318,STONEWALL MEMORIAL HOSPITAL,821 NORTH BROADWAY,ASPERMONT,79502.0,48433.0,TX,"33.150522,-100.229136",
,C400122-A,400122,PROFESSIONAL HOSPITAL GUAYNABO INC,8 AVE LAS CUMBRES,GUAYNABO,969.0,72061.0,PR,"18.36727,-66.10366",
,C020018-D,020018,Hooper Bay Subregional Clinic,"YKHC, 700 CHIEF EDDY HOFFMAN HIGHWAY",BETHEL,99559.0,2050.0,AK,"60.8,-161.77",
,C351312-A,351312,Northwood Deaconess Health Center,PO BOX 190,NORTHWOOD,58267.0,38035.0,ND,"47.74,-97.58",
,C220162-A,220162,DANA FARBER CANCER INSTITUTE,450 BROOKLINE AVENUE,BOSTON,2115.0,25025.0,MA,"42.337602,-71.10828",
,C171382-A,171382,Atchison Hospital,800 RAVIN HILL DRIVE,ATCHISON,66002.0,20005.0,KS,"39.5214,-95.18473",
,C174016-A,174016,Prairie View,1901 E FIRST STREET PO BOX 467,NEWTON,67114.0,20079.0,KS,"38.04139,-97.312868",
,C050309-A,050309,Sutter Roseville Medical Center,ONE MEDICAL PLAZA,ROSEVILLE,95661.0,6061.0,CA,"38.765528205,-121.248024394585",
,C083026-A,083026,Encompass Health Rehabilitation Hospital of Middletown (FKA HealthSouth Rehabilitation Hospital of Middletown),250 EAST HAMPDEN ROAD,MIDDLETOWN,19709.0,10003.0,DE,"39.453043,-75.677308",
,C281344-A,281344,CHERRY COUNTY HOSPITAL,"P O BOX 410, 510 NORTH GREEN ST",VALENTINE,69201.0,31031.0,NE,"42.878524,-100.539317",
,C140210-A,140210,Harrisburg Medical Center,100 DOCTOR WARREN TUTTLE DR,HARRISBURG,62946.0,17165.0,IL,"37.72534,-88.56996",
,C233026-A,233026,Mary Free Bed Rehabilitation Hospital,235 WEALTHY SE,GRAND RAPIDS,49503.0,26081.0,MI,"42.956949,-85.662924",
,C281316-A,281316,WEBSTER COUNTY COMMUNITY HOSPITAL,"P O BOX 465, 621 N FRANKLIN ST",RED CLOUD,68970.0,31181.0,NE,"40.091441,-98.528162",
,C271304-A,271304,Missouri River Medical Center,1501 ST CHARLES ST,FORT BENTON,59442.0,30015.0,MT,"47.820504,-110.67218",
,C390093-A,390093,Clarion Hospital,ONE HOSPITAL DRIVE,CLARION,16214.0,42031.0,PA,"41.19202,-79.396234",
,C320058-A,320058,Mescalero Service Unit (AKA Mescalero Indian Hospital),P O BOX 210,MESCALERO,88340.0,35035.0,NM,"33.3464074,-105.5702296",
,C334053-A,334053,Bronx Psychiatric Center,1500 WATERS PLACE,BRONX,10461.0,36005.0,NY,"40.848782,-73.839362",
,C393038-A,393038,Magee Rehabilitation Hospital,SIX FRANKLIN PLAZA,PHILADELPHIA,19102.0,42101.0,PA,"39.95283,-75.166019",
,C280119-A,280119,Twelve Clans Unity Hospital (FKA Winnebago Service Unit Winnebago Hospital),HWY 77-75,WINNEBAGO,68071.0,31173.0,NE,"42.23,-96.47",
,C350063-B,,QUENTIN BURDICK MEMORIAL HEALTHCARE  IHS,MOONLIGHT DRIVE HIGHWAY 5,BELCOURT,58316.0,38079.0,ND,"48.85,-99.74",
,C350064-A,350064,Standing Rock Service Unit (AKA Fort Yates Hospital),10 NORTH RIVER ROAD,FORT YATES,58538.0,38085.0,ND,"46.11,-100.68",
,C144041-A,144041,Silver Oaks Behavioral Hospital,1004 PAWLAK PARKWAY,NEW LENOX,60451.0,17197.0,IL,"41.55454,-87.96644",
,C440012-A,440012,Bristol Regional Medical Center (FKA Wellmont Bristol Regional Medical Center),ONE MEDICAL PARK BLVD,BRISTOL,37620.0,47163.0,TN,"36.5856850763558,-82.2529373467544",
,C250084-A,250084,Merit Health Natchez (FKA Natchez Regional Medical Center),52 SERGEANT PRENTISS DRIVE,NATCHEZ,39120.0,28001.0,MS,"31.529514,-91.387994",
,C281334-A,281334,BOONE COUNTY HEALTH CENTER,"P O BOX 151, 723 WEST FAIRVIEW ST",ALBION,68620.0,31011.0,NE,"41.683551,-98.005369",
,C404004-A,404004,Cidra Pan American Hospital (AKA First Hospital Panamericano),STATE ROAD 787 KM 1  5,CIDRA,739.0,72041.0,PR,"18.18,-66.16",
,C050103-A,050103,Adventist Health White Memorial (FKA White Memorial Medical Center),1720 E CESAR AVENUE,LOS ANGELES,90033.0,6037.0,CA,"34.05084,-118.21702",
,C400006-A,400006,Doctors Center Hospital San Juan,PDA. 20 C/ SAN RAFAEL # 1395,FERNANDEZ JUNCOS,909.0,72127.0,PR,"18.4436,-66.0714",
,C241306-A,241306,RC Hospital and Clinics,100 HEALTHY WAY,OLIVIA,56277.0,27129.0,MN,"44.7744,-94.972561",
,C431332-A,431332,Avera De Smet Memorial Hospital,306 PRAIRIE AVENUE SW  POST OFFICE BOX 160,DE SMET,57231.0,46077.0,SD,"44.38307,-97.55159",
,C19S177-A,19S177,LAKEVIEW REGIONAL MEDICAL CENTER SENIOR BEHAVIORAL,"5025 KEYSTONE BLVD #300,",COVINGTON,70433.0,22103.0,LA,"30.412293,-90.080901",
,C264027-A,264027,Southwest Missouri Psychiatric Rehabilitation Center,1301 INDUSTRIAL PKWY E,EL DORADO SPRINGS,64772.0,29217.0,MO,"37.83,-94.36",
,C500051-A,500051,Overlake Hospital Medical Center (AKA Overlake Medical Center),1035-116TH AVE NE,BELLEVUE,98004.0,53033.0,WA,"47.621445,-122.18779",
,C210038-A,210038,UMMC Midtown Campus (FKA Maryland General Hospital),827 LINDEN AVENUE,BALTIMORE,21201.0,24510.0,MD,"39.299377,-76.620434",
,C400133-A,400133,HIMA San Pablo Cupey,CARR 844 KM 5 CUPEY BAJO,SAN JUAN,928.0,72127.0,PR,"18.3587,-66.0396",
,C180088-C,180088,Norton Audubon Hospital,ONE AUDUBON PLAZA DRIVE,LOUISVILLE,40217.0,21111.0,KY,"38.213782,-85.721707",
,C031309-A,031309,Sage Memorial Hospital,HIGHWAY 264 WEST AND 191 SOUTH,GANADO,86505.0,4001.0,AZ,"35.75,-109.63",
,C281302-A,281302,Pawnee County Memorial Hospital,"P O BOX 433, 600 I ST",PAWNEE CITY,68420.0,31133.0,NE,"40.108473,-96.150828",
,C344027-A,344027,RJ Blackley Alcohol and Drug Abuse Treatment Center,"BLDG 29, 30 BARRETT BLDG, 100 H STREET",BUTNER,27509.0,37077.0,NC,"36.137296,-78.775962",
,C281363-A,281363,Community Hospital,"P O BOX 1328, 1301 EAST H ST",MCCOOK,69001.0,31145.0,NE,"40.204325,-100.607621",
,C400112-B,400112,Hospital UPR - Dr. Federico Trilla,"KM 8. P.R 3, CALLE 3",CAROLINA,984.0,72031.0,PR,"18.3758,-65.9579",
,C214012-A,214012,Thomas B Finan Center,"10102 COUNTRY CLUB ROAD,  POST OFFICE BOX 1722",CUMBERLAND,21502.0,24001.0,MD,"39.65857,-78.73888",
,C281306-A,281306,Kearney County Health Services Hospital,727 EAST 1ST ST,MINDEN,68959.0,31099.0,NE,"40.49585,-98.94266",
,C143025-A,143025,Schwab Rehabilitation Hospital (FKA Schwab Rehab Hospital & Care Network),1401 S CALIFORNIA BLVD,CHICAGO,60608.0,17031.0,IL,"41.862429,-87.694967",
,C420106-A,420106,Prisma Health Baptist Parkridge Hospital (FKA Palmetto Health Baptist Parkridge),400 PALMETTO HEALTH PARKWAY,COLUMBIA,29212.0,45063.0,SC,"34.088587,-81.161374",
,C021308-A,021308,Norton Sound Regional Hospital,1000 GREG KRUSCHEK AVENUE (P O BOX 966),NOME,99762.0,2180.0,AK,"64.50094,-165.40597",
,H000064,,HOSPITAL SAN ANTONIO,"#18 NORTE, CALLE DR",MAYAGÃœEZ,680.0,72097.0,PR,"18.21,-67.14",
,C471300-A,471300,GRACE COTTAGE HOSPITAL,PO BOX 216,TOWNSHEND,5353.0,50025.0,VT,"43.099421,-72.648405",
,C070006-A,070006,Stamford Hospital (AKA Stamford Health),ONE HOSPITAL PLAZA,STAMFORD,6904.0,9001.0,CT,"41.048741,-73.53888",
,C670078-C,670078,Baptist Emergency Center (Shavano Park),4103 TX-1604 LOOP,SAN ANTONIO,78249.0,48029.0,TX,"29.58802,-98.5848",
,C400105-A,400105,HOSPITAL UNIVERSITARIO DR RUIZ ARNAU,LAUREL AVE SANTA JUANITA #100,BAYAMON,956.0,72021.0,PR,"18.369244204462,-66.1662235449281",
,C192029-A,192029,AMG SPECIALTY HOSPITAL LAFAYETTE,"4811 AMBASSADOR CAFFERY PKWY, 4TH FLOOR",LAFAYETTE,70506.0,22055.0,LA,"30.149394,-92.036392",
,C251309-A,251309,Field Health System (FKA Field Memorial Community Hospital),178 HIGHWAY 24,CENTREVILLE,39631.0,28157.0,MS,"31.06787,-91.06946",
,C040020-A,040020,St Bernards Medical Center,225 E WASHIINGTON AVENUE,JONESBORO,72401.0,5031.0,AR,"35.837476,-90.702895",
,C292007-A,292007,AMG SPECIALTY HOSPITAL,4015 SOUTH MCLEOD,LAS VEGAS,89121.0,32003.0,NV,"36.11546,-115.10975",
,C161377-A,161377,MERCYONE CENTERVILLE MEDICAL CENTER,ONE ST JOSEPH'S DRIVE,CENTERVILLE,52544.0,19007.0,IA,"40.7523574,-92.8578264",
,C031305-A,031305,Hopi Health Care Center,"HIGHWAY 264, MILEPOST 388",POLACCA,86042.0,4017.0,AZ,"35.82,-110.4",
,C250097-A,250097,Southwest Mississippi Regional Medical Center,215 MARION AV BOX 1307,MCCOMB,39649.0,28113.0,MS,"31.243611,-90.45306",
,C400125-A,400125,HIMA San Pablo Fajardo,GENERAL VALERO AVE#404,FAJARDO,738.0,72053.0,PR,"18.3331648,-65.6523897",
POINT (-91.732412 35.233805),,,,,,,,,,
POINT (-111.873507 33.298691),,,,,,,,,,
POINT (-112.179439 33.610734),,,,,,,,,,
POINT (-111.977795 33.582143),,,,,,,,,,
POINT (-112.066252 33.494747),,,,,,,,,,
POINT (-112.079431 33.480298),,,,,,,,,,
POINT (-111.790095 33.582481),,,,,,,,,,
POINT (-111.922944 33.48764),,,,,,,,,,
POINT (-111.947798 33.399825),,,,,,,,,,
POINT (-114.035814 35.219919),,,,,,,,,,
POINT (-110.859919 32.250572),,,,,,,,,,
POINT (-110.880223 32.25075),,,,,,,,,,
POINT (-110.96828 32.181307),C03013F-A,03013F,VA S. ARIZONA HEALTHCARE SYSTEM,3601 S 6TH AVE,TUCSON,85713.0,4019.0,AZ,"32.180719,-110.964713",POINT (-110.96828 32.181307)
POINT (-110.892634 32.241877),,,,,,,,,,
POINT (-114.633238 32.683899),C030013-A,030013,Yuma Regional Medical Center,2400 SOUTH AVENUE A,YUMA,85364.0,4027.0,AZ,"32.68215,-114.635383",POINT (-114.633238 32.683899)
POINT (-122.257994 37.856408),,,,,,,,,,
POINT (-121.975675 37.550864),,,,,,,,,,
POINT (-122.263661 37.820848),,,,,,,,,,
POINT (-122.231125 37.79922),,,,,,,,,,
POINT (-122.257637 37.823888),,,,,,,,,,
POINT (-122.267901 37.837309),,,,,,,,,,
POINT (-121.880027 37.692133),C050283-A,050283,Stanford Health Care - ValleyCare Medical Center,5555 WEST LAS POSITAS BOULEVARD,PLEASANTON,94588.0,6001.0,CA,"37.693982,-121.88074",POINT (-121.880027 37.692133)
POINT (-122.169447 37.706524),,,,,,,,,,
POINT (-121.849291 39.742509),,,,,,,,,,
POINT (-122.130891 38.006467),,,,,,,,,,
POINT (-122.030096 37.927866),,,,,,,,,,
POINT (-124.194244 41.772699),,,,,,,,,,
POINT (-119.782839 36.742712),,,,,,,,,,
POINT (-119.765891 36.837102),,,,,,,,,,
POINT (-124.142039 40.783103),,,,,,,,,,
POINT (-115.554051 32.95995),,,,,,,,,,
POINT (-115.56862 32.781498),,,,,,,,,,
POINT (-118.982482 35.397445),,,,,,,,,,
POINT (-122.917929 39.034641),,,,,,,,,,
POINT (-117.984617 34.064672),,,,,,,,,,
POINT (-118.327825 34.157613),,,,,,,,,,
POINT (-118.128571 33.9171),,,,,,,,,,
POINT (-117.970933 34.132227),,,,,,,,,,
POINT (-118.297471 33.787562),,,,,,,,,,
POINT (-118.347779 33.949085),,,,,,,,,,
POINT (-118.158677 34.689372),,,,,,,,,,
POINT (-118.217347 34.051079),,,,,,,,,,
POINT (-118.208972 34.06077),,,,,,,,,,
POINT (-118.244364 33.924351),,,,,,,,,,
POINT (-118.449651 34.324104),,,,,,,,,,
POINT (-118.447562 34.066609),,,,,,,,,,
POINT (-118.185097 33.807214),,,,,,,,,,
POINT (-118.290733 34.098146),,,,,,,,,,
POINT (-118.265524 34.036963),,,,,,,,,,
POINT (-118.203234 34.062168),,,,,,,,,,
POINT (-118.294863 34.098138),,,,,,,,,,
POINT (-118.063941 33.923591),,,,,,,,,,
POINT (-118.430085 34.21985),,,,,,,,,,
POINT (-118.151875 34.135762),,,,,,,,,,
POINT (-117.752322 34.077585),,,,,,,,,,
POINT (-118.293521 33.831583),,,,,,,,,,
POINT (-119.800266 36.884502),,,,,,,,,,
POINT (-122.533299 37.943518),,,,,,,,,,
POINT (-122.537043 37.944899),,,,,,,,,,
POINT (-123.203791 39.152982),,,,,,,,,,
POINT (-121.646327 36.659979),,,,,,,,,,
POINT (-122.273403 38.277003),,,,,,,,,,
POINT (-122.475344 38.54196),,,,,,,,,,
POINT (-117.927836 33.893507),,,,,,,,,,
POINT (-117.666045 33.560152),,,,,,,,,,
POINT (-117.931415 33.625136),,,,,,,,,,
POINT (-117.865553 33.780332),,,,,,,,,,
POINT (-117.864861 33.782363),,,,,,,,,,
POINT (-117.890716 33.78867),,,,,,,,,,
POINT (-121.098838 38.934839),,,,,,,,,,
POINT (-116.828962 33.953645),,,,,,,,,,
POINT (-116.233883 33.706235),,,,,,,,,,
POINT (-116.545598 33.838662),,,,,,,,,,
POINT (-116.408082 33.763494),,,,,,,,,,
POINT (-121.392891 38.507195),,,,,,,,,,
POINT (-121.469624 38.570243),,,,,,,,,,
POINT (-121.457535 38.554375),C050599-A,050599,University of California Davis Medical Center (AKA UC Davis Medical Center),2315 STOCKTON BOULEVARD,SACRAMENTO,95817.0,6067.0,CA,"38.554597,-121.455972",POINT (-121.457535 38.554375)
POINT (-121.386336 36.835109),,,,,,,,,,
POINT (-117.352833 34.072959),,,,,,,,,,
POINT (-117.433458 34.072271),,,,,,,,,,
POINT (-117.26568 34.049577),,,,,,,,,,
POINT (-117.219827 34.135867),,,,,,,,,,
POINT (-117.637034 34.101004),,,,,,,,,,
POINT (-117.297324 34.470905),C050709-A,050709,Desert Valley Hospital,16850 BEAR VALLEY RD,VICTORVILLE,92395.0,6071.0,CA,"34.472514,-117.298057",POINT (-117.297324 34.470905)
POINT (-117.15417 32.800255),,,,,,,,,,
POINT (-117.207551 32.888565),,,,,,,,,,
POINT (-117.150793 32.798073),,,,,,,,,,
POINT (-117.16601 32.753714),,,,,,,,,,
POINT (-122.421584 37.786347),,,,,,,,,,
POINT (-122.45772 37.763535),,,,,,,,,,
POINT (-122.440565 37.783238),,,,,,,,,,
POINT (-122.406522 37.755332),C050228-A,050228,Zuckerberg San Francisco General Hospital (FKA San Francisco General Hospital),1001 POTRERO AVENUE,SAN FRANCISCO,94110.0,6075.0,CA,"37.755383,-122.40539",POINT (-122.406522 37.755332)
POINT (-120.643647 35.460186),,,,,,,,,,
POINT (-120.666889 35.251126),,,,,,,,,,
POINT (-122.299415 37.530112),C050113-A,050113,San Mateo Medical Center (AKA San Mateo County Health System),222 W 39TH AVE,SAN MATEO,94403.0,6081.0,CA,"37.530907,-122.300188",POINT (-122.299415 37.530112)
POINT (-119.723112 34.429451),,,,,,,,,,
POINT (-119.758429 34.44222),,,,,,,,,,
POINT (-122.17514 37.437397),,,,,,,,,,
POINT (-122.141712 37.402819),,,,,,,,,,
POINT (-121.931903 37.314046),,,,,,,,,,
POINT (-121.995768 37.335542),,,,,,,,,,
POINT (-122.176664 37.433138),,,,,,,,,,
POINT (-121.983612 36.988413),,,,,,,,,,
POINT (-122.396563 40.572571),,,,,,,,,,
POINT (-122.0476 38.261104),C050367-A,050367,NorthBay Medical Center,1200 B GALE WILSON BLVD,FAIRFIELD,94533.0,6095.0,CA,"38.261745,-122.046633",POINT (-122.0476 38.261104)
POINT (-122.726961 38.470331),,,,,,,,,,
POINT (-122.465851 38.288564),,,,,,,,,,
POINT (-120.993987 37.666791),,,,,,,,,,
POINT (-119.149378 34.217753),,,,,,,,,,
POINT (-119.158248 34.217127),,,,,,,,,,
POINT (-119.257324 34.274574),,,,,,,,,,
POINT (-104.840718 39.741362),C060024-A,060024,UCHealth University of Colorado Hospital,12605 E 16TH AVE,AURORA,80045.0,8001.0,CO,"39.742487,-104.841686",POINT (-104.840718 39.741362)
POINT (-104.831002 39.743609),,,,,,,,,,
POINT (-104.844679 39.745983),,,,,,,,,,
POINT (-104.835018 39.741635),C063301-A,063301,Childrens Hospital Colorado - Anschutz Medical Campus,13123 E 16TH AVE,AURORA,80045.0,8001.0,CO,"39.742306,-104.835499",POINT (-104.835018 39.741635)
POINT (-105.063927 39.859353),,,,,,,,,,
POINT (-105.883712 37.472352),,,,,,,,,,
POINT (-107.077219 37.252776),,,,,,,,,,
POINT (-105.236337 40.014808),,,,,,,,,,
POINT (-105.082979 39.970623),,,,,,,,,,
POINT (-105.086 39.967819),,,,,,,,,,
POINT (-106.007505 38.54299),,,,,,,,,,
POINT (-108.047515 38.743166),,,,,,,,,,
POINT (-104.992858 39.728736),,,,,,,,,,
POINT (-104.942461 39.7392),C060107-A,060107,National Jewish Health,1400 JACKSON ST,DENVER,80206.0,8031.0,CO,"39.738932,-104.942363",POINT (-104.942461 39.7392)
POINT (-104.967175 39.746089),,,,,,,,,,
POINT (-104.894587 39.717574),,,,,,,,,,
POINT (-104.973482 39.670627),,,,,,,,,,
POINT (-106.382866 39.642949),,,,,,,,,,
POINT (-104.799951 38.838812),,,,,,,,,,
POINT (-105.229772 38.455749),,,,,,,,,,
POINT (-107.322794 39.532859),,,,,,,,,,
POINT (-106.924322 38.551636),,,,,,,,,,
POINT (-105.089291 39.769328),,,,,,,,,,
POINT (-105.514088 40.372259),C061312-A,061312,Estes Park Health (FKA Estes Park Medical Center),555 PROSPECT AVE,ESTES PARK,80517.0,8069.0,CO,"40.371469,-105.515935",POINT (-105.514088 40.372259)
POINT (-105.010885 40.521117),C060126-A,060126,Banner Fort Collins Medical Center,4700 LADY MOON DR,FORT COLLINS,80528.0,8069.0,CO,"40.521516,-105.010173",POINT (-105.010885 40.521117)
POINT (-105.001451 40.415194),,,,,,,,,,
POINT (-103.473895 39.137901),,,,,,,,,,
POINT (-103.220685 40.61368),,,,,,,,,,
POINT (-108.561457 39.090645),,,,,,,,,,
POINT (-104.715889 38.940256),,,,,,,,,,
POINT (-108.572739 37.362097),,,,,,,,,,
POINT (-103.649641 40.254733),,,,,,,,,,
POINT (-104.709429 40.413834),C060001-A,060001,North Colorado Medical Center,1801 16TH ST,GREELEY,80631.0,8123.0,CO,"40.414822,-104.70891",POINT (-104.709429 40.413834)
POINT (-73.553932 41.054692),,,,,,,,,,
POINT (-72.935261 41.676015),C070029-A,070029,Bristol Hospital,41 BREWSTER RD,BRISTOL,6010.0,9003.0,CT,"41.675958,-72.935763",POINT (-72.935261 41.676015)
POINT (-72.79582 41.73509),,,,,,,,,,
POINT (-72.680184 41.755412),,,,,,,,,,
POINT (-72.525161 41.781094),,,,,,,,,,
POINT (-72.647938 41.55479),,,,,,,,,,
POINT (-73.088689 41.335978),,,,,,,,,,
POINT (-77.074388 38.912599),,,,,,,,,,
POINT (-77.050119 38.901169),,,,,,,,,,
POINT (-77.021896 38.916966),,,,,,,,,,
POINT (-77.012268 38.929157),,,,,,,,,,
POINT (-77.10894 38.935747),C090005-A,090005,Sibley Memorial Hospital,5255 LOUGHBORO RD NW,WASHINGTON,20016.0,11001.0,DC,"38.936618,-77.109193",POINT (-77.10894 38.935747)
POINT (-75.605235 39.738795),,,,,,,,,,
POINT (-82.343465 29.639183),,,,,,,,,,
POINT (-82.345877 29.638215),,,,,,,,,,
POINT (-80.288048 26.031708),,,,,,,,,,
POINT (-80.178819 26.019559),,,,,,,,,,
POINT (-80.178865 26.018262),,,,,,,,,,
POINT (-80.309457 26.013281),C100281-A,100281,Memorial Hospital West,703 N FLAMINGO RD,PEMBROKE PINES,33028.0,12011.0,FL,"26.01,-80.34",POINT (-80.309457 26.013281)
POINT (-81.515921 30.215821),,,,,,,,,,
POINT (-87.231938 30.428669),,,,,,,,,,
POINT (-82.459297 27.937291),,,,,,,,,,
POINT (-81.867967 28.80664),,,,,,,,,,
POINT (-81.848569 26.543729),,,,,,,,,,
POINT (-84.261393 30.455974),C100135-A,100135,Tallahassee Memorial HealthCare,1300 MICCOSUKEE RD,TALLAHASSEE,32308.0,12073.0,FL,"30.456666,-84.261692",POINT (-84.261393 30.455974)
POINT (-82.137838 29.174636),,,,,,,,,,
POINT (-80.339257 25.687775),,,,,,,,,,
POINT (-80.295178 25.742578),,,,,,,,,,
POINT (-80.21493 25.78821),,,,,,,,,,
POINT (-80.214946 25.790644),,,,,,,,,,
POINT (-81.538151 28.649092),,,,,,,,,,
POINT (-80.107329 26.784077),,,,,,,,,,
POINT (-81.953345 28.060173),,,,,,,,,,
POINT (-82.529686 27.318219),,,,,,,,,,
POINT (-85.542758 30.764574),,,,,,,,,,
POINT (-83.636553 32.833202),,,,,,,,,,
POINT (-83.681431 32.892836),C113029-A,113029,ATRIUM HEALTH NAVICENT REHABILITATION HOSPITAL,3351 NORTHSIDE DRIVE,MACON,31210.0,13021.0,GA,"32.893215,-83.680486",POINT (-83.681431 32.892836)
POINT (-81.101394 32.028299),,,,,,,,,,
POINT (-84.491149 33.845955),,,,,,,,,,
POINT (-84.757557 33.386381),,,,,,,,,,
POINT (-84.315524 33.849131),,,,,,,,,,
POINT (-84.320977 33.791881),,,,,,,,,,
POINT (-84.157497 31.590227),,,,,,,,,,
POINT (-84.589476 33.745311),,,,,,,,,,
POINT (-85.179721 34.260454),,,,,,,,,,
POINT (-84.393367 33.808802),,,,,,,,,,
POINT (-84.393887 33.806584),,,,,,,,,,
POINT (-84.385209 33.769335),,,,,,,,,,
POINT (-84.354756 33.907895),,,,,,,,,,
POINT (-81.484664 31.173805),,,,,,,,,,
POINT (-83.81737 34.30335),,,,,,,,,,
POINT (-84.981978 32.481714),C110064-A,110064,The Childrens Hospital at Piedmont Columbus Regional Midtown Campus,710 CENTER ST,COLUMBUS,31901.0,13215.0,GA,"32.480507,-84.98169",POINT (-84.981978 32.481714)
POINT (-81.990978 33.469927),,,,,,,,,,
POINT (-84.255377 32.06425),,,,,,,,,,
POINT (-83.973335 30.824623),,,,,,,,,,
POINT (-83.491068 31.470401),,,,,,,,,,
POINT (-83.840673 31.512386),,,,,,,,,,
POINT (144.774281 13.504491),,,,,,,,,,
POINT (-155.112892 19.717551),,,,,,,,,,
POINT (-155.990544 19.638557),,,,,,,,,,
POINT (-155.91772 19.519237),,,,,,,,,,
POINT (-155.665441 20.023219),,,,,,,,,,
POINT (-158.026145 21.369835),C120001-A,120001,Queens Medical Center - West Oahu,91-2141 FORT WEAVER RD,EWA BEACH,96706.0,15003.0,HI,"21.359453,-158.030437",POINT (-158.026145 21.369835)
POINT (-157.900297 21.362447),C120011-A,120011,Kaiser Permanente Moanalua Medical Center,3288 MOANALUA RD,HONOLULU,96819.0,15003.0,HI,"21.363242,-157.899592",POINT (-157.900297 21.362447)
POINT (-157.917412 21.336366),,,,,,,,,,
POINT (-157.854965 21.308307),,,,,,,,,,
POINT (-157.850921 21.302268),,,,,,,,,,
POINT (-157.757142 21.381453),,,,,,,,,,
POINT (-159.366386 21.985784),,,,,,,,,,
POINT (-155.993977 20.763631),,,,,,,,,,
POINT (-156.488087 20.884455),,,,,,,,,,
POINT (-94.747914 40.98843),,,,,,,,,,
POINT (-92.455968 42.533973),,,,,,,,,,
POINT (-92.346428 42.46339),,,,,,,,,,
POINT (-92.337754 42.525973),,,,,,,,,,
POINT (-95.222053 42.644356),,,,,,,,,,
POINT (-94.867997 42.05694),,,,,,,,,,
POINT (-95.075013 41.90665),,,,,,,,,,
POINT (-94.991396 41.402098),C161376-A,161376,CASS COUNTY MEMORIAL HOSPITAL,1501 EAST TENTH STREET,ATLANTIC,50022.0,19029.0,IA,"41.401411,-94.991507",POINT (-94.991396 41.402098)
POINT (-93.806994 43.097818),,,,,,,,,,
POINT (-93.216151 43.148378),,,,,,,,,,
POINT (-95.14385 43.150157),,,,,,,,,,
POINT (-93.747788 40.750348),,,,,,,,,,
POINT (-91.467028 42.483902),,,,,,,,,,
POINT (-95.126311 43.418176),,,,,,,,,,
POINT (-90.687543 42.49511),C160117-A,160117,FINLEY HOSPITAL,350 NORTH GRANDVIEW AVENUE,DUBUQUE,52001.0,19061.0,IA,"42.495419,-90.687555",POINT (-90.687543 42.49511)
POINT (-90.674358 42.492671),,,,,,,,,,
POINT (-94.833994 43.410538),,,,,,,,,,
POINT (-91.809412 42.967681),,,,,,,,,,
POINT (-94.388053 42.015241),C161325-A,161325,GREENE COUNTY MEDICAL CENTER,1000 WEST LINCOLN WAY,JEFFERSON,50129.0,19073.0,IA,"42.015677,-94.363186",POINT (-94.388053 42.015241)
POINT (-91.558041 40.962985),,,,,,,,,,
POINT (-92.117764 43.381891),,,,,,,,,,
POINT (-91.963116 40.985727),,,,,,,,,,
POINT (-91.550759 41.661203),C160058-B,160058,UNIVERSITY OF IOWA HOSPITALS AND CLINICS,200 HAWKINS DRIVE,IOWA CITY,52242.0,19103.0,IA,"41.659929,-91.548097",POINT (-91.550759 41.661203)
POINT (-91.548116 41.664617),,,,,,,,,,
POINT (-91.654759 41.978867),,,,,,,,,,
POINT (-91.659064 41.985604),,,,,,,,,,
POINT (-93.303421 41.027661),,,,,,,,,,
POINT (-93.109511 41.310972),,,,,,,,,,
POINT (-92.911575 41.412337),C161367-A,161367,PELLA REGIONAL HEALTH CENTER,404 JEFFERSON STREET,PELLA,50219.0,19125.0,IA,"41.412407,-92.912157",POINT (-92.911575 41.412337)
POINT (-92.796674 41.044816),,,,,,,,,,
POINT (-91.052727 41.434173),,,,,,,,,,
POINT (-95.84727 43.186975),,,,,,,,,,
POINT (-95.74173 43.410421),C161345-A,161345,OSCEOLA REGIONAL HEALTH CENTER,600 9TH AVENUE NORTH,SIBLEY,51249.0,19143.0,IA,"43.402406,-95.741541",POINT (-95.74173 43.410421)
POINT (-95.041406 40.723116),,,,,,,,,,
POINT (-95.368554 40.753644),,,,,,,,,,
POINT (-94.678841 42.740589),,,,,,,,,,
POINT (-93.633188 41.590795),,,,,,,,,,
POINT (-93.62568 41.598048),C162003-A,162003,Select Specialty Hospital - Des Moines,"1111 6TH AVENUE, 4TH FLOOR MAIN",DES MOINES,50314.0,19153.0,IA,"41.5994,-93.623834",POINT (-93.62568 41.598048)
POINT (-93.641513 41.615097),,,,,,,,,,
POINT (-93.790638 41.597854),,,,,,,,,,
POINT (-95.838457 41.268171),,,,,,,,,,
POINT (-95.835709 41.268756),C160047-A,160047,JENNIE EDMUNDSON MEMORIAL HOSPITAL,933 EAST PIERCE STREET,COUNCIL BLUFFS,51503.0,19155.0,IA,"41.269164,-95.83508",POINT (-95.835709 41.268756)
POINT (-90.51736 41.566163),,,,,,,,,,
POINT (-90.593782 41.545503),,,,,,,,,,
POINT (-95.326511 41.64748),,,,,,,,,,
POINT (-96.045648 42.994889),C161360-A,161360,ORANGE CITY AREA HEALTH SYSTEM,1000 LINCOLN CIRCLE SE,ORANGE CITY,51041.0,19167.0,IA,"42.994175,-96.04425",POINT (-96.045648 42.994889)
POINT (-96.285094 43.202601),,,,,,,,,,
POINT (-93.610617 42.032078),,,,,,,,,,
POINT (-94.383799 41.071215),C161365-A,161365,GREATER REGIONAL MEDICAL CENTER,1700 WEST TOWNLINE STREET,CRESTON,50801.0,19175.0,IA,"41.070098,-94.383803",POINT (-94.383799 41.071215)
POINT (-93.31232 40.754474),,,,,,,,,,
POINT (-94.191249 42.490422),,,,,,,,,,
POINT (-96.400087 42.49533),,,,,,,,,,
POINT (-96.406292 42.51881),,,,,,,,,,
POINT (-93.732628 42.721646),C161302-A,161302,IOWA SPECIALTY HOSPITAL CLARION,1316 SOUTH MAIN STREET,CLARION,50525.0,19197.0,IA,"42.72279,-93.733412",POINT (-93.732628 42.721646)
POINT (-116.190405 43.603923),,,,,,,,,,
POINT (-116.194781 43.619209),,,,,,,,,,
POINT (-116.253622 43.613868),,,,,,,,,,
POINT (-112.4189 42.872621),,,,,,,,,,
POINT (-111.989111 43.472526),,,,,,,,,,
POINT (-116.792783 47.694456),,,,,,,,,,
POINT (-117.001406 46.728705),,,,,,,,,,
POINT (-117.015802 46.416331),,,,,,,,,,
POINT (-91.399014 39.93186),,,,,,,,,,
POINT (-91.399886 39.935649),,,,,,,,,,
POINT (-88.217397 40.117189),,,,,,,,,,
POINT (-87.651674 41.936318),,,,,,,,,,
POINT (-87.813386 41.988883),,,,,,,,,,
POINT (-87.636429 41.93395),,,,,,,,,,
POINT (-87.732744 41.984878),,,,,,,,,,
POINT (-87.669039 41.875157),,,,,,,,,,
POINT (-87.674311 41.874041),,,,,,,,,,
POINT (-87.668951 41.869159),,,,,,,,,,
POINT (-87.733098 41.644775),,,,,,,,,,
POINT (-87.622034 41.89677),,,,,,,,,,
POINT (-87.621638 41.894989),,,,,,,,,,
POINT (-87.698272 41.855538),,,,,,,,,,
POINT (-87.568623 41.749496),,,,,,,,,,
POINT (-87.604925 41.787956),,,,,,,,,,
POINT (-87.683219 42.02553),,,,,,,,,,
POINT (-87.683293 42.0653),,,,,,,,,,
POINT (-87.83321 41.858732),,,,,,,,,,
POINT (-87.794086 42.018323),,,,,,,,,,
POINT (-87.732216 41.720349),,,,,,,,,,
POINT (-87.777478 41.87999),,,,,,,,,,
POINT (-88.026967 42.061433),,,,,,,,,,
POINT (-87.908532 41.753879),,,,,,,,,,
POINT (-87.937766 41.740048),,,,,,,,,,
POINT (-87.935299 41.861657),,,,,,,,,,
POINT (-87.92119 41.818253),,,,,,,,,,
POINT (-88.149267 41.761547),,,,,,,,,,
POINT (-88.041102 41.7564),,,,,,,,,,
POINT (-89.251945 37.774777),,,,,,,,,,
POINT (-88.93 38.3149),,,,,,,,,,
POINT (-88.331468 42.070221),,,,,,,,,,
POINT (-87.807611 42.188803),,,,,,,,,,
POINT (-87.951595 42.274278),,,,,,,,,,
POINT (-90.159831 38.899034),,,,,,,,,,
POINT (-89.666175 40.796689),,,,,,,,,,
POINT (-89.594358 40.700312),,,,,,,,,,
POINT (-89.687071 40.779748),,,,,,,,,,
POINT (-89.813389 37.918325),,,,,,,,,,
POINT (-90.020566 38.548909),,,,,,,,,,
POINT (-89.64475 39.807288),,,,,,,,,,
POINT (-87.59243 40.131808),,,,,,,,,,
POINT (-88.95713 37.729786),,,,,,,,,,
POINT (-89.096782 42.298462),,,,,,,,,,
POINT (-88.968795 42.312833),,,,,,,,,,
POINT (-85.245539 41.037621),,,,,,,,,,
POINT (-85.108343 41.089775),,,,,,,,,,
POINT (-85.185687 41.110803),,,,,,,,,,
POINT (-85.099458 41.187123),,,,,,,,,,
POINT (-85.896574 39.215876),,,,,,,,,,
POINT (-86.475612 40.078607),,,,,,,,,,
POINT (-86.361289 40.762399),,,,,,,,,,
POINT (-87.160319 38.658695),,,,,,,,,,
POINT (-85.414326 40.197584),,,,,,,,,,
POINT (-86.941207 38.393741),,,,,,,,,,
POINT (-85.829962 41.564327),,,,,,,,,,
POINT (-85.835482 38.300906),,,,,,,,,,
POINT (-86.197019 41.061732),,,,,,,,,,
POINT (-86.023955 40.047026),,,,,,,,,,
POINT (-85.769609 39.795065),,,,,,,,,,
POINT (-85.365008 39.942642),,,,,,,,,,
POINT (-85.891321 38.956742),,,,,,,,,,
POINT (-87.138162 40.933599),,,,,,,,,,
POINT (-86.076782 39.480634),,,,,,,,,,
POINT (-87.534213 38.67292),,,,,,,,,,
POINT (-85.828346 41.246401),,,,,,,,,,
POINT (-86.731344 41.600946),,,,,,,,,,
POINT (-86.72774 41.608967),,,,,,,,,,
POINT (-86.898142 41.659464),,,,,,,,,,
POINT (-87.364438 41.396155),,,,,,,,,,
POINT (-87.524075 41.494352),,,,,,,,,,
POINT (-87.448542 41.634064),C152024-B,152024,Regency Hospital of Northwest Indiana,4321 FIR ST,EAST CHICAGO,46312.0,18089.0,IN,"41.635027,-87.448655",POINT (-87.448542 41.634064)
POINT (-87.357023 41.599436),,,,,,,,,,
POINT (-87.427766 41.521232),,,,,,,,,,
POINT (-87.52201 41.61449),,,,,,,,,,
POINT (-87.258916 41.513396),,,,,,,,,,
POINT (-87.335601 41.458244),,,,,,,,,,
POINT (-87.506294 41.549736),,,,,,,,,,
POINT (-87.512313 41.537258),,,,,,,,,,
POINT (-86.17345 39.78053),,,,,,,,,,
POINT (-86.082667 39.647449),C150162-A,150162,Franciscan Health Indianapolis (FKA Franciscan St Francis Health - Indianapolis),8111 S EMERSON AVE,INDIANAPOLIS,46237.0,18097.0,IN,"39.648438,-86.080092",POINT (-86.082667 39.647449)
POINT (-86.165259 39.790571),,,,,,,,,,
POINT (-86.175493 39.775123),,,,,,,,,,
POINT (-86.058807 39.890636),,,,,,,,,,
POINT (-86.196008 39.911996),,,,,,,,,,
POINT (-86.073805 39.787363),,,,,,,,,,
POINT (-86.039172 39.905264),,,,,,,,,,
POINT (-86.193886 39.907556),,,,,,,,,,
POINT (-86.049817 39.896148),,,,,,,,,,
POINT (-86.90804 40.066373),,,,,,,,,,
POINT (-86.356043 39.609324),C150057-A,150057,Franciscan Health Mooresville (FKA Franciscan St Francis Health - Mooresville),1201 HADLEY RD,MOORESVILLE,46158.0,18109.0,IN,"39.607925,-86.356563",POINT (-86.356043 39.609324)
POINT (-86.474936 38.567704),,,,,,,,,,
POINT (-86.596093 41.057369),,,,,,,,,,
POINT (-85.223378 39.305725),,,,,,,,,,
POINT (-85.78397 39.560016),,,,,,,,,,
POINT (-86.174651 41.704375),,,,,,,,,,
POINT (-84.996428 41.634879),,,,,,,,,,
POINT (-86.807164 40.403025),,,,,,,,,,
POINT (-86.838382 40.394171),,,,,,,,,,
POINT (-87.504987 37.962405),,,,,,,,,,
POINT (-87.570729 37.983147),,,,,,,,,,
POINT (-87.406841 39.419441),,,,,,,,,,
POINT (-87.4068 39.485357),,,,,,,,,,
POINT (-86.775623 40.734861),,,,,,,,,,
POINT (-98.791598 38.355129),,,,,,,,,,
POINT (-95.249953 38.981235),,,,,,,,,,
POINT (-99.299251 38.880158),,,,,,,,,,
POINT (-94.773494 38.921426),,,,,,,,,,
POINT (-94.723699 38.937894),,,,,,,,,,
POINT (-95.638524 37.0404),C170145-A,170145,Coffeyville Regional Medical Center,1400 W 4TH ST,COFFEYVILLE,67337.0,20125.0,KS,"37.041491,-95.639457",POINT (-95.638524 37.0404)
POINT (-97.894648 38.077764),,,,,,,,,,
POINT (-97.892038 38.079488),C170020-A,170020,Hutchinson Regional Medical Center (AKA Promise Regional Medical Center Hutchinson),1701 E 23RD AVENUE,HUTCHINSON,67502.0,20155.0,KS,"38.077574,-97.892107",POINT (-97.892038 38.079488)
POINT (-97.610525 38.833271),,,,,,,,,,
POINT (-97.332965 37.698417),,,,,,,,,,
POINT (-95.696021 39.051231),,,,,,,,,,
POINT (-95.724973 39.026261),,,,,,,,,,
POINT (-95.696692 39.056107),,,,,,,,,,
POINT (-82.635123 38.469998),,,,,,,,,,
POINT (-87.907658 37.114215),,,,,,,,,,
POINT (-87.070139 37.777483),,,,,,,,,,
POINT (-84.521382 38.03157),,,,,,,,,,
POINT (-84.50977 38.030667),,,,,,,,,,
POINT (-84.513937 38.018877),,,,,,,,,,
POINT (-85.875148 37.710075),C18S012-A,18S012,Baptist Health Hardin Lifespring Pysch,913 N DIXIE AVE,ELIZABETHTOWN,42701.0,21093.0,KY,"37.71087,-85.876822",POINT (-85.875148 37.710075)
POINT (-85.639048 38.239235),,,,,,,,,,
POINT (-85.749614 38.245887),,,,,,,,,,
POINT (-85.745042 38.248445),,,,,,,,,,
POINT (-84.561842 39.014683),,,,,,,,,,
POINT (-84.110763 37.118935),,,,,,,,,,
POINT (-88.647986 37.052917),,,,,,,,,,
POINT (-88.626004 37.073089),,,,,,,,,,
POINT (-83.226528 37.278987),,,,,,,,,,
POINT (-82.52395 37.47251),,,,,,,,,,
POINT (-83.442432 38.180031),,,,,,,,,,
POINT (-86.429962 36.996265),,,,,,,,,,
POINT (-84.120451 36.922376),C18T080-A,18T080,Baptist Health Corbin Rehab,1 TRILLIUM WAY,CORBIN,40701.0,21235.0,KY,"36.922007,-84.119444",POINT (-84.120451 36.922376)
POINT (-93.718926 32.425962),,,,,,,,,,
POINT (-93.722268 32.499989),,,,,,,,,,
POINT (-93.778869 32.483879),,,,,,,,,,
POINT (-93.249344 30.181572),C190201-A,190201,CHRISTUS Ochsner Lake Area Hospital,4200 NELSON ROAD,LAKE CHARLES,70605.0,22019.0,LA,"30.181929,-93.251095",POINT (-93.249344 30.181572)
POINT (-93.227251 30.215531),,,,,,,,,,
POINT (-91.111528 30.401318),,,,,,,,,,
POINT (-91.137058 30.50719),,,,,,,,,,
POINT (-90.145205 29.962771),,,,,,,,,,
POINT (-92.037717 30.14844),,,,,,,,,,
POINT (-90.806463 29.780225),,,,,,,,,,
POINT (-90.076121 29.955263),,,,,,,,,,
POINT (-90.08091 29.961092),,,,,,,,,,
POINT (-92.11479 32.499732),C190125-A,190125,St Francis Medical Center,309 JACKSON STREET,MONROE,71201.0,22073.0,LA,"32.499945,-92.114248",POINT (-92.11479 32.499732)
POINT (-92.461454 31.281726),C192012-A,192012,CHRISTUS DUBUIS Hospital of Alexandria,3330 MASONIC DR,ALEXANDRIA,71301.0,22079.0,LA,"31.28224,-92.46199",POINT (-92.461454 31.281726)
POINT (-92.461454 31.281726),C190019-A,190019,CHRISTUS St Frances Cabrini Hospital,3330 MASONIC DRIVE,ALEXANDRIA,71301.0,22079.0,LA,"31.28224,-92.46199",POINT (-92.461454 31.281726)
POINT (-93.343783 32.021588),,,,,,,,,,
POINT (-90.116208 30.466219),,,,,,,,,,
POINT (-70.273239 41.654288),,,,,,,,,,
POINT (-73.248269 42.459415),,,,,,,,,,
POINT (-71.146439 41.710522),,,,,,,,,,
POINT (-72.605155 42.120538),,,,,,,,,,
POINT (-71.104455 42.374186),,,,,,,,,,
POINT (-71.220129 42.611929),,,,,,,,,,
POINT (-70.954008 42.17472),,,,,,,,,,
POINT (-71.184952 42.217685),,,,,,,,,,
POINT (-71.074855 42.335174),,,,,,,,,,
POINT (-71.107661 42.335954),,,,,,,,,,
POINT (-71.104783 42.337629),C223302-A,223302,BOSTON CHILDREN S HOSPITAL,300 LONGWOOD AVENUE,BOSTON,2115.0,25025.0,MA,"42.336965,-71.10549",POINT (-71.104783 42.337629)
POINT (-71.108326 42.337944),,,,,,,,,,
POINT (-71.068777 42.3624),,,,,,,,,,
POINT (-71.062205 42.349892),,,,,,,,,,
POINT (-71.105498 42.340581),,,,,,,,,,
POINT (-78.731528 39.648265),,,,,,,,,,
POINT (-76.536256 38.989388),,,,,,,,,,
POINT (-76.622298 39.1388),,,,,,,,,,
POINT (-76.66886 39.25355),,,,,,,,,,
POINT (-76.590792 39.29714),,,,,,,,,,
POINT (-76.662345 39.354617),,,,,,,,,,
POINT (-76.670584 39.272215),,,,,,,,,,
POINT (-76.68573 39.362941),,,,,,,,,,
POINT (-76.61355 39.29255),,,,,,,,,,
POINT (-76.595521 38.559984),,,,,,,,,,
POINT (-75.831076 39.60836),,,,,,,,,,
POINT (-77.414175 39.423781),,,,,,,,,,
POINT (-79.40239 39.413732),,,,,,,,,,
POINT (-76.956948 39.0506),,,,,,,,,,
POINT (-76.999658 38.984068),,,,,,,,,,
POINT (-76.864736 38.980439),,,,,,,,,,
POINT (-77.683047 39.623656),,,,,,,,,,
POINT (-75.598189 38.363096),,,,,,,,,,
POINT (-75.210472 38.338604),,,,,,,,,,
POINT (-70.215454 44.10284),,,,,,,,,,
POINT (-69.786965 44.362751),,,,,,,,,,
POINT (-68.749828 44.809907),,,,,,,,,,
POINT (-83.704783 43.021929),,,,,,,,,,
POINT (-85.64153 44.761645),,,,,,,,,,
POINT (-84.534816 42.733609),,,,,,,,,,
POINT (-85.58133 42.286125),,,,,,,,,,
POINT (-85.665037 42.970517),C230038-C,230038,Spectrum Health Butterworth Hospital,100 MICHIGAN ST NE,GRAND RAPIDS,49503.0,26081.0,MI,"42.97042,-85.66632",POINT (-85.665037 42.970517)
POINT (-85.722926 42.857749),,,,,,,,,,
POINT (-87.411037 46.543081),,,,,,,,,,
POINT (-84.261735 43.63565),,,,,,,,,,
POINT (-83.389075 41.925143),,,,,,,,,,
POINT (-83.192591 42.517674),,,,,,,,,,
POINT (-83.955552 43.428435),,,,,,,,,,
POINT (-83.961853 43.443659),,,,,,,,,,
POINT (-83.659819 42.261803),,,,,,,,,,
POINT (-83.729265 42.285336),,,,,,,,,,
POINT (-82.914914 42.418972),C232023-A,232023,Select Specialty Hospital - Grosse Pointe,22101 MOROSS RD,DETROIT,48236.0,26163.0,MI,"42.420516,-82.916344",POINT (-82.914914 42.418972)
POINT (-83.057892 42.351375),,,,,,,,,,
POINT (-83.08455 42.366129),,,,,,,,,,
POINT (-83.058198 42.3519),C230297-A,230297,Karmanos Cancer Center (AKA Barbara Ann Karmanos Cancer Hospital),4100 JOHN R,DETROIT,48201.0,26163.0,MI,"42.352841,-83.056713",POINT (-83.058198 42.3519)
POINT (-83.06039 42.355162),,,,,,,,,,
POINT (-94.898403 47.501354),,,,,,,,,,
POINT (-93.983802 44.165042),C240093-A,240093,Mayo Clinic Hospital - Mankato,1025 MARSH STREET,MANKATO,56001.0,27013.0,MN,"44.163846,-93.98317",POINT (-93.983802 44.165042)
POINT (-94.205143 46.362473),,,,,,,,,,
POINT (-93.402975 44.8657),,,,,,,,,,
POINT (-93.262588 44.956237),,,,,,,,,,
POINT (-93.263009 44.971667),,,,,,,,,,
POINT (-93.214642 44.981561),,,,,,,,,,
POINT (-93.324684 45.018526),,,,,,,,,,
POINT (-95.599049 43.621947),,,,,,,,,,
POINT (-92.465915 44.023482),,,,,,,,,,
POINT (-96.07243 46.274948),,,,,,,,,,
POINT (-94.217407 45.567592),,,,,,,,,,
POINT (-92.590847 40.192468),,,,,,,,,,
POINT (-92.328624 38.937674),,,,,,,,,,
POINT (-92.327451 38.937599),,,,,,,,,,
POINT (-92.317039 38.950669),,,,,,,,,,
POINT (-94.77025 39.770201),C260006-A,260006,Mosaic Life Care at St Joseph - Medical Center,5325 FARAON STREET,SAINT JOSEPH,64506.0,29021.0,MO,"39.772278,-94.770551",POINT (-94.77025 39.770201)
POINT (-90.443287 36.788987),,,,,,,,,,
POINT (-90.418392 36.772052),,,,,,,,,,
POINT (-89.571931 37.302224),,,,,,,,,,
POINT (-89.540936 37.311273),C260110-A,260110,Southeast Hospital,1701 LACEY ST,CAPE GIRARDEAU,63701.0,29031.0,MO,"37.310969,-89.540645",POINT (-89.540936 37.311273)
POINT (-94.424547 39.276633),,,,,,,,,,
POINT (-94.551852 39.15081),,,,,,,,,,
POINT (-92.182379 38.566355),,,,,,,,,,
POINT (-92.22067 38.560058),C260011-A,260011,SSM Health St Marys Hospital - Jefferson City,2505 MISSION DRIVE,JEFFERSON CITY,65109.0,29051.0,MO,"38.558395,-92.221516",POINT (-92.22067 38.560058)
POINT (-91.001539 38.55199),,,,,,,,,,
POINT (-94.325465 40.252423),,,,,,,,,,
POINT (-93.278091 37.144664),,,,,,,,,,
POINT (-93.275276 37.177969),,,,,,,,,,
POINT (-91.875554 36.737909),C260078-A,260078,Ozarks Medical Center,1100 KENTUCKY AVE,WEST PLAINS,65775.0,29091.0,MO,"36.738046,-91.874703",POINT (-91.875554 36.737909)
POINT (-94.578593 39.082706),,,,,,,,,,
POINT (-94.590127 39.046477),,,,,,,,,,
POINT (-94.605907 38.935007),,,,,,,,,,
POINT (-94.558253 39.007202),,,,,,,,,,
POINT (-94.575784 39.085151),,,,,,,,,,
POINT (-94.527089 37.054342),,,,,,,,,,
POINT (-94.511799 37.034697),,,,,,,,,,
POINT (-90.395433 38.19585),,,,,,,,,,
POINT (-94.87404 40.325991),,,,,,,,,,
POINT (-89.740055 36.236855),,,,,,,,,,
POINT (-93.222089 38.699051),,,,,,,,,,
POINT (-91.785501 37.951443),,,,,,,,,,
POINT (-93.420975 37.626777),,,,,,,,,,
POINT (-90.484635 38.780418),,,,,,,,,,
POINT (-90.37767 38.509657),,,,,,,,,,
POINT (-90.443636 38.635613),,,,,,,,,,
POINT (-90.443481 38.64475),,,,,,,,,,
POINT (-90.263006 38.635904),,,,,,,,,,
POINT (-90.238593 38.620893),,,,,,,,,,
POINT (-90.229844 38.641462),,,,,,,,,,
POINT (-90.237354 38.624414),,,,,,,,,,
POINT (-90.261212 38.638662),,,,,,,,,,
POINT (-93.210263 39.091319),,,,,,,,,,
POINT (-89.989881 34.976181),,,,,,,,,,
POINT (-89.997923 34.967934),,,,,,,,,,
POINT (-89.328681 31.318764),,,,,,,,,,
POINT (-89.823755 33.77557),,,,,,,,,,
POINT (-88.946948 30.410646),,,,,,,,,,
POINT (-90.178223 32.314232),,,,,,,,,,
POINT (-90.165103 32.333691),C250048-A,250048,St Dominic Hospital (AKA St Dominic Jackson Memorial Hospital),969 LAKELAND DR,JACKSON,39216.0,28049.0,MS,"32.332134,-90.165086",POINT (-90.165103 32.333691)
POINT (-90.167306 32.326795),,,,,,,,,,
POINT (-90.255475 32.28684),,,,,,,,,,
POINT (-88.53277 30.374664),,,,,,,,,,
POINT (-89.522076 34.335864),,,,,,,,,,
POINT (-88.713023 34.238839),,,,,,,,,,
POINT (-88.42907 33.526414),,,,,,,,,,
POINT (-88.81824 33.47635),,,,,,,,,,
POINT (-88.997369 34.48623),,,,,,,,,,
POINT (-114.324965 48.215324),,,,,,,,,,
POINT (-111.017239 45.670289),,,,,,,,,,
POINT (-111.994975 46.584213),,,,,,,,,,
POINT (-114.046495 46.845604),,,,,,,,,,
POINT (-114.00063 46.874103),,,,,,,,,,
POINT (-110.525425 45.676043),,,,,,,,,,
POINT (-112.546445 46.008894),,,,,,,,,,
POINT (-108.514427 45.790314),,,,,,,,,,
POINT (-108.520001 45.792877),,,,,,,,,,
POINT (-79.437157 36.090604),,,,,,,,,,
POINT (-81.177925 35.918469),,,,,,,,,,
POINT (-78.25925 34.03181),,,,,,,,,,
POINT (-82.485185 35.587129),,,,,,,,,,
POINT (-82.537147 35.482243),,,,,,,,,,
POINT (-81.679538 35.738018),,,,,,,,,,
POINT (-81.524764 35.747761),,,,,,,,,,
POINT (-80.599321 35.446017),,,,,,,,,,
POINT (-80.435729 35.399112),,,,,,,,,,
POINT (-76.643385 34.726348),,,,,,,,,,
POINT (-77.054629 34.659695),,,,,,,,,,
POINT (-76.754881 34.724872),,,,,,,,,,
POINT (-81.265152 35.714688),,,,,,,,,,
POINT (-81.337778 35.737175),,,,,,,,,,
POINT (-81.320075 35.730199),,,,,,,,,,
POINT (-81.383503 35.729379),,,,,,,,,,
POINT (-77.067866 35.112739),,,,,,,,,,
POINT (-78.878136 35.08966),,,,,,,,,,
POINT (-78.936539 36.010576),,,,,,,,,,
POINT (-80.044363 36.092836),,,,,,,,,,
POINT (-80.298519 36.073892),,,,,,,,,,
POINT (-80.179794 36.076873),,,,,,,,,,
POINT (-80.302873 36.061304),,,,,,,,,,
POINT (-81.143023 35.274593),,,,,,,,,,
POINT (-81.01719 35.297873),,,,,,,,,,
POINT (-79.828696 36.08146),,,,,,,,,,
POINT (-79.882479 36.089115),,,,,,,,,,
POINT (-82.468145 35.320814),,,,,,,,,,
POINT (-82.470551 35.318834),,,,,,,,,,
POINT (-80.796515 35.58872),,,,,,,,,,
POINT (-78.333574 35.513187),,,,,,,,,,
POINT (-77.735968 35.06738),,,,,,,,,,
POINT (-80.81726 35.05886),,,,,,,,,,
POINT (-80.818493 35.212735),,,,,,,,,,
POINT (-80.913708 35.196865),,,,,,,,,,
POINT (-80.7385 35.137858),,,,,,,,,,
POINT (-80.919388 35.224286),,,,,,,,,,
POINT (-80.826861 35.211688),,,,,,,,,,
POINT (-80.809634 35.204937),,,,,,,,,,
POINT (-80.825476 35.212973),,,,,,,,,,
POINT (-80.891913 35.246642),,,,,,,,,,
POINT (-80.860189 35.410961),,,,,,,,,,
POINT (-79.453922 35.205724),,,,,,,,,,
POINT (-77.926819 34.206052),,,,,,,,,,
POINT (-76.22002 36.32153),,,,,,,,,,
POINT (-82.212575 35.239027),,,,,,,,,,
POINT (-80.471457 35.681735),,,,,,,,,,
POINT (-80.487085 35.681319),C34017F-A,34017F,W.G. (BILL) HEFNER SALISBURY VA MEDICAL CENTER (SALSBURY),1601 BRENNER AVENUE,SALISBURY,28144.0,37159.0,NC,"35.683538,-80.489515",POINT (-80.487085 35.681319)
POINT (-80.481561 35.680964),,,,,,,,,,
POINT (-78.323635 35.007783),,,,,,,,,,
POINT (-79.47042 34.7517),,,,,,,,,,
POINT (-80.453168 35.254706),,,,,,,,,,
POINT (-78.807124 35.732708),,,,,,,,,,
POINT (-78.621667 35.709031),,,,,,,,,,
POINT (-78.576561 35.685197),,,,,,,,,,
POINT (-78.863625 35.871661),,,,,,,,,,
POINT (-78.659358 35.88612),,,,,,,,,,
POINT (-77.953336 35.400833),,,,,,,,,,
POINT (-77.938343 35.767119),,,,,,,,,,
POINT (-96.028839 41.237905),,,,,,,,,,
POINT (-96.183447 41.2324),,,,,,,,,,
POINT (-96.622821 40.772305),,,,,,,,,,
POINT (-96.638845 40.818356),,,,,,,,,,
POINT (-96.699047 40.790004),,,,,,,,,,
POINT (-96.65365 40.7979),,,,,,,,,,
POINT (-96.627776 40.811773),,,,,,,,,,
POINT (-97.450993 42.032525),,,,,,,,,,
POINT (-103.665837 41.885055),,,,,,,,,,
POINT (-71.13785 44.060011),,,,,,,,,,
POINT (-71.156548 44.487099),,,,,,,,,,
POINT (-71.554156 44.48699),C301303-A,301303,Weeks Medical Center,173 MIDDLE STREET,LANCASTER,3584.0,33007.0,NH,"44.486188,-71.554323",POINT (-71.554156 44.48699)
POINT (-71.825316 44.316234),C301302-A,301302,Littleton Regional Healthcare,600 ST JOHNSBURY ROAD,LITTLETON,3561.0,33009.0,NH,"44.317667,-71.826335",POINT (-71.825316 44.316234)
POINT (-71.473849 42.991071),,,,,,,,,,
POINT (-71.437231 42.98386),,,,,,,,,,
POINT (-71.480127 42.750352),,,,,,,,,,
POINT (-71.461896 42.755903),,,,,,,,,,
POINT (-71.543464 43.193289),,,,,,,,,,
POINT (-71.517515 43.21576),,,,,,,,,,
POINT (-71.561352 43.196099),,,,,,,,,,
POINT (-70.934896 42.983614),,,,,,,,,,
POINT (-70.788052 43.063988),,,,,,,,,,
POINT (-70.875338 43.212638),,,,,,,,,,
POINT (-70.961195 43.298189),,,,,,,,,,
POINT (-74.433995 39.35777),,,,,,,,,,
POINT (-74.514622 39.472393),,,,,,,,,,
POINT (-74.592864 39.314714),,,,,,,,,,
POINT (-73.967384 40.904062),,,,,,,,,,
POINT (-74.057954 40.884032),,,,,,,,,,
POINT (-74.069316 41.057185),,,,,,,,,,
POINT (-74.062156 40.958606),,,,,,,,,,
POINT (-74.014952 40.984924),,,,,,,,,,
POINT (-74.58621 39.977274),,,,,,,,,,
POINT (-74.795832 39.985698),,,,,,,,,,
POINT (-74.919013 39.880554),,,,,,,,,,
POINT (-74.881211 40.048705),,,,,,,,,,
POINT (-75.114653 39.941461),,,,,,,,,,
POINT (-75.095744 39.927062),,,,,,,,,,
POINT (-75.017145 39.929089),,,,,,,,,,
POINT (-75.008801 39.82885),,,,,,,,,,
POINT (-74.927892 39.842327),,,,,,,,,,
POINT (-75.058659 39.447506),C310032-B,310032,Inspira Medical Center Vineland (FKA South Jersey Healthcare Regional Medical Center),1505 W SHERMAN AVE,VINELAND,8360.0,34011.0,NJ,"39.445387,-75.058741",POINT (-75.058659 39.447506)
POINT (-74.175131 40.785228),,,,,,,,,,
POINT (-74.213208 40.753645),,,,,,,,,,
POINT (-74.302385 40.763939),,,,,,,,,,
POINT (-74.204288 40.8123),,,,,,,,,,
POINT (-74.213878 40.710104),,,,,,,,,,
POINT (-74.174503 40.743034),,,,,,,,,,
POINT (-75.149563 39.717915),,,,,,,,,,
POINT (-75.065655 39.734084),,,,,,,,,,
POINT (-74.033559 40.741213),,,,,,,,,,
POINT (-74.050249 40.73471),,,,,,,,,,
POINT (-74.049996 40.716671),,,,,,,,,,
POINT (-73.995765 40.794166),C310003-A,310003,Palisades Medical Center,7600 RIVER RD,NORTH BERGEN,7047.0,34017.0,NJ,"40.793475,-73.996099",POINT (-73.995765 40.794166)
POINT (-74.859997 40.531905),,,,,,,,,,
POINT (-74.810992 40.294611),,,,,,,,,,
POINT (-74.752801 40.235938),,,,,,,,,,
POINT (-74.67483 40.21712),,,,,,,,,,
POINT (-74.349586 40.557869),,,,,,,,,,
POINT (-74.322689 40.383936),,,,,,,,,,
POINT (-74.280671 40.518301),,,,,,,,,,
POINT (-74.625938 40.338981),,,,,,,,,,
POINT (-73.983666 40.295038),C310075-A,310075,Monmouth Medical Center,300 SECOND AVENUE,LONG BRANCH,7740.0,34025.0,NJ,"40.295621,-73.985196",POINT (-73.983666 40.295038)
POINT (-74.149048 40.373045),,,,,,,,,,
POINT (-74.039604 40.207647),,,,,,,,,,
POINT (-74.06343 40.353746),,,,,,,,,,
POINT (-74.576886 40.886053),,,,,,,,,,
POINT (-74.465534 40.894355),C310050-A,310050,Saint Clare's Denville Hospital,25 POCONO RD,DENVILLE,7834.0,34027.0,NJ,"40.895421,-74.465341",POINT (-74.465534 40.894355)
POINT (-74.465049 40.78804),,,,,,,,,,
POINT (-74.310184 40.959096),,,,,,,,,,
POINT (-74.129748 40.078327),,,,,,,,,,
POINT (-74.217362 40.074107),,,,,,,,,,
POINT (-74.286515 39.720713),,,,,,,,,,
POINT (-74.214585 39.965098),,,,,,,,,,
POINT (-74.165876 40.901517),,,,,,,,,,
POINT (-74.205733 40.946443),,,,,,,,,,
POINT (-74.584009 40.643227),,,,,,,,,,
POINT (-74.595695 40.568854),,,,,,,,,,
POINT (-74.764892 41.055673),,,,,,,,,,
POINT (-74.214355 40.65892),,,,,,,,,,
POINT (-74.291686 40.612237),C312020-B,312020,Kindred Hospital New Jersey - Rahway,865 STONE ST,RAHWAY,7065.0,34039.0,NJ,"40.61298,-74.290948",POINT (-74.291686 40.612237)
POINT (-74.291686 40.612237),C310024-A,310024,RWJ University Hospital Rahway,865 STONE ST,RAHWAY,7065.0,34039.0,NJ,"40.61298,-74.290948",POINT (-74.291686 40.612237)
POINT (-74.354543 40.712576),C310051-A,310051,Overlook Medical Center,99 BEAUVOIR AVENUE,SUMMIT,7902.0,34039.0,NJ,"40.741378,-74.36003",POINT (-74.354543 40.712576)
POINT (-74.814159 40.861314),,,,,,,,,,
POINT (-106.589321 35.173153),,,,,,,,,,
POINT (-106.553116 35.094588),,,,,,,,,,
POINT (-106.600423 35.166422),,,,,,,,,,
POINT (-106.577664 35.054285),,,,,,,,,,
POINT (-106.717544 35.078406),,,,,,,,,,
POINT (-106.631208 35.089515),,,,,,,,,,
POINT (-104.527034 33.422168),,,,,,,,,,
POINT (-106.319765 35.882165),,,,,,,,,,
POINT (-108.176012 36.756156),,,,,,,,,,
POINT (-106.654177 35.248844),,,,,,,,,,
POINT (-105.949337 35.657182),,,,,,,,,,
POINT (-105.952305 35.645937),,,,,,,,,,
POINT (-119.781729 39.201898),,,,,,,,,,
POINT (-119.76611 39.179184),,,,,,,,,,
POINT (-118.76518 39.474876),C291313-A,291313,Banner Churchill Community Hospital,801 EAST WILLIAMS AVENUE,FALLON,89406.0,32001.0,NV,"39.476192,-118.765792",POINT (-118.76518 39.474876)
POINT (-115.109228 36.114934),,,,,,,,,,
POINT (-115.183575 36.053931),,,,,,,,,,
POINT (-115.271698 36.055545),,,,,,,,,,
POINT (-115.166362 36.158942),,,,,,,,,,
POINT (-115.158321 36.120819),,,,,,,,,,
POINT (-115.131625 36.07173),,,,,,,,,,
POINT (-114.113778 36.808955),,,,,,,,,,
POINT (-115.243429 36.034566),,,,,,,,,,
POINT (-119.719994 38.91877),,,,,,,,,,
POINT (-117.728374 40.971781),,,,,,,,,,
POINT (-114.511827 37.622396),,,,,,,,,,
POINT (-119.753952 39.427815),,,,,,,,,,
POINT (-119.796721 39.524747),,,,,,,,,,
POINT (-119.805865 39.476635),,,,,,,,,,
POINT (-119.783845 39.455979),,,,,,,,,,
POINT (-119.752223 39.428395),,,,,,,,,,
POINT (-119.760592 39.446131),,,,,,,,,,
POINT (-73.774505 42.652821),C330013-A,330013,Albany Medical Center,"43 NEW SCOTLAND AVENUE, MAIL CODE 34",ALBANY,12208.0,36001.0,NY,"42.653041,-73.77556",POINT (-73.774505 42.652821)
POINT (-73.748921 42.674636),C330003-A,330003,Samaritan Hospital - Albany Memorial Campus (FKA Albany Memorial Hospital),600 NORTHERN BLVD,ALBANY,12204.0,36001.0,NY,"42.674114,-73.748619",POINT (-73.748921 42.674636)
POINT (-77.950013 42.123016),,,,,,,,,,
POINT (-73.911604 40.843651),,,,,,,,,,
POINT (-73.879975 40.879777),,,,,,,,,,
POINT (-73.892168 40.85277),,,,,,,,,,
POINT (-75.914075 42.086413),,,,,,,,,,
POINT (-78.426977 42.089447),,,,,,,,,,
POINT (-76.56447 42.940766),,,,,,,,,,
POINT (-79.333606 42.480064),,,,,,,,,,
POINT (-79.232925 42.091113),,,,,,,,,,
POINT (-79.569397 42.327901),,,,,,,,,,
POINT (-76.826745 42.099234),,,,,,,,,,
POINT (-73.466695 44.700423),,,,,,,,,,
POINT (-73.777067 42.24599),,,,,,,,,,
POINT (-74.641859 42.147462),,,,,,,,,,
POINT (-75.128476 42.164638),,,,,,,,,,
POINT (-73.93563 41.694575),,,,,,,,,,
POINT (-73.929503 41.717405),,,,,,,,,,
POINT (-73.911774 41.934571),C330049-A,330049,Northern Dutchess Hospital,6511 SPRINGBROOK AVENUE,RHINEBECK,12572.0,36027.0,NY,"41.935307,-73.912753",POINT (-73.911774 41.934571)
POINT (-73.962875 41.540975),,,,,,,,,,
POINT (-78.829151 42.927175),C330219-A,330219,Erie County Medical Center (AKA ECMC),462 GRIDER STREET,BUFFALO,14215.0,36029.0,NY,"42.92669,-78.82927",POINT (-78.829151 42.927175)
POINT (-78.865983 42.900342),,,,,,,,,,
POINT (-78.812115 42.848052),,,,,,,,,,
POINT (-78.865021 42.898533),,,,,,,,,,
POINT (-78.849596 42.929473),,,,,,,,,,
POINT (-78.78432 42.91414),,,,,,,,,,
POINT (-78.659196 42.508483),,,,,,,,,,
POINT (-78.730102 42.991116),C330005-B,330005,Millard Fillmore Suburban Hospital,1540 MAPLE RD,WILLIAMSVILLE,14221.0,36029.0,NY,"42.993813,-78.730138",POINT (-78.730102 42.991116)
POINT (-74.144632 44.345029),,,,,,,,,,
POINT (-74.331469 43.067973),C330276-A,330276,Nathan Littauer Hospital,99 EAST STATE ST,GLOVERSVILLE,12078.0,36035.0,NY,"43.07113,-74.33301",POINT (-74.331469 43.067973)
POINT (-78.177183 43.003939),,,,,,,,,,
POINT (-74.84766 43.043935),,,,,,,,,,
POINT (-75.920121 44.337172),,,,,,,,,,
POINT (-75.912725 43.965077),,,,,,,,,,
POINT (-73.948321 40.613783),,,,,,,,,,
POINT (-73.945128 40.654459),,,,,,,,,,
POINT (-74.023717 40.609071),C33020F-A,33020F,VA NEW YORK HARBOR HEALTHCARE SYSTEM - BROOKLYN,800 POLY PL,BROOKLYN,11209.0,36047.0,NY,"40.609789,-74.027593",POINT (-74.023717 40.609071)
POINT (-77.700314 42.552038),,,,,,,,,,
POINT (-75.541928 42.813814),C331316-A,331316,Community Memorial Hospital,150 BROAD STREET,HAMILTON,13346.0,36053.0,NY,"42.812047,-75.544208",POINT (-75.541928 42.813814)
POINT (-75.653598 43.078687),,,,,,,,,,
POINT (-77.607295 43.136451),,,,,,,,,,
POINT (-77.584428 43.192588),,,,,,,,,,
POINT (-77.701451 43.192588),,,,,,,,,,
POINT (-77.68614 43.184625),,,,,,,,,,
POINT (-74.215651 42.95352),,,,,,,,,,
POINT (-73.478545 40.725805),,,,,,,,,,
POINT (-73.553707 40.725306),,,,,,,,,,
POINT (-73.708419 40.780662),,,,,,,,,,
POINT (-73.643382 40.741684),,,,,,,,,,
POINT (-73.633236 40.688191),,,,,,,,,,
POINT (-73.672669 40.804505),,,,,,,,,,
POINT (-73.685685 40.681559),,,,,,,,,,
POINT (-73.955794 40.764053),,,,,,,,,,
POINT (-73.953228 40.765746),,,,,,,,,,
POINT (-73.974661 40.74226),,,,,,,,,,
POINT (-73.977025 40.736248),,,,,,,,,,
POINT (-73.953127 40.764866),C330270-A,330270,Hospital for Special Surgery,535 EAST 70TH STREET,NEW YORK,10021.0,36061.0,NY,"40.7653,-73.95389",POINT (-73.953127 40.764866)
POINT (-73.953632 40.790361),,,,,,,,,,
POINT (-78.670979 43.176418),,,,,,,,,,
POINT (-79.050481 43.094092),C330065-A,330065,Niagara Falls Memorial Medical Center,621 TENTH STREET,NIAGARA FALLS,14302.0,36063.0,NY,"43.093947,-79.049787",POINT (-79.050481 43.094092)
POINT (-78.862424 43.026221),,,,,,,,,,
POINT (-75.444138 43.229108),,,,,,,,,,
POINT (-75.267419 43.083514),,,,,,,,,,
POINT (-76.138225 43.041299),,,,,,,,,,
POINT (-76.14934 43.055797),,,,,,,,,,
POINT (-76.170281 43.008677),,,,,,,,,,
POINT (-77.289924 42.874927),,,,,,,,,,
POINT (-77.139252 42.960473),,,,,,,,,,
POINT (-74.369415 41.439962),,,,,,,,,,
POINT (-74.682593 41.367766),,,,,,,,,,
POINT (-74.35684 41.261416),,,,,,,,,,
POINT (-78.397073 43.22369),,,,,,,,,,
POINT (-76.516001 43.454141),,,,,,,,,,
POINT (-73.826128 40.747181),,,,,,,,,,
POINT (-73.8513 40.72861),,,,,,,,,,
POINT (-73.815672 40.700271),,,,,,,,,,
POINT (-74.086954 40.584051),,,,,,,,,,
POINT (-74.106682 40.635456),,,,,,,,,,
POINT (-73.925078 41.095724),,,,,,,,,,
POINT (-74.136136 41.112383),,,,,,,,,,
POINT (-75.474359 44.338278),,,,,,,,,,
POINT (-74.907893 44.936412),C330223-A,330223,Massena Memorial Hospital,1 HOSPITAL DRIVE,MASSENA,13662.0,36089.0,NY,"44.936304,-74.908852",POINT (-74.907893 44.936412)
POINT (-75.500014 44.692069),,,,,,,,,,
POINT (-74.981481 44.676998),,,,,,,,,,
POINT (-75.055826 44.162816),,,,,,,,,,
POINT (-73.797121 43.084761),,,,,,,,,,
POINT (-73.917988 42.819574),,,,,,,,,,
POINT (-74.483008 42.686257),,,,,,,,,,
POINT (-76.858842 42.351453),,,,,,,,,,
POINT (-77.27898 42.372743),,,,,,,,,,
POINT (-76.969841 42.136107),,,,,,,,,,
POINT (-77.662034 42.357131),,,,,,,,,,
POINT (-73.233417 40.729806),,,,,,,,,,
POINT (-72.361469 41.110947),,,,,,,,,,
POINT (-73.417463 40.878899),,,,,,,,,,
POINT (-73.306056 40.89892),,,,,,,,,,
POINT (-72.978157 40.779478),,,,,,,,,,
POINT (-73.053019 40.938242),,,,,,,,,,
POINT (-72.674351 40.93362),,,,,,,,,,
POINT (-73.220131 40.867667),,,,,,,,,,
POINT (-72.380983 40.885734),,,,,,,,,,
POINT (-73.294768 40.695844),C330286-A,330286,Good Samaritan Hospital Medical Center,1000 MONTAUK HIGHWAY,WEST ISLIP,11795.0,36103.0,NY,"40.694087,-73.294465",POINT (-73.294768 40.695844)
POINT (-74.736678 41.706428),,,,,,,,,,
POINT (-76.536276 42.46843),,,,,,,,,,
POINT (-74.379693 41.733187),,,,,,,,,,
POINT (-73.995675 41.926437),,,,,,,,,,
POINT (-77.100671 43.059959),,,,,,,,,,
POINT (-73.893312 41.291451),,,,,,,,,,
POINT (-73.724453 41.196659),,,,,,,,,,
POINT (-73.786997 40.912968),,,,,,,,,,
POINT (-73.769794 41.026273),,,,,,,,,,
POINT (-73.755342 41.014357),,,,,,,,,,
POINT (-73.884967 40.968234),,,,,,,,,,
POINT (-73.859619 41.107589),,,,,,,,,,
POINT (-78.132426 42.754534),,,,,,,,,,
POINT (-83.898113 40.88755),,,,,,,,,,
POINT (-80.795674 41.880148),,,,,,,,,,
POINT (-80.720889 40.098644),,,,,,,,,,
POINT (-81.621342 41.503448),C360180-A,360180,Cleveland Clinic Main Campus,9500 EUCLID AVENUE,CLEVELAND,44195.0,39035.0,OH,"41.50361,-81.62062",POINT (-81.621342 41.503448)
POINT (-81.697928 41.462239),,,,,,,,,,
POINT (-81.607239 41.507309),,,,,,,,,,
POINT (-81.466418 41.504785),,,,,,,,,,
POINT (-81.83291 41.37208),,,,,,,,,,
POINT (-84.635146 40.088791),,,,,,,,,,
POINT (-82.93926 40.143214),,,,,,,,,,
POINT (-83.425478 39.548262),,,,,,,,,,
POINT (-83.041444 40.059456),,,,,,,,,,
POINT (-82.91235 39.980419),,,,,,,,,,
POINT (-82.979128 39.952387),,,,,,,,,,
POINT (-81.576677 40.040477),,,,,,,,,,
POINT (-84.343886 39.252501),,,,,,,,,,
POINT (-84.511113 39.120839),,,,,,,,,,
POINT (-84.380574 39.20679),,,,,,,,,,
POINT (-84.502349 39.139546),,,,,,,,,,
POINT (-84.50944 39.139585),,,,,,,,,,
POINT (-84.500402 39.140936),,,,,,,,,,
POINT (-83.65034 41.01714),,,,,,,,,,
POINT (-80.65933 40.368124),,,,,,,,,,
POINT (-82.45093 40.401227),,,,,,,,,,
POINT (-81.432239 41.626543),C360098-A,360098,West Medical Center,36000 EUCLID AVE,WILLOUGHBY,44094.0,39085.0,OH,"41.625831,-81.43357",POINT (-81.432239 41.626543)
POINT (-83.594786 41.670849),,,,,,,,,,
POINT (-83.615835 41.621213),,,,,,,,,,
POINT (-84.186282 39.743904),,,,,,,,,,
POINT (-84.190779 39.696064),,,,,,,,,,
POINT (-82.014245 39.975731),C360039-A,360039,Genesis Hospital (AKA Genesis Healthcare System),2951 MAPLE AVENUE,ZANESVILLE,43701.0,39119.0,OH,"39.973635,-82.012139",POINT (-82.014245 39.975731)
POINT (-82.933785 41.505799),,,,,,,,,,
POINT (-84.601066 41.135293),,,,,,,,,,
POINT (-82.977694 38.753905),C360008-A,360008,Southern Ohio Medical Center,1805 27TH STREET,PORTSMOUTH,45662.0,39145.0,OH,"38.745355,-82.990579",POINT (-82.977694 38.753905)
POINT (-81.403604 40.796853),,,,,,,,,,
POINT (-81.427757 40.852413),,,,,,,,,,
POINT (-81.39707 40.812296),,,,,,,,,,
POINT (-81.500173 41.07838),,,,,,,,,,
POINT (-80.846371 41.285702),,,,,,,,,,
POINT (-81.335873 40.401478),,,,,,,,,,
POINT (-96.131246 34.379468),,,,,,,,,,
POINT (-97.140018 34.188451),,,,,,,,,,
POINT (-97.441117 35.230256),,,,,,,,,,
POINT (-98.434437 34.608969),,,,,,,,,,
POINT (-97.889378 36.388801),,,,,,,,,,
POINT (-97.961942 35.047707),,,,,,,,,,
POINT (-95.406186 35.753621),,,,,,,,,,
POINT (-95.413749 35.765241),,,,,,,,,,
POINT (-97.392959 35.46648),,,,,,,,,,
POINT (-97.57455 35.52996),,,,,,,,,,
POINT (-97.501002 35.482317),,,,,,,,,,
POINT (-97.524291 35.477786),,,,,,,,,,
POINT (-97.600512 35.609023),,,,,,,,,,
POINT (-97.503346 35.594546),,,,,,,,,,
POINT (-95.967148 36.147164),,,,,,,,,,
POINT (-95.857857 36.031925),,,,,,,,,,
POINT (-96.001828 36.061091),,,,,,,,,,
POINT (-117.847454 44.796119),C381315-A,381315,Saint Alphonsus Medical Center - Baker City,3325 POCAHONTAS ROAD,BAKER CITY,97814.0,41001.0,OR,"44.794516,-117.847356",POINT (-117.847454 44.796119)
POINT (-123.252682 44.604311),C380014-A,380014,Good Samaritan Regional Medical Center,3600 NW SAMARITAN DRIVE,CORVALLIS,97330.0,41003.0,OR,"44.603215,-123.253181",POINT (-123.252682 44.604311)
POINT (-122.563082 45.433286),,,,,,,,,,
POINT (-122.558256 45.433472),,,,,,,,,,
POINT (-122.596699 45.345369),,,,,,,,,,
POINT (-124.402426 43.113244),C381304-A,381304,Southern Coos Hospital and Health Center,900 11TH STREET SE,BANDON,97411.0,41011.0,OR,"43.11191,-124.401384",POINT (-124.402426 43.113244)
POINT (-121.266708 44.065757),,,,,,,,,,
POINT (-123.371313 43.213759),,,,,,,,,,
POINT (-124.135571 43.695324),,,,,,,,,,
POINT (-118.95922 44.417651),,,,,,,,,,
POINT (-119.06057 43.588723),,,,,,,,,,
POINT (-121.523224 45.704561),,,,,,,,,,
POINT (-122.831042 42.316486),,,,,,,,,,
POINT (-122.861 42.339966),,,,,,,,,,
POINT (-123.342295 42.419876),,,,,,,,,,
POINT (-121.787112 42.252653),,,,,,,,,,
POINT (-124.117464 43.974589),,,,,,,,,,
POINT (-123.002589 44.0524),,,,,,,,,,
POINT (-123.028624 44.081376),,,,,,,,,,
POINT (-123.995496 44.985179),,,,,,,,,,
POINT (-124.058598 44.629684),,,,,,,,,,
POINT (-122.908574 44.550916),,,,,,,,,,
POINT (-123.045146 44.914296),,,,,,,,,,
POINT (-123.035112 44.932695),,,,,,,,,,
POINT (-122.983672 44.956186),,,,,,,,,,
POINT (-123.033167 44.932885),C380051-A,380051,Salem Hospital,"890 OAK STREET, SE",SALEM,97301.0,41047.0,OR,"44.932525,-123.034184",POINT (-123.033167 44.932885)
POINT (-122.669518 45.544129),,,,,,,,,,
POINT (-122.613811 45.526518),,,,,,,,,,
POINT (-122.679977 45.546373),,,,,,,,,,
POINT (-122.676597 45.527715),,,,,,,,,,
POINT (-123.854157 45.456326),,,,,,,,,,
POINT (-119.310948 45.84631),,,,,,,,,,
POINT (-118.104856 45.319546),,,,,,,,,,
POINT (-117.28263 45.431754),,,,,,,,,,
POINT (-121.165224 45.588019),,,,,,,,,,
POINT (-122.782686 45.485624),,,,,,,,,,
POINT (-122.876046 45.539237),,,,,,,,,,
POINT (-122.770854 45.508842),,,,,,,,,,
POINT (-122.68677 45.4992),,,,,,,,,,
POINT (-79.962158 40.423829),,,,,,,,,,
POINT (-80.003138 40.456172),,,,,,,,,,
POINT (-75.948059 40.329863),,,,,,,,,,
POINT (-79.942934 40.874373),,,,,,,,,,
POINT (-75.798933 39.999594),,,,,,,,,,
POINT (-76.674557 40.265932),,,,,,,,,,
POINT (-80.064119 42.10317),,,,,,,,,,
POINT (-76.305328 40.046975),,,,,,,,,,
POINT (-75.480763 40.574019),,,,,,,,,,
POINT (-75.265557 39.993575),,,,,,,,,,
POINT (-76.603393 40.966741),,,,,,,,,,
POINT (-76.72045 39.946523),,,,,,,,,,
POINT (-75.092028 40.066253),,,,,,,,,,
POINT (-75.152105 40.005105),,,,,,,,,,
POINT (-75.192955 39.94847),,,,,,,,,,
POINT (-75.144683 40.037),,,,,,,,,,
POINT (-75.158761 39.949646),,,,,,,,,,
POINT (-75.19274 39.95046),,,,,,,,,,
POINT (-75.199512 39.957478),,,,,,,,,,
POINT (-79.916334 40.181842),,,,,,,,,,
POINT (-66.080416 18.392008),,,,,,,,,,
POINT (-71.478358 41.704716),,,,,,,,,,
POINT (-71.306193 41.497809),,,,,,,,,,
POINT (-71.465766 41.739045),,,,,,,,,,
POINT (-71.407066 41.811792),,,,,,,,,,
POINT (-71.397541 41.851687),,,,,,,,,,
POINT (-71.434909 41.833925),,,,,,,,,,
POINT (-71.411753 41.810179),C410010-A,410010,Women & Infants Hospital,101 DUDLEY STREET,PROVIDENCE,2905.0,44007.0,RI,"41.810964,-71.412083",POINT (-71.411753 41.810179)
POINT (-71.495277 42.005438),,,,,,,,,,
POINT (-71.495931 41.431908),,,,,,,,,,
POINT (-71.826103 41.362757),,,,,,,,,,
POINT (-79.946542 32.785322),,,,,,,,,,
POINT (-79.953687 32.783692),,,,,,,,,,
POINT (-79.758796 34.195931),,,,,,,,,,
POINT (-81.114459 34.00442),,,,,,,,,,
POINT (-81.030118 34.027109),,,,,,,,,,
POINT (-80.960396 33.978622),,,,,,,,,,
POINT (-81.939902 34.967853),,,,,,,,,,
POINT (-81.052532 34.955308),,,,,,,,,,
POINT (-96.768199 44.307686),,,,,,,,,,
POINT (-97.120811 44.910837),,,,,,,,,,
POINT (-103.474013 43.435153),,,,,,,,,,
POINT (-103.478243 44.412816),,,,,,,,,,
POINT (-96.711305 43.534515),C430016-A,430016,Avera McKennan Hospital,1325 S CLIFF AVE  POST OFFICE BOX 5045,SIOUX FALLS,57117.0,46099.0,SD,"43.532137,-96.754973",POINT (-96.711305 43.534515)
POINT (-96.743276 43.536677),,,,,,,,,,
POINT (-103.224964 44.05861),,,,,,,,,,
POINT (-86.805008 36.140798),,,,,,,,,,
POINT (-86.801319 36.142271),,,,,,,,,,
POINT (-86.763179 36.1119),,,,,,,,,,
POINT (-85.257567 35.114154),,,,,,,,,,
POINT (-83.946678 35.93826),,,,,,,,,,
POINT (-88.83186 35.639536),,,,,,,,,,
POINT (-85.50935 36.16996),,,,,,,,,,
POINT (-86.38379 35.910703),,,,,,,,,,
POINT (-89.806996 35.091874),,,,,,,,,,
POINT (-90.019185 35.137092),,,,,,,,,,
POINT (-82.512064 36.551063),,,,,,,,,,
POINT (-82.386164 36.305074),,,,,,,,,,
POINT (-97.275451 30.099684),,,,,,,,,,
POINT (-97.135544 30.004677),,,,,,,,,,
POINT (-97.365957 31.078646),,,,,,,,,,
POINT (-98.573157 29.507005),,,,,,,,,,
POINT (-98.586731 29.540877),,,,,,,,,,
POINT (-98.576959 29.509462),,,,,,,,,,
POINT (-98.581743 29.514719),,,,,,,,,,
POINT (-98.391334 29.522742),,,,,,,,,,
POINT (-97.65277 30.566626),,,,,,,,,,
POINT (-94.074356 33.462514),,,,,,,,,,
POINT (-95.405109 29.185198),,,,,,,,,,
POINT (-95.39111 29.580088),,,,,,,,,,
POINT (-96.347638 30.655526),,,,,,,,,,
POINT (-96.291148 30.582607),,,,,,,,,,
POINT (-98.99238 31.677171),,,,,,,,,,
POINT (-96.717047 30.520966),,,,,,,,,,
POINT (-98.237881 30.733451),,,,,,,,,,
POINT (-97.654253 29.67253),,,,,,,,,,
POINT (-97.515284 25.979259),,,,,,,,,,
POINT (-97.670494 26.173233),,,,,,,,,,
POINT (-96.684108 33.218178),,,,,,,,,,
POINT (-96.76334 33.01938),,,,,,,,,,
POINT (-96.790452 33.014304),,,,,,,,,,
POINT (-96.772773 32.909572),,,,,,,,,,
POINT (-96.83509 32.814435),,,,,,,,,,
POINT (-96.779294 32.788382),,,,,,,,,,
POINT (-96.763951 32.883036),,,,,,,,,,
POINT (-96.78081 32.790567),,,,,,,,,,
POINT (-96.823006 32.761639),,,,,,,,,,
POINT (-96.78617 32.922372),,,,,,,,,,
POINT (-96.878979 32.647578),,,,,,,,,,
POINT (-96.959226 32.835514),,,,,,,,,,
POINT (-97.16666 33.219108),,,,,,,,,,
POINT (-102.373157 31.844103),,,,,,,,,,
POINT (-106.350347 31.756116),,,,,,,,,,
POINT (-106.498581 31.770297),,,,,,,,,,
POINT (-106.499431 31.77126),C450002-A,450002,The Hospitals of Providence Memorial Campus,2001 N OREGON ST,EL PASO,79902.0,48141.0,TX,"31.770319,-106.500861",POINT (-106.499431 31.77126)
POINT (-106.352052 31.756383),,,,,,,,,,
POINT (-106.436022 31.771291),,,,,,,,,,
POINT (-95.631578 29.585705),,,,,,,,,,
POINT (-95.636038 29.602238),,,,,,,,,,
POINT (-94.776261 29.311443),,,,,,,,,,
POINT (-95.099816 29.479955),,,,,,,,,,
POINT (-94.987076 29.395307),,,,,,,,,,
POINT (-96.603837 33.787325),,,,,,,,,,
POINT (-94.731208 32.501554),,,,,,,,,,
POINT (-94.730513 32.512426),,,,,,,,,,
POINT (-96.076972 30.392624),,,,,,,,,,
POINT (-95.632527 29.924945),,,,,,,,,,
POINT (-95.387875 29.72227),,,,,,,,,,
POINT (-95.400194 29.710477),,,,,,,,,,
POINT (-95.471493 30.000881),,,,,,,,,,
POINT (-95.394382 29.745118),,,,,,,,,,
POINT (-95.401547 29.70875),,,,,,,,,,
POINT (-95.54427 29.781628),,,,,,,,,,
POINT (-95.55308 29.968134),,,,,,,,,,
POINT (-95.399172 29.708215),,,,,,,,,,
POINT (-95.396888 29.70631),,,,,,,,,,
POINT (-95.748382 29.793043),,,,,,,,,,
POINT (-95.624195 30.088211),,,,,,,,,,
POINT (-95.12645 29.540933),,,,,,,,,,
POINT (-95.124954 29.544386),C450018-D,450018,UTMB CLEAR LAKE,"200 BLOSSOM ST,",WEBSTER,77598.0,48201.0,TX,"29.544893,-95.12572",POINT (-95.124954 29.544386)
POINT (-95.127604 29.539927),,,,,,,,,,
POINT (-97.855081 30.00734),C670056-A,670056,SETON MC HAYS,6001 KYLE PKWY,KYLE,78640.0,48209.0,TX,"30.008853,-97.852649",POINT (-97.855081 30.00734)
POINT (-98.204109 26.252424),,,,,,,,,,
POINT (-98.222166 26.185672),,,,,,,,,,
POINT (-98.224378 26.184225),,,,,,,,,,
POINT (-94.133248 30.087769),,,,,,,,,,
POINT (-94.131766 30.085582),C673030-A,673030,Kate Dishman Rehabilitation Hospital,2830  CALDER ST 6TH FL SOUTH,BEAUMONT,77702.0,48245.0,TX,"30.086587,-94.13148",POINT (-94.131766 30.085582)
POINT (-101.900795 33.574151),,,,,,,,,,
POINT (-95.91077 30.941703),,,,,,,,,,
POINT (-97.219633 31.523557),,,,,,,,,,
POINT (-97.198161 31.513921),,,,,,,,,,
POINT (-102.100037 31.99748),,,,,,,,,,
POINT (-95.460754 30.205458),,,,,,,,,,
POINT (-95.444407 30.338149),,,,,,,,,,
POINT (-95.467149 30.20686),,,,,,,,,,
POINT (-97.395121 27.777489),C452085-A,452085,POST ACUTE MEDICAL Specialty Hospital of Corpus Christi North,"600 ELIZABETH ST,",CORPUS CHRISTI,78404.0,48355.0,TX,"27.775943,-97.396273",POINT (-97.395121 27.777489)
POINT (-97.387828 27.753559),,,,,,,,,,
POINT (-97.385905 27.750695),,,,,,,,,,
POINT (-94.938109 30.730112),,,,,,,,,,
POINT (-95.291198 32.341703),,,,,,,,,,
POINT (-95.290688 32.343495),,,,,,,,,,
POINT (-97.119123 32.750148),,,,,,,,,,
POINT (-97.34196 32.736359),,,,,,,,,,
POINT (-99.73118 32.472136),,,,,,,,,,
POINT (-97.745186 30.30614),,,,,,,,,,
POINT (-97.744938 30.405511),,,,,,,,,,
POINT (-97.88951 30.22696),C450865-A,450865,SETON SOUTHWEST HOSPITAL,7900 FM 1826,AUSTIN,78737.0,48453.0,TX,"30.226519,-97.892373",POINT (-97.88951 30.22696)
POINT (-97.704884 30.302662),,,,,,,,,,
POINT (-97.74249 30.306086),,,,,,,,,,
POINT (-97.742288 30.304828),,,,,,,,,,
POINT (-97.773736 30.226124),,,,,,,,,,
POINT (-97.691583 30.327057),,,,,,,,,,
POINT (-97.733887 30.275402),,,,,,,,,,
POINT (-97.774344 30.227291),,,,,,,,,,
POINT (-97.75321 30.34349),,,,,,,,,,
POINT (-97.704243 30.41195),,,,,,,,,,
POINT (-95.561541 30.693737),,,,,,,,,,
POINT (-99.47629 27.607181),,,,,,,,,,
POINT (-97.812755 30.53109),,,,,,,,,,
POINT (-97.712468 30.509309),,,,,,,,,,
POINT (-111.837022 40.772019),,,,,,,,,,
POINT (-111.84032 40.771298),,,,,,,,,,
POINT (-111.87139 40.687666),,,,,,,,,,
POINT (-111.86533 40.761013),,,,,,,,,,
POINT (-111.841289 40.758439),,,,,,,,,,
POINT (-112.459141 40.603491),,,,,,,,,,
POINT (-111.66525 40.250563),,,,,,,,,,
POINT (-111.969907 41.165995),,,,,,,,,,
POINT (-78.441853 38.023969),,,,,,,,,,
POINT (-77.128648 38.889069),C490050-A,490050,Virginia Hospital Center - Arlington,1701 NORTH GEORGE MASON DRIVE,ARLINGTON,22205.0,51013.0,VA,"38.889602,-77.128169",POINT (-77.128648 38.889069)
POINT (-78.986764 38.093033),,,,,,,,,,
POINT (-78.498845 38.031998),,,,,,,,,,
POINT (-76.244828 36.746111),,,,,,,,,,
POINT (-77.659056 37.466398),,,,,,,,,,
POINT (-77.225833 38.857674),,,,,,,,,,
POINT (-77.395904 38.96878),,,,,,,,,,
POINT (-77.37537 38.967868),,,,,,,,,,
POINT (-77.224374 38.928607),,,,,,,,,,
POINT (-77.242288 38.873306),,,,,,,,,,
POINT (-78.913002 36.713106),,,,,,,,,,
POINT (-76.392331 37.056027),,,,,,,,,,
POINT (-78.858352 38.406103),,,,,,,,,,
POINT (-77.519144 37.602229),,,,,,,,,,
POINT (-77.527804 37.604944),,,,,,,,,,
POINT (-76.742161 37.335033),,,,,,,,,,
POINT (-77.553153 38.93797),,,,,,,,,,
POINT (-78.104106 36.747656),,,,,,,,,,
POINT (-76.4854 37.06389),,,,,,,,,,
POINT (-76.471506 37.089722),,,,,,,,,,
POINT (-76.19171 36.850644),,,,,,,,,,
POINT (-76.301334 36.861834),,,,,,,,,,
POINT (-76.304859 36.862045),,,,,,,,,,
POINT (-82.606446 36.940095),,,,,,,,,,
POINT (-78.106813 37.15936),,,,,,,,,,
POINT (-78.469391 38.662447),C491307-A,491307,Page Memorial Hospital,200 MEMORIAL DRIVE,LURAY,22835.0,51139.0,VA,"38.663296,-78.468243",POINT (-78.469391 38.662447)
POINT (-77.284211 38.634953),,,,,,,,,,
POINT (-77.406391 37.540126),,,,,,,,,,
POINT (-77.42988 37.539755),,,,,,,,,,
POINT (-79.942297 37.252046),C490024-A,490024,Carilion Childrens Hospital,1906 BELLEVIEW AVE SE,ROANOKE,24014.0,51770.0,VA,"37.251723,-79.942413",POINT (-79.942297 37.252046)
POINT (-79.94277 37.32242),,,,,,,,,,
POINT (-78.867983 38.473938),,,,,,,,,,
POINT (-78.513714 38.871837),C491305-A,491305,Shenandoah Memorial Hospital,759 SOUTH MAIN STREET,WOODSTOCK,22664.0,51171.0,VA,"38.870645,-78.512786",POINT (-78.513714 38.871837)
POINT (-76.583413 36.773058),,,,,,,,,,
POINT (-81.782978 37.092514),,,,,,,,,,
POINT (-76.132708 36.867747),,,,,,,,,,
POINT (-76.097609 36.775925),,,,,,,,,,
POINT (-76.028381 36.864242),,,,,,,,,,
POINT (-81.90856 36.72067),,,,,,,,,,
POINT (-82.004684 36.701731),,,,,,,,,,
POINT (-78.193088 39.1916),,,,,,,,,,
POINT (-82.472039 36.942095),,,,,,,,,,
POINT (-82.781223 36.908321),,,,,,,,,,
POINT (-64.752261 17.733184),,,,,,,,,,
POINT (-73.206861 42.873275),C470012-A,470012,Southwestern Vermont Medical Center,100 HOSPITAL DRIVE,BENNINGTON,5201.0,50003.0,VT,"42.874373,-73.208415",POINT (-73.206861 42.873275)
POINT (-72.009665 44.445266),C471303-A,471303,NORTHEASTERN VERMONT REGIONAL HOSPITAL,1315 HOSPITAL DRIVE,SAINT JOHNSBURY,5819.0,50005.0,VT,"44.445868,-72.009291",POINT (-72.009665 44.445266)
POINT (-73.19633 44.480715),,,,,,,,,,
POINT (-72.956602 43.59909),,,,,,,,,,
POINT (-117.054507 46.40364),,,,,,,,,,
POINT (-119.281121 46.280462),,,,,,,,,,
POINT (-123.414084 48.114635),,,,,,,,,,
POINT (-122.541457 45.619509),,,,,,,,,,
POINT (-122.649482 45.721824),,,,,,,,,,
POINT (-122.57844 45.624602),,,,,,,,,,
POINT (-122.583646 45.625741),,,,,,,,,,
POINT (-122.658429 45.639718),,,,,,,,,,
POINT (-122.927246 46.133938),,,,,,,,,,
POINT (-122.941192 46.130992),,,,,,,,,,
POINT (-119.869181 47.230969),,,,,,,,,,
POINT (-122.686122 48.21424),,,,,,,,,,
POINT (-122.790294 48.106132),,,,,,,,,,
POINT (-122.152678 47.578656),,,,,,,,,,
POINT (-122.021824 47.536555),,,,,,,,,,
POINT (-122.178553 47.714882),,,,,,,,,,
POINT (-122.230984 47.585478),,,,,,,,,,
POINT (-122.23776 47.455664),,,,,,,,,,
POINT (-122.214182 47.441021),,,,,,,,,,
POINT (-122.324593 47.609587),,,,,,,,,,
POINT (-122.379975 47.667175),,,,,,,,,,
POINT (-122.320767 47.609386),C500027-A,500027,Swedish Medical Center - First Hill Campus,747 BROADWAY,SEATTLE,98122.0,53033.0,WA,"47.609001,-122.322284",POINT (-122.320767 47.609386)
POINT (-122.329133 47.606983),,,,,,,,,,
POINT (-122.335826 47.712278),,,,,,,,,,
POINT (-122.323372 47.604084),,,,,,,,,,
POINT (-122.329232 47.626516),,,,,,,,,,
POINT (-122.283119 47.664549),C503300-A,503300,Seattle Childrens Hospital,"4800 SAND POINT WAY NE, PO BOX C-5371",SEATTLE,98105.0,53033.0,WA,"47.66243,-122.282291",POINT (-122.283119 47.664549)
POINT (-122.310247 47.606221),,,,,,,,,,
POINT (-122.307482 47.650506),,,,,,,,,,
POINT (-122.327809 47.61018),,,,,,,,,,
POINT (-122.682299 47.652149),,,,,,,,,,
POINT (-122.485346 46.531349),,,,,,,,,,
POINT (-119.782687 48.106824),,,,,,,,,,
POINT (-122.453527 47.25985),,,,,,,,,,
POINT (-122.448757 47.245469),,,,,,,,,,
POINT (-123.02871 48.529104),,,,,,,,,,
POINT (-122.324239 48.41742),,,,,,,,,,
POINT (-122.275287 48.495516),,,,,,,,,,
POINT (-122.205029 47.999022),,,,,,,,,,
POINT (-122.335691 47.802953),,,,,,,,,,
POINT (-117.41333 47.648397),,,,,,,,,,
POINT (-117.475567 47.702535),,,,,,,,,,
POINT (-117.411573 47.739551),,,,,,,,,,
POINT (-117.422803 47.651402),,,,,,,,,,
POINT (-122.844427 47.052791),C500024-A,500024,Providence St Peter Hospital,413 LILLY ROAD NE,OLYMPIA,98506.0,53067.0,WA,"47.051325,-122.847115",POINT (-122.844427 47.052791)
POINT (-118.343522 46.062783),,,,,,,,,,
POINT (-122.468884 48.772153),,,,,,,,,,
POINT (-122.474841 48.772261),,,,,,,,,,
POINT (-117.169845 46.713462),,,,,,,,,,
POINT (-117.170415 46.71352),,,,,,,,,,
POINT (-120.550398 46.592728),,,,,,,,,,
POINT (-120.591307 46.600075),,,,,,,,,,
POINT (-91.759027 45.508042),,,,,,,,,,
POINT (-88.010691 44.502022),C520049-A,520049,Bellin Hospital Green Bay (AKA Bellin Memorial Hospital),744 S WEBSTER AVE,GREEN BAY,54305.0,55009.0,WI,"44.535061,-88.09373",POINT (-88.010691 44.502022)
POINT (-88.013044 44.501235),,,,,,,,,,
POINT (-89.400896 43.065385),,,,,,,,,,
POINT (-89.429062 43.077218),,,,,,,,,,
POINT (-91.511101 44.793456),,,,,,,,,,
POINT (-91.51354 44.812055),C520070-A,520070,Mayo Clinic Hospital - Eau Claire,1221 WHIPPLE ST,EAU CLAIRE,54703.0,55035.0,WI,"44.812009,-91.513686",POINT (-91.51354 44.812055)
POINT (-88.432084 43.7787),C520088-A,520088,St Agnes Hospital,430 E DIVISION ST,FOND DU LAC,54935.0,55039.0,WI,"43.777845,-88.43108",POINT (-88.432084 43.7787)
POINT (-89.63261 42.607239),,,,,,,,,,
POINT (-87.924446 42.566221),,,,,,,,,,
POINT (-91.239514 43.804625),,,,,,,,,,
POINT (-89.670273 44.965842),,,,,,,,,,
POINT (-87.645286 45.070828),,,,,,,,,,
POINT (-88.65145 44.884547),,,,,,,,,,
POINT (-87.933837 42.98536),C522006-A,522006,Select Specialty Hospital - Milwaukee St Francis,3237 S 16TH ST,MILWAUKEE,53215.0,55079.0,WI,"42.985669,-87.935797",POINT (-87.933837 42.98536)
POINT (-88.024737 43.038446),,,,,,,,,,
POINT (-88.027316 43.038407),,,,,,,,,,
POINT (-87.976165 43.019538),,,,,,,,,,
POINT (-87.976165 43.073465),,,,,,,,,,
POINT (-87.927184 43.042616),,,,,,,,,,
POINT (-87.949132 42.988612),C520138-C,520138,Aurora St Lukes Medical Center of Aurora Health Care Metro,2900 W OKLAHOMA AVE,MILWAUKEE,53215.0,55079.0,WI,"42.990371,-87.951585",POINT (-87.949132 42.988612)
POINT (-87.879245 43.061301),C520051-A,520051,Ascension Columbia St Marys Hospital Milwaukee,2323 N LAKE DR,MILWAUKEE,53211.0,55079.0,WI,"43.061309,-87.880173",POINT (-87.879245 43.061301)
POINT (-88.023415 43.0027),C520139-A,520139,Aurora West Allis Medical Center,8901 W LINCOLN AVE,WEST ALLIS,53227.0,55079.0,WI,"43.001277,-88.02437",POINT (-88.023415 43.0027)
POINT (-90.493043 44.001155),,,,,,,,,,
POINT (-88.404139 44.24814),,,,,,,,,,
POINT (-87.92415 43.25618),,,,,,,,,,
POINT (-87.825225 42.733373),C520096-A,520096,Ascension All Saints Hospital - Spring Street Campus (FKA Ascension Wheaton Franciscan Healthcare - All Saints),3801 SPRING ST,RACINE,53405.0,55101.0,WI,"42.731393,-87.826965",POINT (-87.825225 42.733373)
POINT (-89.007724 42.546767),,,,,,,,,,
POINT (-89.032942 42.686741),,,,,,,,,,
POINT (-90.354025 45.135644),,,,,,,,,,
POINT (-90.34447 43.648814),,,,,,,,,,
POINT (-88.242951 43.011349),C520008-A,520008,ProHealth Waukesha Memorial Hospital (FKA Waukesha Memorial Hospital),725 AMERICAN AVE,WAUKESHA,53188.0,55133.0,WI,"43.011165,-88.243071",POINT (-88.242951 43.011349)
POINT (-88.453832 44.187957),C520045-A,520045,ThedaCare Regional Medical Center - Neenah (FKA Theda Clark Medical Center),130 2ND ST,NEENAH,54956.0,55139.0,WI,"44.187825,-88.453253",POINT (-88.453832 44.187957)
POINT (-88.603055 44.013049),,,,,,,,,,
POINT (-82.428308 38.409533),,,,,,,,,,
POINT (-82.401335 38.431833),,,,,,,,,,
POINT (-81.603015 38.328692),,,,,,,,,,
POINT (-79.94639 39.66262),C510024-A,510024,Mon Health Medical Center (FKA Mon General Hospital),1200 JD ANDERSON DRIVE,MORGANTOWN,26505.0,54061.0,WV,"39.66233,-79.947677",POINT (-79.94639 39.66262)
POINT (-81.560353 39.270284),,,,,,,,,,
POINT (-105.557514 41.311605),,,,,,,,,,
POINT (-105.519557 44.289915),,,,,,,,,,
POINT (-104.816525 41.139981),,,,,,,,,,
POINT (-104.812923 41.24177),,,,,,,,,,
POINT (-110.931459 42.717307),,,,,,,,,,
POINT (-106.331942 42.845645),,,,,,,,,,
POINT (-109.073576 44.526071),,,,,,,,,,
POINT (-106.975673 44.807428),,,,,,,,,,
POINT (-109.233578 41.58406),,,,,,,,,,
POINT (-107.948409 44.013659),,,,,,,,,,
