"hhs_id","ccn","facility_name","address","city","zip","fips_code","state","geohash","geocoded_hospital_address"
"C180141-A","180141","UNIVERSITY OF LOUISVILLE HOSPITAL  ULH",,,"40202","21111","KY",,"POINT (-85.750605 38.253348)"
"H000002",,"Hospital Psiquiatrico Forense","ROAD 14","PONCE","00716","72113","PR","17.99,-66.61",
"C451305-C",,"BURLESON ST  JOSEPH  CALDWELL",,,"77304","48339","TX",,"POINT (-95.506156 30.32998)"
"C451347-A","451347","COLEMAN COUNTY MEDICAL CENTER",,,"76834","48083","TX",,"POINT (-99.467108 31.853675)"
"C180151-A","180067","UK HEALTHCARE GOOD SAMARITAN HOSPITAL",,,"40536","21067","KY",,"POINT (-84.507492 38.03237)"
"C340091-A","340091","CONE HEALTH ANNIE PENN HOSPITAL",,,"27320","37157","NC",,"POINT (-79.667981 36.34589)"
"C040007-A","040007","CHI St Vincent Infirmary","TWO ST VINCENT CIRCLE","LITTLE ROCK","72205","05119","AR","34.74957565,-92.3382277",
"C060054-A","060054","Community Hospital","2351 'G' RD","GRAND JUNCTION","81505","08077","CO","39.105197,-108.615972","POINT (-108.615312 39.106297)"
"C074008-A","074008","Natchaug Hospital","189 STORRS RD","MANSFIELD CENTER","06250","09013","CT","41.741073,-72.198171","POINT (-72.197173 41.741224)"
"C124000-A","124000","HAWAII STATE HOSPITAL",,,,,"HI",,"POINT (-157.854309 21.361013)"
"C154064-A","154064","Assurance Health Indianapolis","900 NORTH HIGH SCHOOL ROAD","INDIANAPOLIS","46214","18097","IN","39.778045,-86.273341","POINT (-86.272662 39.777984)"
"C330108-A","330108","St Josephs Hospital","555 SAINT JOSEPHS BLVD","ELMIRA","14901","36015","NY","42.092147,-76.797215","POINT (-76.797472 42.091214)"
"C100331-A","100331","Touchton Surgery Center","9726 TOUCHTON ROAD, SUITE 305","JACKSONVILLE","32246","12031","FL","30.26746,-81.55554",
"C141346-A","141346","Fayette County Hospital","7TH AND TAYLOR","VANDALIA","62471","17051","IL","38.97,-89.11",
"C170105-A","170105","McPherson Hospital","1000 HOSPITAL DRIVE","MCPHERSON","67460","20113","KS","38.378624,-97.671193","POINT (-97.672485 38.379006)"
"C190236-A","190236","WILLIS KNIGHTON BOSSIER",,,"71111","22015","LA",,"POINT (-93.700669 32.562194)"
"C224007-A","224007","MCLEAN HOSPITAL","115 MILL STREET","BELMONT","02478","25017","MA","42.393978,-71.191928","POINT (-71.195698 42.394424)"
"C261318-A","261318","Salem Memorial District Hospital","PO BOX 774,","SALEM","65560","29065","MO","37.63,-91.53",
"C381319-A","381319","St Anthony Hospital","2801 ST ANTHONY WAY","PENDLETON","97801","41059","OR","45.648782,-118.812205",
"C650003-A","650003","Guam Regional Medical City","133 ROUTE 3","DEDEDO","96929","66010","GU","13.52,144.82",
"C030074-A","030074","Sells Indian Hospital","HIGHWAY 86, AT TOPAWA ROAD","SELLS","85634","04019","AZ","31.92,-111.88",
"C050014-A","050014","Sutter Amador Hospital","200 MISSION BLVD","JACKSON","95642","06005","CA","38.350719,-120.764684","POINT (-120.766007 38.349981)"
"C141318-A","141318","OSF Holy Family Medical Center","1000 W HARLEM AVENUE","MONMOUTH","61462","17187","IL","40.92225,-90.658414","POINT (-90.659151 40.921293)"
"C161321-A","161321","AVERA MERRILL PIONEER HOSPITAL","1100 S 10TH AVE","ROCK RAPIDS","51246","19119","IA","43.4166,-96.17144",
"C171324-A","171324","Satanta District Hospital","401 CHEYENNE","SATANTA","67870","20081","KS","37.437192,-100.986665",
"C390146-A","390146","Warren General Hospital","TWO CRESCENT PARK WEST","WARREN","16365","42123","PA","41.85,-79.15",
"C44016F-A","44016F","MOUNTAIN HOME VA MEDICAL CENTER","P O BOX 4000","MOUNTAIN HOME","37684","47179","TN","36.310561,-82.37333",
"C470001-A","470001","CENTRAL VERMONT MEDICAL CENTER","BOX 547","BARRE","05641","50023","VT","44.2,-72.5",
"C040114-A","040114","Baptist Health - Little Rock","9601 INTERSTATE","LITTLE ROCK","72205","05119","AR","34.746129,-92.368837",
"C050153-A","050153","OConnor Hospital","2105 FOREST AVE","SAN JOSE","95128","06085","CA","37.328929,-121.939583",
"C101302-A","101302","CAMPBELLTON GRACEVILLE HOSPITAL",,,"32440","12063","FL",,"POINT (-85.523678 30.923316)"
"C171364-A","171364","Osborne County Memorial Hospital","237 W HARRISON STREET SUITE 100","OSBORNE","67473","20141","KS","39.450701,-98.699323",
"C261329-A","261329","Cox Monett Hospital","1000 E US HIGHWAY 60","MONETT","65708","29009","MO","36.92918,-93.91807","POINT (-93.891585 36.91361)"
"C28005F-A","28005F","EHRLING BERGQUIST USAF HOSPITAL","OFFUTT AFB","OMAHA","68113","31153","NE","41.12,-95.92",
"C310075-A","310075","Monmouth Medical Center","300 SECOND AVENUE","LONG BRANCH","07740","34025","NJ","40.295621,-73.985196","POINT (-73.983666 40.295038)"
"C400016-A","400016","Hospital Auxilio Mutuo","PONCE DE LEON AVENUE STOP 37 1/2","SAN JUAN","00918","72127","PR","18.42,-66.07",
"C443037-A","443037","KNOXVILLE REHABILITATION HOSPITAL","1250 TENNOVA MEDICAL WAY","KNOXVILLE","37909","47093","TN","35.94489,-84.0388",
"C451373-A","451373","WARD MEMORIAL HOSPITAL","406 SOUTH GARY ST","MONAHANS","79756","48475","TX","31.593859,-102.883266","POINT (-102.884426 31.593504)"
"C640001-A","640001","LBJ Tropical Medical Center","FAGAALU VILLAGE, P O BOX LBJ","PAGO PAGO","96799",,"AS","-14.27,-170.7",
"C360008-A","360008","Southern Ohio Medical Center","1805 27TH STREET","PORTSMOUTH","45662","39145","OH","38.745355,-82.990579","POINT (-82.977694 38.753905)"
"C190014-B","190014","Ochsner LSU Health - St. Mary Medical Center","915 MARGARET PLACE","SHREVEPORT","71101","22017","LA","32.49593,-93.74646","POINT (-93.74949 32.496018)"
"C451300-A","451300","Parmer Medical Center","1307 CLEVELAND STREET","FRIONA","79035","48369","TX","34.643983,-102.72175","POINT (-102.721086 34.643776)"
"C094004-A","094004","Psychiatric Institute of Washington","4228 WISCONSIN AVENUE, NW","WASHINGTON","20016","11001","DC","38.943904,-77.078019","POINT (-77.077592 38.944172)"
"C041317-A","041317","Dallas County Medical Center","201 CLIFTON STREET","FORDYCE","71742","05039","AR","33.810855,-92.425395","POINT (-92.425036 33.811527)"
"C363036-A","363036","University Hospitals Rehabilitation Hospital","23333 HARVARD ROAD","BEACHWOOD","44122","39035","OH","41.451819,-81.510141","POINT (-81.51009 41.451236)"
"C122001-A","122001","Leahi Hospital","3675 KILAUEA AVENUE","HONOLULU","96816","15003","HI","21.273008,-157.801993","POINT (-157.801209 21.273675)"
"C460014-A","460014","Mountain West Medical Center","2055 NORTH MAIN STREET","TOOELE","84074","49045","UT","40.566751,-112.297059",
"C040153-A","040153","Wadley Regional Medical Center at Hope (FKA Medical Park Hospital)","2001 SOUTH MAIN","HOPE","71801","05057","AR","33.648304,-93.58478","POINT (-93.587055 33.64799)"
"C150162-A","150162","Franciscan Health Indianapolis (FKA Franciscan St Francis Health - Indianapolis)","8111 S EMERSON AVE","INDIANAPOLIS","46237","18097","IN","39.648438,-86.080092","POINT (-86.082667 39.647449)"
"C510023-A","510023","Weirton Medical Center","601 COLLIERS WAY","WEIRTON","26062","54029","WV","40.393293,-80.528108","POINT (-80.529614 40.393864)"
"C230038-A","230038","Spectrum Health Hospitals Helen DeVos Childrens Hospital","100 MICHIGAN ST NE","GRAND RAPIDS","49503","26081","MI","42.97042,-85.66632","POINT (-85.665037 42.970517)"
"C050660-A","050660","USC Kenneth Norris Jr Cancer Hospital","1441 EASTLAKE AVE","LOS ANGELES","90089","06037","CA","34.061179,-118.206312","POINT (-118.204177 34.061478)"
"C523027-A","523027","ProHealth Rehabilitation Hospital of Wisconsin","1625 COLD WATER CREEK DRIVE","WAUKESHA","53188","55133","WI","43.02566,-88.28732","POINT (-88.287091 43.026861)"
"C181329-A","181329","Saint Joseph Berea","305 ESTILL STREET","BEREA","40403","21151","KY","37.57379,-84.28724","POINT (-84.286039 37.574795)"
"C431315-A","431315","Wagner Community Memorial Hospital Avera","513 3RD ST SW  POST OFFICE BOX 280","WAGNER","57380","46023","SD","43.06114,-98.29098","POINT (-98.300878 43.079082)"
"C012014-A","012014","NORTH ALABAMA SPECIALTY HOSPITAL","700 WEST MARKET STREET, 2ND FLOOR","ATHENS","35611","01083","AL","34.804291,-86.978996","POINT (-86.978017 34.803509)"
"C131321-A","131321","St Marys Hospital and Clinics (FKA St Marys Hospital)","701 LEWISTON ST","COTTONWOOD","83522","16049","ID","46.050275,-116.353642","POINT (-116.351645 46.050372)"
"C101310-A","101310","NORTH FLORIDA REGIONAL MEDICAL CENTER STARKE CAMPUS",,,"32091","12007","FL",,"POINT (-82.072205 29.953874)"
"C021312-A","021312","Samuel Simmonds Memorial Hospital","7000 UULA ST","BARROW","99723","02040","AK","71.297577,-156.730004","POINT (-156.726548 71.297537)"
"C450834-A","450834","THE PHYSICIAN S CENTER  BRYAN","3131 UNIVERSITY DRIVE EAST","BRYAN","77802","48041","TX","30.650539,-96.297629","POINT (-96.296514 30.649586)"
"C360068-B","360068","ProMedica Toledo Hospital","2142 N COVE BLVD","TOLEDO","43606","39095","OH","41.673007,-83.592372","POINT (-83.594786 41.670849)"
"C140179-A","140179","OSF Little Company of Mary Medical Center (FKA Little Company of Mary Hospital)","2800 W 95TH ST","EVERGREEN PARK","60805","17031","IL","41.722438,-87.694095","POINT (-87.692155 41.720855)"
"C100255-A","100255","Tampa Community Hospital (FKA Town & Country Hospital)","6001 WEBB RD","TAMPA","33615","12057","FL","28.000956,-82.573043","POINT (-82.575148 28.002263)"
"C451348-A","451348","HEART OF TEXAS HEALTH CARE SYSTEM","2008 NINE ROAD","BRADY","76825","48307","TX","31.117798,-99.347004","POINT (-99.346357 31.116573)"
"C230297-A","230297","Karmanos Cancer Center (AKA Barbara Ann Karmanos Cancer Hospital)","4100 JOHN R","DETROIT","48201","26163","MI","42.352841,-83.056713","POINT (-83.058198 42.3519)"
"C454085-A","454085","DEVEREUX ADVANCED BEHAVIORAL HEALTH","1150 DEVEREUX DR","LEAGUE CITY","77573","48167","TX","29.508066,-95.106108","POINT (-95.10667 29.506382)"
"C044023-A","044023","FREEDOM BEHAVIORAL HOSPITAL OF CENTRAL ARKANAS LLC","1400 BRADEN STREET","JACKSONVILLE","72076","05119","AR","34.873912,-92.124314","POINT (-92.124697 34.872381)"
"C17006F-A","17006F","VA EASTERN KANSAS HEALTHCARE SYSTEM - LEAVENWORTH",,"LEAVENWORTH","66048","20103","KS",,"POINT (-94.966272 39.287082)"
"C450885-A","450885","BSW MC   CENTENNIAL","12505 LEBANON ROAD","FRISCO","75035","48085","TX","33.114396,-96.770769","POINT (-96.770761 33.115876)"
"C491308-A","491308","Rappahannock General Hospital","101 HARRIS ROAD","KILMARNOCK","22482","51103","VA","37.701131,-76.387106","POINT (-76.38978 37.700305)"
"C450848-A","450848","Memorial Hermann Sugar Land Hospital","17500 W GRAND PARKWAY SOUTH","SUGAR LAND","77479","48157","TX","29.564733,-95.69149","POINT (-95.68791 29.56408)"
"C051320-A","051320","Banner Lassen Medical Center","1800 SPRING RIDGE DRIVE","SUSANVILLE","96130","06035","CA","40.436236,-120.627269","POINT (-120.627429 40.438197)"
"C450152-A","450152","AdventHealth Central Texas (FKA Metroplex Adventist Hospital)","2201 S CLEAR CREEK ROAD","KILLEEN","76542","48027","TX","31.09,-97.72","POINT (-97.799565 31.113231)"
"C294013-A","294013","Desert Parkway Behavioral Healthcare Hospital","3247 S MARYLAND PARKWAY","LAS VEGAS","89109","32003","NV","36.130658,-115.137926","POINT (-115.136866 36.130855)"
"H000037",,"Health Promed","CALLE PEDRO MARQUEZ #44","CULEBRA","00775","72049","PR","18.3027362,-65.3010662",
"C440017-A","440017","Holston Valley Medical Center (FKA Wellmont Holston Valley Medical Center)","130 WEST RAVINE ROAD","KINGSPORT","37662","47163","TN","36.528631,-82.56982","POINT (-82.554636 36.553159)"
"C341325-A","341325","ASHE MEMORIAL HOSPITAL","200 HOSPITAL AVE","JEFFERSON","28640","37009","NC","36.424259,-81.458808","POINT (-81.459727 36.423027)"
"C670108-A","670108","BAYLOR S W HOSPITAL   MARBLE FALLS","810 W HIGHWAY 71","MARBLE FALLS","78654","48053","TX","30.512921,-98.304593","POINT (-97.378131 30.111166)"
"C520008-A","520008","ProHealth Waukesha Memorial Hospital (FKA Waukesha Memorial Hospital)","725 AMERICAN AVE","WAUKESHA","53188","55133","WI","43.011165,-88.243071","POINT (-88.242951 43.011349)"
"C520205-A","520205","Midwest Orthopedic Specialty Hospital","10101 SOUTH 27TH ST  2ND FLOOR","FRANKLIN","53132","55079","WI","42.860886,-87.95464","POINT (-87.951723 42.860129)"
"C520088-A","520088","St Agnes Hospital","430 E DIVISION ST","FOND DU LAC","54935","55039","WI","43.777845,-88.43108","POINT (-88.432084 43.7787)"
"C214003-A","214003","Brook Lane Psychiatric Center","13215  BROOK LANE DRIVE","HAGERSTOWN","21742","24043","MD","39.680375,-77.606999","POINT (-77.607554 39.679682)"
"C213029-A","213029","Adventist HealthCare Rehabilitation - Takoma Park","7600 CARROLL AVE","TAKOMA PARK","20912","24031","MD","38.98345,-77.00043","POINT (-76.999658 38.984068)"
"C134009-A","134009","Lifeways Hospital Boise (FKA Safe Haven Hospital of Treasure Valley)","8050 WEST NORTHVIEW STREET","BOISE","83704","16001","ID","43.627162,-116.282389","POINT (-116.282676 43.626641)"
"C100068-A","100068","AdventHealth Daytona Beach (FKA Florida Hospital Memorial Medical Center)","301 MEMORIAL MEDICAL PARKWAY","DAYTONA BEACH","32117","12127","FL","29.243614,-81.107799","POINT (-81.1093 29.24275)"
"C340113-A","340113","AH BEHAVIORAL HEALTH   DAVIDSON",,,"28036","37119","NC",,"POINT (-80.803612 35.4852)"
"C340002-A","340002","Mission Hospital - Asheville","509 BILTMORE AVE","ASHEVILLE","28801","37021","NC","35.577669,-82.54907","POINT (-82.54837 35.577942)"
"C040161-A","040161","Arkansas Heart Hospital Encore Medical Center","1901 ENCORE WAY","BRYANT","72022","05125","AR","34.61304,-92.520969",
"C050283-A","050283","Stanford Health Care - ValleyCare Medical Center","5555 WEST LAS POSITAS BOULEVARD","PLEASANTON","94588","06001","CA","37.693982,-121.88074","POINT (-121.880027 37.692133)"
"C231318-A","231318","Aspirus Iron River Hospital","1400 W ICE LAKE ROAD","IRON RIVER","49935","26071","MI","46.0998,-88.62","POINT (-88.620267 46.099808)"
"C330101-B","330101","NewYork-Presbyterian Westchester Division (AKA NewYork-Presbyterian Westchester Behavioral Health Center)","21 BLOOMINGDALE RD","WHITE PLAINS","10605","36119","NY","41.029668,-73.758182","POINT (-73.75838 41.029686)"
"C390231-A","390231","Abington Hospital - Jefferson Health (FKA Abington Memorial Hospital)","1200 OLD YORK ROAD","ABINGTON","19001","42091","PA","40.118978,-75.12071","POINT (-75.119351 40.119002)"
"C281311-A","281311","FRANKLIN COUNTY MEMORIAL HOSPITAL","1406 Q ST","FRANKLIN","68939","31061","NE","40.10162,-98.95422","POINT (-98.954363 40.101552)"
"C061313-A","061313","Kit Carson County Memorial Hospital","286 16TH ST","BURLINGTON","80807","08063","CO","39.302882,-102.2702","POINT (-102.270711 39.302378)"
"C194088-A","194088","St James Behavioral Health Hospital","3136 SOUTH ST LANDRY ROAD","GONZALES","70737","22005","LA","30.203846,-90.951941","POINT (-90.95371 30.20388)"
"C490024-C","490024","Carilion Roanoke Memorial Hospital","1906 BELLEVIEW AVE SE","ROANOKE","24014","51770","VA","37.251723,-79.942413","POINT (-79.942297 37.252046)"
"C451319-B","451319","CHRISTUS MOTHER FRANCES   JACKSONVILLE",,,"75701","48423","TX",,"POINT (-95.296721 32.323605)"
"C390236-A","390236","Guthrie Towanda Memorial Hospital (AKA Memorial Hospital Inc of Towanda)","91 HOSPITAL DRIVE","TOWANDA","18848","42015","PA","41.78346,-76.44941","POINT (-76.448602 41.783796)"
"C391316-A","391316","UPMC Wellsboro (FKA UPMC Susquehanna Soldiers & Sailors Memorial Hospital)","32-36 CENTRAL AVENUE","WELLSBORO","16901","42117","PA","41.74619,-77.30048","POINT (-77.299641 41.745656)"
"C140161-A","140161","OSF Saint James - John W Albrecht Medical Center","2500 WEST REYNOLDS STREET","PONTIAC","61764","17105","IL","40.86961,-88.67876","POINT (-88.678583 40.873402)"
"C520204-A","520204","Ascension SE Wisconsin Hospital - Franklin Campus (FKA Ascension Wheaton Franciscan Healthcare - Franklin)","10101 S 27TH ST","FRANKLIN","53132","55079","WI","42.860886,-87.95464","POINT (-87.951723 42.860129)"
"C100269-A","100269","Palms West Hospital","13001 SOUTHERN BLVD","LOXAHATCHEE","33470","12099","FL","26.683551,-80.252622","POINT (-80.251589 26.681931)"
"C230096-A","230096","Sturgis Hospital","916 MYRTLE AVE","STURGIS","49091","26149","MI","41.79498,-85.407264","POINT (-85.407308 41.794193)"
"C232023-B","232023","SELECT SPECIALTY HOSPITAL - MACOMB COUNTY INC","44405 WOODWARD AVENUE","PONTIAC","48341","26125","MI","42.614652,-83.276443","POINT (-83.275168 42.615015)"
"C460019-A","460019","Uintah Basin Medical Center","250 WEST 300 NORTH","ROOSEVELT","84066","49013","UT","40.304342,-109.996199","POINT (-109.996264 40.303398)"
"C102023-A","102023","Select Specialty Hospital - Palm Beach","3060 MELALEUCA LANE","LAKE WORTH","33461","12099","FL","26.608873,-80.091561","POINT (-80.090806 26.609611)"
"C420004-A","420004","Medical University of South Carolina","169 ASHLEY AVE","CHARLESTON","29425","45019","SC","32.784537,-79.947344","POINT (-79.946522 32.785267)"
"C220063-A","220063","Lowell General Hospital - Main Campus","295 VARNUM AVENUE","LOWELL","01854","25017","MA","42.647705,-71.340269","POINT (-71.341354 42.6463)"
"C410010-A","410010","Women & Infants Hospital","101 DUDLEY STREET","PROVIDENCE","02905","44007","RI","41.810964,-71.412083","POINT (-71.411753 41.810179)"
"C113029-A","113029","ATRIUM HEALTH NAVICENT REHABILITATION HOSPITAL","3351 NORTHSIDE DRIVE","MACON","31210","13021","GA","32.893215,-83.680486","POINT (-83.681431 32.892836)"
"C331305-A","331305","OConnor Hospital","460 ANDES ROAD","DELHI","13753","36025","NY","42.268644,-74.915585","POINT (-74.915943 42.26775)"
"C23012F-A","23012F","Battle Creek VA Medical Center","5500 ARMSTRONG ROAD","BATTLE CREEK","49015","26025","MI","42.26,-85.19","POINT (-85.297894 42.340743)"
"C010110-A","010110","BULLOCK COUNTY HOSPITAL","102 WEST CONECUH AVENUE","UNION SPRINGS","36089","01011","AL","32.14611,-85.71732","POINT (-85.716432 32.146183)"
"C340145-A","340145","ATRIUM HEALTH LINCOLN  FKA CAROLINAS HEALTHCARE SYSTEM LINCOLN","433 MCALISTER RD","LINCOLNTON","28092","37109","NC","35.489846,-81.203642","POINT (-81.20112 35.488525)"
"C070040-A","070040","Hebrew Home and Hospital","1 ABRAHMS BOULEVARD","WEST HARTFORD","06117","09003","CT","41.802806,-72.728452","POINT (-72.728833 41.802723)"
"C260074-A","260074","Moberly Regional Medical Center","1515 UNION AVE","MOBERLY","65270","29175","MO","39.425186,-92.414021","POINT (-92.41355 39.42386)"
"C290056-A","290056","Orthopedic Specialty Hospital of Nevada","8656 WEST PATRICK LANE","LAS VEGAS","89148","32003","NV","36.078747,-115.281032","POINT (-115.281036 36.077811)"
"C360001-A","360001","Mercy Health - Anderson Hospital","7500 STATE ROAD","CINCINNATI","45255","39061","OH","39.08567,-84.349807","POINT (-84.349294 39.08438)"
"C351334-A","351334","CHI St Alexius Health Williston Medical Center","1301 15TH AVE W","WILLISTON","58801","38105","ND","48.155429,-103.64605","POINT (-103.645426 48.155144)"
"C111336-A","111336","Mountain Lakes Medical Center","162 LEGACY POINT","CLAYTON","30525","13241","GA","34.8733,-83.39184","POINT (-83.54426 34.554041)"
"C141324-A","141324","Ferrell Hospital","1201 PINE STREET","ELDORADO","62930","17165","IL","37.815636,-88.442238","POINT (-88.441452 37.815346)"
"C240006-A","240006","Olmsted Medical Center","1650 FOURTH STREET SOUTHEAST","ROCHESTER","55904","27109","MN","44.019703,-92.440171","POINT (-92.439807 44.021006)"
"C050122-A","050122","Dameron Hospital","525 WEST ACACIA STREET","STOCKTON","95203","06077","CA","37.961544,-121.301733","POINT (-121.300846 37.961177)"
"C320003-A","320003","Alta Vista Regional Hospital","104 LEGION DRIVE","LAS VEGAS","87701","35047","NM","35.61868,-105.21722","POINT (-105.209989 35.622091)"
"C391317-A","391317","Conemaugh Health System - Conemaugh Miners Medical Center","290 HAIDA AVENUE","HASTINGS","16646","42021","PA","40.657954,-78.705274","POINT (-78.705442 40.658864)"
"C044004-A","044004","Vantage Point Behavioral Health Hospital (FKA Vista Health Fayetteville)","4253 CROSSOVER ROAD","FAYETTEVILLE","72703","05143","AR","36.127916,-94.120068","POINT (-94.119063 36.127243)"
"C440131-A","440131","Baptist Memorial Hospital - Tipton","1995 HIGHWAY 51 S","COVINGTON","38019","47167","TN","35.535864,-89.67821","POINT (-89.675759 35.535543)"
"C513026-A","513026","Encompass Health Rehabilitation Hospital of Princeton (FKA HealthSouth Southern Hills Rehabilitation Hospital)","120 12TH ST","PRINCETON","24740","54055","WV","37.363044,-81.112225","POINT (-81.112039 37.362773)"
"C351330-A","351330","West River Health Services","1000 HIGHWAY 12","HETTINGER","58639","38001","ND","46.001953,-102.628319","POINT (-102.627821 46.001453)"
"C503300-A","503300","Seattle Childrens Hospital","4800 SAND POINT WAY NE, PO BOX C-5371","SEATTLE","98105","53033","WA","47.66243,-122.282291","POINT (-122.283119 47.664549)"
"C180128-A","180128","THREE RIVERS MEDICAL CENTER","2485 HIGHWAY 644","LOUISA","41230","21127","KY","38.092371,-82.604995","POINT (-82.60474 38.0933)"
"C241333-A","241333","Mayo Clinic Hospital - St James","1101 MOULTON AND PARSONS DRIVE","ST JAMES","56081","27165","MN","43.969932,-94.623015","POINT (-94.621515 43.96949)"
"C271324-A","271324","Pondera Medical Center","805 SUNSET BLVD","CONRAD","59425","30073","MT","48.174393,-111.957676","POINT (-111.958555 48.173915)"
"C381303-A","381303","Providence Seaside Hospital","725 S WAHANNA ROAD","SEASIDE","97138","41007","OR","45.988792,-123.913409","POINT (-123.914805 45.989367)"
"C360079-A","360079","Kettering Medical Center","3535 SOUTHERN BOULEVARD","KETTERING","45429","39113","OH","39.696782,-84.192409","POINT (-84.190993 39.695603)"
"C45063F-A","45063F","WEST TEXAS VA HEALTH CARE SYSTEM","300 VETERANS BLVD","BIG SPRING","79720","48227","TX","32.23067,-101.47134","POINT (-101.471074 32.231824)"
"C010012-A","010012","DeKalb Regional Medical Center","200 MED CENTER DRIVE","FORT PAYNE","35968","01049","AL","34.44,-85.75",
"C450388-A","450388","Methodist Hospital","7700 FLOYD CURL DR","SAN ANTONIO","78229","48029","TX","29.508052,-98.572406","POINT (-98.573157 29.507005)"
"C251322-A","251322","Laird Hospital","25117 HIGHWAY 15","UNION","39365","28099","MS","32.57237,-89.10415","POINT (-89.102553 32.559223)"
"C390198-A","390198","Millcreek Community Hospital","5515 PEACH STREET","ERIE","16509","42049","PA","42.073913,-80.092317","POINT (-80.093739 42.074173)"
"C112013-A","112013","Select Specialty Hospital - Augusta","1537 WALTON WAY","AUGUSTA","30904","13245","GA","33.476263,-81.990273","POINT (-81.990209 33.475404)"
"C400135-A","400135","HOSPITAL DEL CENTRO COMPRENSIVO DE CANCER","PR 21 INT PR 18 BO MONACILLOS URBANO","SAN JUAN","00927","72127","PR","18.3744,-66.0571",
"C392050-A","392050","Penn Medicine Rittenhouse","1800 LOMBARD ST","PHILADELPHIA","19146","42101","PA","39.945153,-75.172246","POINT (-75.172467 39.945553)"
"C310032-C","310032","JEFFERSON CHERRY HILL HOSPITAL","2201 CHAPEL AVE W,","CHERRY HILL","08002","34007","NJ","39.927233,-75.016189","POINT (-75.017145 39.929089)"
"C354003-A","354003","North Dakota State Hospital","2605 CIRCLE DRIVE","JAMESTOWN","58401","38093","ND","46.880695,-98.687993","POINT (-98.687013 46.880581)"
"C18T080-A","18T080","Baptist Health Corbin Rehab","1 TRILLIUM WAY","CORBIN","40701","21235","KY","36.922007,-84.119444","POINT (-84.120451 36.922376)"
"C490050-A","490050","Virginia Hospital Center - Arlington","1701 NORTH GEORGE MASON DRIVE","ARLINGTON","22205","51013","VA","38.889602,-77.128169","POINT (-77.128648 38.889069)"
"C170187-A","170187","Salina Surgical Hospital","401 SOUTH SANTA FE AVENUE","SALINA","67401","20169","KS","38.833785,-97.608557","POINT (-97.609169 38.833845)"
"C140286-A","140286","Northwestern Medicine Kishwaukee Hospital (FKA Kishwaukee Community Hospital)","ONE  KISH HOSPITAL DRIVE","DEKALB","60115","17037","IL","41.961993,-88.722709",
"C390118-A","390118","Bradford Regional Medical Center","116 INTERSTATE PKWY","BRADFORD","16701","42083","PA","41.961232,-78.659557","POINT (-78.66065 41.961592)"
"C250134-A","250134","Whitfield Medical Surgical Hospital","3550 HWY 468 W, BLDG 60","WHITFIELD","39193","28121","MS","32.24252,-90.073904",
"C170020-A","170020","Hutchinson Regional Medical Center (AKA Promise Regional Medical Center Hutchinson)","1701 E 23RD AVENUE","HUTCHINSON","67502","20155","KS","38.077574,-97.892107","POINT (-97.892038 38.079488)"
"C450055-A","450055","Rolling Plains Memorial Hospital","200 E ARIZONA","SWEETWATER","79556","48353","TX","32.453004,-100.397747","POINT (-100.398245 32.453895)"
"C060001-A","060001","North Colorado Medical Center","1801 16TH ST","GREELEY","80631","08123","CO","40.414822,-104.70891","POINT (-104.709429 40.413834)"
"C010024-A","010024","Jackson Hospital","1725 PINE STREET","MONTGOMERY","36106","01101","AL","32.367008,-86.285024","POINT (-86.285363 32.366604)"
"C440156-B","440156","Parkridge East Hospital","941 SPRING CREEK RD","CHATTANOOGA","37412","47065","TN","34.998797,-85.218962","POINT (-85.217839 34.998967)"
"C440010-A","440010","WAYNE MEDICAL CENTER","103 J V MANGUBAT DR","WAYNESBORO","38485","47181","TN","35.325206,-87.756404","POINT (-87.756432 35.325862)"
"C251307-A","251307","Noxubee General Hospital","78 HOSPITAL ROAD","MACON","39341","28103","MS","33.12323,-88.5461",
"C010174-A","010174","THOMASVILLE REGIONAL MEDICAL CENTER","300 MED PARK DRIVE","THOMASVILLE","36784","01025","AL","31.86683,-87.74028",
"C452097-B","452097","VIBRA HOSPITAL OF RICHARDSON",,,"75080","48113","TX",,"POINT (-96.740545 32.971576)"
"C100045-A","100045","AdventHealth DeLand (FKA Florida Hospital DeLand)","701 W PLYMOUTH AVE","DELAND","32720","12127","FL","29.044414,-81.318464","POINT (-81.317319 29.042611)"
"C050222-A","050222","Sharp Chula Vista Medical Center","751 MEDICAL CENTER COURT","CHULA VISTA","91911","06073","CA","32.618936,-117.023521","POINT (-117.023938 32.618417)"
"C264030-A","264030","Signature Psychiatric Hospital","2900 CLAY EDWARDS DRIVE","NORTH KANSAS CITY","64116","29047","MO","39.14886,-94.55003","POINT (-94.551464 39.150956)"
"C361318-A","361318","ProMedica Fostoria Community Hospital","501 VAN BUREN STREET","FOSTORIA","44830","39147","OH","41.162627,-83.406471","POINT (-83.424059 41.163218)"
"C222046-A","222046","Vibra Hospital of Western Massachusetts - Central Campus (FKA Kindred Hospital Park View Central Massachusetts)","111 HUNTOON MEMORIAL HWY","ROCHDALE","01542","25027","MA","42.201831,-71.898862","POINT (-71.899974 42.201333)"
"H000030",,"University Of The Pacific Arthur A. Dugoni School Of Dentistry (Endodontic Residency Clinic)","155 5TH ST","SAN FRANCISCO","94103","06075","CA","37.782393,-122.405198","POINT (-122.405487 37.78193)"
"C450431-B","453038","St Davids Rehabilitation Hospital at St Davids Medical Center","919 E 32ND ST","AUSTIN","78705","48453","TX","30.290679,-97.726741","POINT (-97.72587 30.290447)"
"C222007-A","222007","HSL: NewBridge on the Charles (Dedham)","5000 GREAT MEADOW ROAD","DEDHAM","02026","25021","MA","42.266204,-71.195168","POINT (-71.195689 42.266941)"
"C520138-B","520138","Aurora St Lukes South Shore of Aurora Health Care Metro","5900 S LAKE DR","CUDAHY","53110","55079","WI","42.936462,-87.851298","POINT (-87.850186 42.937317)"
"C330276-A","330276","Nathan Littauer Hospital","99 EAST STATE ST","GLOVERSVILLE","12078","36035","NY","43.07113,-74.33301","POINT (-74.331469 43.067973)"
"C451332-A","451332","PALACIOS COMMUNITY MEDICAL CENTER","311 GREEN AVENUE","PALACIOS","77465","48321","TX","28.71737,-96.21384","POINT (-96.2142 28.717458)"
"C251320-A","251320","Claiborne County Medical Center (FKA Patients Choice Medical Center of Claiborne County)","123 MCCOMB AVENUE","PORT GIBSON","39150","28021","MS","31.94577,-90.98397","POINT (-90.985297 31.945969)"
"C451352-A","451352","HARDEMAN COUNTY MEMORIAL HOSP","402 MERCER ST","QUANAH","79252","48197","TX","34.296852,-99.741869","POINT (-99.741056 34.296566)"
"C241327-A","241327","Sleepy Eye Medical Center (FKA Sleepy Eye Municipal Hospital)","400 FOURTH AVENUE NORTHWEST","SLEEPY EYE","56085","27015","MN","44.29943,-94.729247","POINT (-94.727318 44.299417)"
"C240014-A","240014","Northfield Hospital","2000 NORTH AVENUE","NORTHFIELD","55057","27037","MN","44.473659,-93.191746","POINT (-93.192912 44.47139)"
"C451347-B","451347","COLEMAN COUNTY MEDICAL CENTER",,,"79095","48087","TX",,"POINT (-100.233551 34.942401)"
"C210065-A","210065","Holy Cross Germantown Hospital","19801 OBSERVATION DRIVE","GERMANTOWN","20876","24031","MD","39.18202,-77.24317","POINT (-77.244299 39.180823)"
"C330049-A","330049","Northern Dutchess Hospital","6511 SPRINGBROOK AVENUE","RHINEBECK","12572","36027","NY","41.935307,-73.912753","POINT (-73.911774 41.934571)"
"C240093-A","240093","Mayo Clinic Hospital - Mankato","1025 MARSH STREET","MANKATO","56001","27013","MN","44.163846,-93.98317","POINT (-93.983802 44.165042)"
"C424011-A","424011","Patrick B Harris Psychiatric Hospital","130 HIGHWAY 252","ANDERSON","29622","45007","SC","34.520928,-82.65573","POINT (-82.568256 34.479407)"
"C400114-A","400114","Manati Medical Center","CALLE HERNANDEZ CARRION URB ATENAS","MANATI","00674","72091","PR","18.43,-66.48",
"C321301-A","321301","Socorro General Hospital","1202 HIGHWAY 60 WEST","SOCORRO","87801","35053","NM","34.036711,-106.911874","POINT (-106.912468 34.038056)"
"C050228-A","050228","Zuckerberg San Francisco General Hospital (FKA San Francisco General Hospital)","1001 POTRERO AVENUE","SAN FRANCISCO","94110","06075","CA","37.755383,-122.40539","POINT (-122.406522 37.755332)"
"C040137-A","040137","CHI St Vincent North","2215 WILDWOOD AVENUE","SHERWOOD","72120","05119","AR","34.813011,-92.208054","POINT (-92.207944 34.814383)"
"C050074-A","050074","Kaiser Permanente Richmond Medical Center","901 NEVIN AVE","RICHMOND","94801","06013","CA","37.937576,-122.361149","POINT (-122.360745 37.936834)"
"C511316-A","511316","Grant Memorial Hospital","117 HOSPITAL DRIVE","PETERSBURG","26847","54023","WV","39.001184,-79.137204","POINT (-79.138066 39.001474)"
"C260219-A","260219","Progress West Hospital (FKA Progress West Healthcare Center)","2 PROGRESS POINT PKWY","O FALLON","63368","29183","MO","38.715765,-90.69877","POINT (-90.696599 38.715274)"
"C452028-A","452028","Kindred Hospital - Tarrant County Arlington","1000 N COOPER ST","ARLINGTON","76011","48439","TX","32.75127,-97.11387","POINT (-97.113808 32.750562)"
"C220080-A","220080","Holy Family Hospital - Methuen","70 EAST STREET","METHUEN","01844","25009","MA","42.727787,-71.168394","POINT (-71.166186 42.725494)"
"C454138-A","454138","Garland Behavioral Hospital","2300 MARIE CURIE BLVD 5TH FLOOR","GARLAND","75042","48113","TX","32.918788,-96.662265",
"C341326-A","341326","Angel Medical Center","120 RIVERVIEW ST PO BOX 1209","FRANKLIN","28734","37113","NC","35.184462,-83.379394","POINT (-83.37764 35.184634)"
"C450399-A","450399","BROWNFIELD REGIONAL MEDICAL CENTER","705 EAST FELT STREET","BROWNFIELD","79316","48445","TX","33.175129,-102.245873","POINT (-102.267811 33.187102)"
"C452122-A","452122","El Paso LTAC Hospital","1221 N COTTON ST 3RD FLOOR","EL PASO","79902","48141","TX","31.783761,-106.474257","POINT (-106.473552 31.783699)"
"C451396-A","451396","BAYLOR SCOTT & WHITE MEDICAL CENTER - LLANO","200 W OLLIE","LLANO","78643","48299","TX","30.742896,-98.677641","POINT (-98.677996 30.743345)"
"C360175-A","360175","Clinton Memorial Hospital (AKA CMH Regional Health System)","610 W MAIN ST","WILMINGTON","45177","39027","OH","39.443612,-83.83895","POINT (-83.839926 39.445533)"
"C100150-B","100150","DEPOO HOSPITAL",,,"33040","12087","FL",,"POINT (-81.741697 24.571004)"
"C263029-A","263029","Mercy Rehabilitation Hospital St Louis (FKA St Johns Mercy Rehabilitation Hospi)","14561 NORTH OUTER FORTY","CHESTERFIELD","63017","29189","MO","38.6492,-90.533985","POINT (-90.533842 38.647676)"
"C450330-B","450330","OAK BEND MEDICAL CENTER WHARTON CAMPUS",,,"77488","48481","TX",,"POINT (-96.081649 29.297796)"
"C500024-A","500024","Providence St Peter Hospital","413 LILLY ROAD NE","OLYMPIA","98506","53067","WA","47.051325,-122.847115","POINT (-122.844427 47.052791)"
"C371309-A","371309","Pawhuska Hospital","1101 EAST 15TH STREET","PAWHUSKA","74056","40113","OK","36.6729,-96.32533","POINT (-96.325273 36.672849)"
"C192012-A","192012","CHRISTUS DUBUIS Hospital of Alexandria","3330 MASONIC DR","ALEXANDRIA","71301","22079","LA","31.28224,-92.46199","POINT (-92.461454 31.281726)"
"C26004F-A","26004F","KANSAS CITY VA MEDICAL CENTER","4801 LINWOOD BLVD","KANSAS CITY","64128","29095","MO","39.06368,-94.527745","POINT (-94.527771 39.067261)"
"C220029-A","220029","ANNA JAQUES HOSPITAL","25 HIGHLAND AVENUE","NEWBURYPORT","01950","25009","MA","42.814386,-70.89108","POINT (-70.890255 42.814623)"
"C464012-A","464012","Marian Center at St Joseph Villa","451 EAST BISHOP FEDERAL LANE","SALT LAKE CITY","84115","49035","UT","40.728209,-111.878123","POINT (-111.877574 40.728006)"
"C18006F-A","18006F","LOUISVILLE VA MEDICAL CENTER","800 ZORN AVENUE","LOUISVILLE","40206","21111","KY","38.270629,-85.697319","POINT (-85.694266 38.270963)"
"C45068F-A","45068F","WILLIAM BEAUMONT ARMY MEDICAL CENTER","DYER ST","EL PASO","79920","48141","TX","31.82471,-106.451736",
"C452094-D","452094","YOAKUM COMMUNITY HOSPITAL",,,"77995","48285","TX",,"POINT (-97.088604 29.260269)"
"C490118-A","490118","Henrico Doctors Hospital","1602 SKIPWITH ROAD","RICHMOND","23229","51087","VA","37.603593,-77.54039","POINT (-77.537702 37.603156)"
"C330080-A","330080","NYC Health and Hospitals - Lincoln (FKA Lincoln Medical & Mental Health Center)","234 EAST 149TH STREET","BRONX","10451","36005","NY","40.81756,-73.9238","POINT (-73.924071 40.817681)"
"C154019-A","154019","Madison State Hospital","711 GREEN RD","MADISON","47250","18077","IN","38.750059,-85.40213","POINT (-85.401889 38.761661)"
"C061300-A","061300","Kiowa County District Hospital","1208 LUTHER ST","EADS","81036","08061","CO","38.480005,-102.784466","POINT (-102.784467 38.480197)"
"C063035-A","063035","Vibra Hospital of Denver","8451 PEARL ST","THORNTON","80229","08001","CO","39.850155,-104.980373","POINT (-104.979306 39.8503)"
"C360180-A","360180","Cleveland Clinic Main Campus","9500 EUCLID AVENUE","CLEVELAND","44195","39035","OH","41.50361,-81.62062","POINT (-81.621342 41.503448)"
"C010039-B","010039","Huntsville Hospital","101 SIVLEY ROAD","HUNTSVILLE","35801","01089","AL","34.721053,-86.581804","POINT (-86.581547 34.721226)"
"C450475-A","450475","UT Health Henderson (FKA East Texas Medical Center - Henderson)","300 WILSON STREET","HENDERSON","75652","48401","TX","32.161747,-94.796085","POINT (-94.796003 32.161648)"
"C451318-A","451318","STONEWALL MEMORIAL HOSPITAL","821 NORTH BROADWAY","ASPERMONT","79502","48433","TX","33.150522,-100.229136",
"C520051-A","520051","Ascension Columbia St Marys Hospital Milwaukee","2323 N LAKE DR","MILWAUKEE","53211","55079","WI","43.061309,-87.880173","POINT (-87.879245 43.061301)"
"C500033-A","500033","Samaritan Hospital (AKA Samaritan Healthcare)","801 EAST WHEELER ROAD","MOSES LAKE","98837","53025","WA","47.128454,-119.265445","POINT (-119.264863 47.131115)"
"C452083-A","452083","Mid Jefferson Extended Care Hospital","2600 HIGHWAY 365","NEDERLAND","77627","48245","TX","29.95424,-93.98668","POINT (-93.985593 29.955401)"
"C394034-A","394034","The Horsham Clinic","722 EAST BUTLER PIKE","AMBLER","19002","42091","PA","40.186734,-75.189068","POINT (-75.1871 40.185)"
"C170196-A","170196","Kansas Spine & Specialty Hospital","3333 NORTH WEBB ROAD","WICHITA","67226","20173","KS","37.743644,-97.227369","POINT (-97.226326 37.743966)"
"C400122-A","400122","PROFESSIONAL HOSPITAL GUAYNABO INC","8 AVE LAS CUMBRES","GUAYNABO","00969","72061","PR","18.36727,-66.10366",
"C171340-A","171340","Herington Municipal Hospital","100 E HELEN STREET","HERINGTON","67449","20041","KS","38.680635,-96.941782","POINT (-96.942235 38.679561)"
"C051314-A","051314","Kern Valley Healthcare District","6412 LAUREL AVE","LAKE ISABELLA","93240","06029","CA","35.634939,-118.407222","POINT (-118.406084 35.635246)"
"C244016-A","244016","PrairieCare Brooklyn Park","9400 ZANE AVENUE NORTH","BROOKLYN PARK","55443","27053","MN","45.125219,-93.354121","POINT (-93.356216 45.124772)"
"C310064-B","310064","AtlantiCare Regional Medical Center - Atlantic City Campus","1925 PACIFIC AVE","ATLANTIC CITY","08401","34001","NJ","39.35787,-74.434","POINT (-74.433995 39.35777)"
"C32005F-A","32005F","VA NEW MEXICO HEALTHCARE SYSTEM","2100 RIDGECREST DR SE","ALBUQUERQUE","87101","35001","NM","35.095571,-106.64253","POINT (-106.583058 35.056951)"
"C351312-B",,"NORTHWOOD DEACONESS HEALTH CENTER","4 NORTH PARK STREET","NORTHWOOD","58267","38035","ND","47.734537,-97.574543","POINT (-97.574023 47.734823)"
"C320063-A","320063","Carlsbad Medical Center","2430 WEST PIERCE STREET","CARLSBAD","88220","35015","NM","32.441945,-104.258549","POINT (-104.258642 32.44184)"
"C360367-A","360367","Beachwood Medical Center","25501 CHAGRIN BLVD","BEACHWOOD","44122","39035","OH","41.465133,-81.499208","POINT (-81.499217 41.464447)"
"C18S012-A","18S012","Baptist Health Hardin Lifespring Pysch","913 N DIXIE AVE","ELIZABETHTOWN","42701","21093","KY","37.71087,-85.876822","POINT (-85.875148 37.710075)"
"C500141-A","500141","St Francis Hospital","34515 9TH AVENUE SOUTH","FEDERAL WAY","98003","53033","WA","47.292611,-122.32728","POINT (-122.322951 47.292106)"
"C020018-B","020018","Toksook Bay Sub-regional Clinic","YKHC, 700 CHIEF EDDY HOFFMAN HIGHWAY","BETHEL","99559","02050","AK","60.8,-161.77",
"C250031-A","250031","Merit Health River Region (FKA River Region Health System)","2100 HWY 61 N","VICKSBURG","39183","28149","MS","32.374397,-90.824725","POINT (-90.82752 32.374286)"
"C193031-A","193031","Encompass Health Rehabilitation Hospital of Alexandria (FKA HealthSouth Rehabilitation Hospital of Alexandria)","104 NORTH THIRD STREET","ALEXANDRIA","71301","22079","LA","31.317538,-92.452141","POINT (-92.45249 31.317155)"
"C160117-A","160117","FINLEY HOSPITAL","350 NORTH GRANDVIEW AVENUE","DUBUQUE","52001","19061","IA","42.495419,-90.687555","POINT (-90.687543 42.49511)"
"C03013F-A","03013F","VA S. ARIZONA HEALTHCARE SYSTEM","3601 S 6TH AVE","TUCSON","85713","04019","AZ","32.180719,-110.964713","POINT (-110.96828 32.181307)"
"C351312-A","351312","Northwood Deaconess Health Center","PO BOX 190","NORTHWOOD","58267","38035","ND","47.74,-97.58",
"C252005-A","252005","Select Specialty Hospital - Gulfport","4500 13TH STREET, 3RD FLOOR","GULFPORT","39501","28047","MS","30.368875,-89.116532","POINT (-89.114907 30.366928)"
"H000080","673079","Encompass Health Rehabilitation Hospital of Waco","3600 SOUTH LOOP 340 HIGHWAY","ROBINSON","76706","48309","TX","31.495902,-97.128793","POINT (-97.139377 31.491544)"
"C251316-A","251316","H C Watkins Memorial Hospital","605 SOUTH ARCHUSA AVENUE","QUITMAN","39355","28023","MS","32.03616,-88.72795","POINT (-88.727955 32.031229)"
"C29002F-A","29002F","VA SIERRA NEVADA HEALTHCARE SYSTEM","1000 LOCUST ST","RENO","89502","32031","NV","39.516445,-119.800321","POINT (-119.800535 39.516344)"
"C351320-A","351320","Unity Medical Center","164 W 13TH STREET","GRAFTON","58237","38099","ND","48.410775,-97.414294","POINT (-97.414142 48.411492)"
"C290042-A","290042","Harmon Hospital","2170 EAST HARMON AVENUE","LAS VEGAS","89119","32003","NV","36.107893,-115.122524","POINT (-115.121943 36.107367)"
"C192008-B","192008","SAGE SPECIALTY HOSPITAL BR",,,"70809","22033","LA",,"POINT (-91.075915 30.399273)"
"C111311-A","111311","Jenkins County Medical Center (FKA Optim Jenkins Medical Center)","931 EAST WINTHROPE AVENUE","MILLEN","30442","13165","GA","32.80428,-81.934401","POINT (-81.934074 32.803678)"
"C390071-A","390071","UPMC Lock Haven (FKA UPMC Susquehanna Lock Haven)","24 CREE DRIVE","LOCK HAVEN","17745","42035","PA","41.131006,-77.47023","POINT (-77.470269 41.132788)"
"C111324-A","111324","Chatuge Regional Hospital","110 S MAIN STREET","HIAWASSEE","30546","13281","GA","34.947059,-83.752717","POINT (-83.754318 34.946282)"
"C260011-A","260011","SSM Health St Marys Hospital - Jefferson City","2505 MISSION DRIVE","JEFFERSON CITY","65109","29051","MO","38.558395,-92.221516","POINT (-92.22067 38.560058)"
"C440049-E","440049","LEBONHEUR CHILDREN S HOSPITAL",,,"38103","47157","TN",,"POINT (-90.053792 35.150736)"
"C450388-L","450388","OTTO KAISER MEMORIAL HOSPITAL",,,"78119","48255","TX",,"POINT (-97.832585 28.77223)"
"C673075-A","673075","COBALT REHABILITATION HOSPITAL","1600 E CLIFF DR","EL PASO","79902","48141","TX","31.776557,-106.479905","POINT (-106.479763 31.776912)"
"C312020-C","312020","Kindred Hospital New Jersey - Wayne","224 HAMBURG TPKE","WAYNE","07470","34031","NJ","40.946949,-74.203075","POINT (-74.205733 40.946443)"
"C450231-A","450231","BSA Hospital","1600 WALLACE BLVD","AMARILLO","79106","48375","TX","35.196573,-101.91929","POINT (-101.918653 35.19521)"
"C374020-A","374020","Laureate Psychiatric Clinic and Hospital","6655 SOUTH YALE AVENUE","TULSA","74136","40143","OK","36.066285,-95.919236","POINT (-95.922075 36.06662)"
"C43005F-A","43005F","SIOUX FALLS VA MEDICAL CENTER","2501 W 22ND ST","SIOUX FALLS","57117","46099","SD","43.531239,-96.757621","POINT (-96.756508 43.533066)"
"C220162-A","220162","DANA FARBER CANCER INSTITUTE","450 BROOKLINE AVENUE","BOSTON","02115","25025","MA","42.337602,-71.10828",
"C360089-A","360089","Mercy Health - Tiffin Hospital","45 ST LAWRENCE DRIVE","TIFFIN","44883","39147","OH","41.103942,-83.218099","POINT (-83.216958 41.105233)"
"C522006-A","522006","Select Specialty Hospital - Milwaukee St Francis","3237 S 16TH ST","MILWAUKEE","53215","55079","WI","42.985669,-87.935797","POINT (-87.933837 42.98536)"
"C461304-A","461304","Central Valley Medical Center - CAH","48 WEST 1500 NORTH","NEPHI","84648","49023","UT","39.731154,-111.837849","POINT (-111.837104 39.730586)"
"C320067-A","320067","Guadalupe County Hospital","117 CAMINO DE VIDA, SUITE 100","SANTA ROSA","88435","35019","NM","34.935,-104.69096","POINT (-104.694468 34.929592)"
"C494031-A","494031","Newport News Behavioral Health Center","17579 WARWICK BLVD","NEWPORT NEWS","23603","51700","VA","37.204172,-76.584484","POINT (-76.582809 37.205446)"
"C310003-A","310003","Palisades Medical Center","7600 RIVER RD","NORTH BERGEN","07047","34017","NJ","40.793475,-73.996099","POINT (-73.995765 40.794166)"
"C200024-A","200024","Central Maine Medical Center","300 MAIN STREET","LEWISTON","04240","23001","ME","44.101691,-70.214521","POINT (-70.213849 44.101514)"
"C261332-A","261332","Carroll County Memorial Hospital","1502 NORTH JEFFERSON","CARROLLTON","64633","29033","MO","39.375686,-93.489806","POINT (-93.494218 39.376161)"
"C470012-A","470012","Southwestern Vermont Medical Center","100 HOSPITAL DRIVE","BENNINGTON","05201","50003","VT","42.874373,-73.208415","POINT (-73.206861 42.873275)"
"C171382-A","171382","Atchison Hospital","800 RAVIN HILL DRIVE","ATCHISON","66002","20005","KS","39.5214,-95.18473",
"C171341-A","171341","Hiawatha Community Hospital","300 UTAH STREET","HIAWATHA","66434","20013","KS","39.85211,-95.531084","POINT (-95.531196 39.85182)"
"C392027-B","392027","Kindred Hospital - Philadelphia","6129 PALMETTO ST","PHILADELPHIA","19111","42101","PA","40.046008,-75.096936","POINT (-75.097298 40.046207)"
"C140185-A","140185","Memorial Hospital Belleville","4500 MEMORIAL DR","BELLEVILLE","62226","17163","IL","38.550202,-90.021453","POINT (-90.020566 38.548909)"
"C390333-B","390333","AHN Brentwood Neighborhood Hospital","3290 SAW MILL RUN BLVD","BRENTWOOD","15227","42003","PA","40.375381,-79.985401","POINT (-79.984346 40.37623)"
"C112014-A","112014","Select Specialty Hospital - South Atlanta (FKA Regency Hospital of South Atlanta)","1170 CLEVELAND AVE","EAST POINT","30344","13121","GA","33.680419,-84.425739","POINT (-84.427715 33.681214)"
"C161333-A","161333","STORY COUNTY MEDICAL CENTER","640 SOUTH 19TH STREET","NEVADA","50201","19169","IA","42.004786,-93.438588","POINT (-93.434903 42.005266)"
"C360107-A","360107","Bellevue Hospital","1400 WEST MAIN STREET","BELLEVUE","44811","39143","OH","41.287641,-82.878893","POINT (-82.882559 41.28508)"
"C364065-A","364065","Glenwood Behavioral Health Hospital","2446 KIPLING AVENUE","CINCINNATI","45239","39061","OH","39.205416,-84.565847","POINT (-84.572088 39.201705)"
"C673059-A","673059","Laredo Rehabilitation Hospital","2005 A BUSTAMANTE STREET","LAREDO","78041","48479","TX","27.53309,-99.47352","POINT (-99.473035 27.534169)"
"C670107-A","670107","BAYLOR EMERGENCY MC   BURLESON","12500 SOUTH FWY,","BURLESON","76028","48251","TX","32.575535,-97.321214","POINT (-97.320743 32.575978)"
"C454100-A","454100","EL PASO PSYCHIATRIC CENTER","4615 ALAMEDA AVENUE","EL PASO","79905","48141","TX","31.771738,-106.436208","POINT (-106.435967 31.771276)"
"C174016-A","174016","Prairie View","1901 E FIRST STREET PO BOX 467","NEWTON","67114","20079","KS","38.04139,-97.312868",
"C181311-A","181311","ST  ELIZABETH GRANT","238 BARNES ROAD","WILLIAMSTOWN","41097","21081","KY","38.646106,-84.578482","POINT (-84.578264 38.647862)"
"C452119-A","452119","SELECT SPECIALTY HOSP  DALLAS  DOWNTOWN",,,"75246","48113","TX",,"POINT (-96.772928 32.792926)"
"C492001-A","492001","Lake Taylor Transitional Care Hospital","1309 KEMPSVILLE ROAD","NORFOLK","23502","51710","VA","36.866946,-76.205914","POINT (-76.20437 36.8672)"
"C450617-B","450617","Mainland Medical Center (AKA HCA Houston Healthcare Mainland)","6801 EMMETT F LOWRY EXPY","TEXAS CITY","77591","48167","TX","29.393766,-94.986768","POINT (-94.987076 29.395307)"
"C393031-A","393031","Encompass Health Rehabilitation Hospital of Mechanicsburg (FKA HealthSouth Rehabilitation Hospital of Mechanicsburg)","175 LANCASTER BOULEVARD","MECHANICSBURG","17055","42041","PA","40.211151,-76.974038","POINT (-76.974755 40.210875)"
"C461306-A","461306","Gunnison Valley Hospital","64 EAST 100 NORTH","GUNNISON","84634","49039","UT","39.156243,-111.816372","POINT (-111.815854 39.15665)"
"C350002-B",,"CHI ST ALEXIUS HEALTH","900 E BROADWAY","BISMARCK","58501","38015","ND","46.807257,-100.777785","POINT (-100.777075 46.806369)"
"C110023-A","110023","AdventHealth Gordon (FKA Gordon Hospital)","1035 RED BUD ROAD","CALHOUN","30701","13129","GA","34.510218,-84.926302","POINT (-84.925326 34.511877)"
"C260005-B","260005","SSM Health St Joseph Hospital - Wentzville","500 MEDICAL DR","WENTZVILLE","63385","29183","MO","38.822138,-90.880918","POINT (-90.880663 38.822781)"
"C060024-A","060024","UCHealth University of Colorado Hospital","12605 E 16TH AVE","AURORA","80045","08001","CO","39.742487,-104.841686","POINT (-104.840718 39.741362)"
"C362025-A","362025","Specialty Hospital of Lorain","254 CLEVELAND AVENUE, 2ND FLOOR","AMHERST","44001","39093","OH","41.399406,-82.224117","POINT (-82.224157 41.399734)"
"C141329-A","141329","Morrison Community Hospital","303 N JACKSON STREET","MORRISON","61270","17195","IL","41.808994,-89.957972","POINT (-89.956692 41.808929)"
"C241358-A","241358","Cass Lake Indian Health Service Unit (AKA Cass Lake Hospital)","425 7TH STREET NW","CASS LAKE","56633","27021","MN","47.38442,-94.608985","POINT (-94.609511 47.384093)"
"C190064-C","190064","EDO   OLOL LIVINGSTON",,,"70785","22063","LA",,"POINT (-90.84124 30.533001)"
"C370018-A","370018","Ascension Jane Phillips Medical Center (FKA Jane Phillips Memorial Medical Center)","3500 EAST FRANK PHILLIPS BOULEVARD","BARTLESVILLE","74006","40147","OK","36.752827,-95.938385","POINT (-95.939698 36.750676)"
"C340003-A","340003","Northern Regional Hospital","830 ROCKFORD ST","MOUNT AIRY","27030","37171","NC","36.488288,-80.612217","POINT (-80.611181 36.488418)"
"C220090-A","220090","MILFORD REGIONAL MEDICAL CENTER","14 PROSPECT STREET","MILFORD","01757","25027","MA","42.133196,-71.528696","POINT (-71.529061 42.132889)"
"C100288-A","100288","St Marys Medical Center","901 45TH ST","WEST PALM BEACH","33407","12099","FL","26.757801,-80.065473","POINT (-80.062856 26.753212)"
"C140034-A","140034","SSM Health St Marys Hospital - Centralia (FKA St Marys Good Samaritan Inc - Centralia Campus)","400 NORTH PLEASANT AVENUE","CENTRALIA","62801","17121","IL","38.530937,-89.117809","POINT (-89.115999 38.530841)"
"C360025-A","360025","Firelands Regional Medical Center","1111 HAYES AVENUE","SANDUSKY","44870","39043","OH","41.446071,-82.710677","POINT (-82.7088 41.446146)"
"C050782-A","050782","Casa Colina Hospital and Centers for Healthcare (FKA Casa Colina Hospital for Rehab Medicine)","255 E BONITA AVE","POMONA","91767","06037","CA","34.097679,-117.746922","POINT (-117.746864 34.097763)"
"C264010-B","264010","St. Louis Forensic Treatment Center- South","5300 ARSENAL ST","SAINT LOUIS","63139","29510","MO","38.603061,-90.278678","POINT (-90.278221 38.605925)"
"C330286-A","330286","Good Samaritan Hospital Medical Center","1000 MONTAUK HIGHWAY","WEST ISLIP","11795","36103","NY","40.694087,-73.294465","POINT (-73.294768 40.695844)"
"C381304-A","381304","Southern Coos Hospital and Health Center","900 11TH STREET SE","BANDON","97411","41011","OR","43.11191,-124.401384","POINT (-124.402426 43.113244)"
"C224046-A","224046","MIRAVISTA BEHAVIORAL HEALTH CENTER","1233 MAIN STREET","HOLYOKE","01040","25013","MA","42.16534,-72.63557","POINT (-72.632852 42.165463)"
"C493302-A","493302","Childrens Hospital of Richmond at VCU - Brook Road Campus","2924 BROOK ROAD","RICHMOND","23220","51760","VA","37.571033,-77.451383","POINT (-77.449283 37.571327)"
"C220066-A","220066","Mercy Medical Center","271 CAREW STREET","SPRINGFIELD","01104","25013","MA","42.115545,-72.593225","POINT (-72.595607 42.115296)"
"C361325-A","361325","Galion Hospital (FKA Galion Community Hospital)","269 PORTLAND WAY SOUTH","GALION","44833","39033","OH","40.731088,-82.803139","POINT (-82.803286 40.731176)"
"C03033F-A","03033F","VA NORTHERN ARIZONA HEALTHCARE SYSTEM","500 HIGHWAY 89 NORTH","PRESCOTT","86313","04025","AZ","34.555423,-112.452016","POINT (-112.452652 34.554604)"
"C471303-A","471303","NORTHEASTERN VERMONT REGIONAL HOSPITAL","1315 HOSPITAL DRIVE","SAINT JOHNSBURY","05819","50005","VT","44.445868,-72.009291","POINT (-72.009665 44.445266)"
"C110143-A","110143","WellStar Cobb Hospital","3950 AUSTELL RD","AUSTELL","30106","13067","GA","33.857099,-84.604399","POINT (-84.601513 33.856779)"
"C100110-A","100110","Osceola Regional Medical Center","700 WEST OAK STREET","KISSIMMEE","34741","12097","FL","28.29914,-81.409668","POINT (-81.410196 28.300924)"
"C051300-A","051300","Eastern Plumas Hospital - Portola Campus","500 FIRST AVENUE","PORTOLA","96122","06063","CA","39.807366,-120.46396","POINT (-120.4629 39.806107)"
"C050599-A","050599","University of California Davis Medical Center (AKA UC Davis Medical Center)","2315 STOCKTON BOULEVARD","SACRAMENTO","95817","06067","CA","38.554597,-121.455972","POINT (-121.457535 38.554375)"
"C050382-A","050382","Emanate Health Queen of the Valley Hospital (FKA Queen of the Valley Hospital)","1115 S SUNSET AVE","WEST COVINA","91790","06037","CA","34.064653,-117.944464","POINT (-117.944912 34.062616)"
"C190065-A","190065","Baton Rouge General Medical Center - Mid City Campus","3600 FLORIDA BLVD","BATON ROUGE","70806","22033","LA","30.449306,-91.153118","POINT (-91.154638 30.450336)"
"C511303-A","511303","Minnie Hamilton Health Care Center CAH (AKA Minnie Hamilton Health System)","186 HOSPITAL DRIVE","GRANTSVILLE","26147","54013","WV","38.922658,-81.09363","POINT (-81.091891 38.923796)"
"C030112-A","030112","Dignity Health Arizona Specialty Hospital (FKA Arizona Orthopedic Surgical Hospital)","2905 WEST WARNER ROAD, SUITE 1","CHANDLER","85224","04013","AZ","33.333929,-111.891199","POINT (-111.890537 33.334855)"
"C231306-A","231306","Mackinac Straits Health System","1140 N STATE STREET","SAINT IGNACE","49781","26097","MI","45.852776,-84.706415","POINT (-84.727559 45.890989)"
"C450788-F","450788","CORPUS CHRISTI MED CTR   BAY AREA",,,"78412","48355","TX",,"POINT (-97.350891 27.707118)"
"C050609-B","050609","Kaiser Permanente - Orange County Irvine Medical Center","6640 ALTON PKWY","IRVINE","92618","06059","CA","33.658346,-117.774705","POINT (-117.774343 33.65951)"
"C452085-A","452085","POST ACUTE MEDICAL Specialty Hospital of Corpus Christi North","600 ELIZABETH ST,","CORPUS CHRISTI","78404","48355","TX","27.775943,-97.396273","POINT (-97.395121 27.777489)"
"C371318-A","371318","Fairfax Community Hospital","40 HOSPITAL ROAD","FAIRFAX","74637","40113","OK","36.56271,-96.70547","POINT (-96.705262 36.563619)"
"C521333-A","521333","Black River Memorial Hospital","711 W ADAMS ST","BLACK RIVER FALLS","54615","55053","WI","44.303791,-90.856946","POINT (-90.855669 44.302386)"
"C210057-A","210057","Adventist HealthCare Shady Grove Medical Center","9901 MEDICAL CENTER DRIVE","ROCKVILLE","20850","24031","MD","39.098283,-77.198077","POINT (-77.200696 39.097701)"
"C340039-A","340039","Iredell Memorial Hospital (AKA Iredell Health System)","557 BROOKDALE DR","STATESVILLE","28677","37097","NC","35.799865,-80.878633","POINT (-80.876852 35.800865)"
"C340071-B","340071","Betsy Johnson Hospital (FKA Harnett Health Betsy Johnson Regional Hospital)","800 TILGHMAN DR","DUNN","28334","37085","NC","35.30723,-78.63488","POINT (-78.63309 35.306591)"
"C423035-A","423035","Encompass Health Rehabilitation Hospital of Greenville","3372 LAURENS RD","GREENVILLE","29607","45045","SC","34.804901,-82.326885","POINT (-82.325202 34.804913)"
"C521338-A","521338","Prairie Ridge Health Hospital (FKA Columbus Community Hospital)","1515 PARK AVE","COLUMBUS","53925","55021","WI","43.322701,-89.035436","POINT (-89.036753 43.323387)"
"C050457-A","050457","St Marys Medical Center","450 STANYAN ST","SAN FRANCISCO","94117","06075","CA","37.774059,-122.454188","POINT (-122.454532 37.774018)"
"C050464-A","050464","Doctors Medical Center Modesto","1441 FLORIDA AVENUE","MODESTO","95350","06099","CA","37.665397,-120.997426","POINT (-120.996249 37.665585)"
"C442011-A","442011","Select Specialty Hospital - Nashville","2000 HAYES STREET","NASHVILLE","37203","47037","TN","36.15228,-86.80006","POINT (-86.800347 36.152237)"
"C105030-A","105030","Miami Jewish Health System","5200 NE 2ND AVENUE","MIAMI","33137","12086","FL","25.822989,-80.192308","POINT (-80.191771 25.823068)"
"C190263-A","190263","OUR LADY OF LOURDES HEART HOSPITAL",,,"70508","22055","LA",,"POINT (-92.027248 30.158884)"
"C050309-A","050309","Sutter Roseville Medical Center","ONE MEDICAL PLAZA","ROSEVILLE","95661","06061","CA","38.765528205,-121.248024394585",
"C380014-A","380014","Good Samaritan Regional Medical Center","3600 NW SAMARITAN DRIVE","CORVALLIS","97330","41003","OR","44.603215,-123.253181","POINT (-123.252682 44.604311)"
"C531305-A","531305","Platte County Memorial Hospital","201 14TH STREET","WHEATLAND","82201","56031","WY","42.05024,-104.96031","POINT (-104.960221 42.049856)"
"C39L113-A","39L113","Southwood Psychiatric Hospital","2576 BOYCE PLAZA ROAD","PITTSBURGH","15241","42003","PA","40.319546,-80.114572","POINT (-80.114516 40.31973)"
"C111329-A","111329","St Marys Good Samaritan Hospital","5401 LAKE OCONEE PARKWAY","GREENSBORO","30642","13133","GA","33.481619,-83.242338","POINT (-83.241645 33.479921)"
"C391313-A","391313","UPMC Cole","1001 EAST SECOND STREET","COUDERSPORT","16915","42105","PA","41.772371,-77.98008","POINT (-77.979711 41.77065)"
"C454124-A","454124","Mesa Springs Hospital","5560 MESA SPRINGS DRIVE","FORT WORTH","76123","48439","TX","32.63979,-97.413358","POINT (-97.411016 32.640207)"
"C183029-A","183029","Southern Kentucky Rehabilitation Hospital","1300 CAMPBELL LANE","BOWLING GREEN","42104","21227","KY","36.95596,-86.44622","POINT (-86.447086 36.956573)"
"C440132-A","440132","HENRY COUNTY MEDICAL CENTER","301 TYSON AV","PARIS","38242","47079","TN","36.29858,-88.31048","POINT (-88.311017 36.297369)"
"C420019-A","420019","MUSC Health Chester Medical Center (FKA Chester Regional Medical Center)","1 MEDICAL PARK DRIVE","CHESTER","29706","45023","SC","34.6844,-81.182979","POINT (-81.184551 34.683429)"
"C454008-A","454008","NORTH TEXAS STATE HOSPITAL","6515 KEMP BLVD","WICHITA FALLS","76308","48485","TX","33.845108,-98.524448","POINT (-98.527642 33.840175)"
"C431306-A","431306","Platte Health Center Avera","601 E 7TH ST  POST OFFICE BOX 200","PLATTE","57369","46023","SD","43.4032,-98.87337","POINT (-98.836278 43.384183)"
"C330270-A","330270","Hospital for Special Surgery","535 EAST 70TH STREET","NEW YORK","10021","36061","NY","40.7653,-73.95389","POINT (-73.953127 40.764866)"
"C040019-A","040019","Forrest City Medical Center","1601 NEWCASTLE ROAD","FORREST CITY","72335","05123","AR","35.039924,-90.776575","POINT (-90.771899 35.039216)"
"C444002-A","444002","Moccasin Bend Mental Health Institute","100 MOCCASIN BEND ROAD","CHATTANOOGA","37405","47065","TN","35.026892,-85.335476","POINT (-85.335497 35.027244)"
"C360017-A","360017","OhioHealth Grove City Methodist Hospital","1375 STRINGTOWN RD","GROVE CITY","43123","39049","OH","39.876234,-83.033451","POINT (-83.033864 39.877314)"
"C083026-A","083026","Encompass Health Rehabilitation Hospital of Middletown (FKA HealthSouth Rehabilitation Hospital of Middletown)","250 EAST HAMPDEN ROAD","MIDDLETOWN","19709","10003","DE","39.453043,-75.677308",
"C100281-A","100281","Memorial Hospital West","703 N FLAMINGO RD","PEMBROKE PINES","33028","12011","FL","26.01,-80.34","POINT (-80.309457 26.013281)"
"C312019-A","312019","Select Specialty Hospital - Northeast New Jersey","96 PARKWAY","ROCHELLE PARK","07662","34003","NJ","40.898549,-74.07418","POINT (-74.076 40.89757)"
"C310069-A","310069","Inspira Medical Center Elmer (FKA South Jersey Healthcare - Elmer Hospital)","501 WEST FRONT STREET","ELMER","08318","34033","NJ","39.58726,-75.18003","POINT (-75.179457 39.588142)"
"C330204-A","330204","NYC Health and Hospitals - Bellevue (FKA Bellevue Hospital Center)","462 FIRST AVENUE","NEW YORK","10016","36061","NY","40.738749,-73.97534","POINT (-73.976773 40.739353)"
"C063036-A","063036","Denver Rehabilitation Hospital, LLC","4650 CENTRAL PARK BLVD","DENVER","80238","08031","CO","39.781353,-104.882171","POINT (-104.882729 39.781739)"
"C293032-A","293032","Encompass Health Rehabilitation Hospital of Henderson (FKA Healthsouth Rehabilitation Hospital of Henderson)","10301 JEFFREYS ST","HENDERSON","89052","32003","NV","36.001091,-115.120892","POINT (-115.119608 36.002043)"
"C050104-A","050104","St Francis Medical Center","3630 EAST IMPERIAL HIGHWAY","LYNWOOD","90262","06037","CA","33.929844,-118.203108","POINT (-118.203907 33.930984)"
"C191322-A","191322","OCHSNER ABROM KAPLAN MEMORIAL HOSPITAL","1310 WEST SEVENTH STREET","KAPLAN","70548","22113","LA","30.00757,-92.29692","POINT (-92.297337 30.007591)"
"C670115-A","670115","CLEVELAND EMERGENCY HOSPITAL","1017 S TRAVIS AVE","CLEVELAND","77327","48291","TX","30.32973,-95.095588","POINT (-95.096057 30.329434)"
"C244012-A","244012","Community Behavioral Health Hospital - Alexandria","1610 8TH AVENUE EAST","ALEXANDRIA","56308","27041","MN","45.882583,-95.353987","POINT (-95.353816 45.883227)"
"C231315-A","231315","Ascension Borgess-Lee Hospital","420 W HIGH ST","DOWAGIAC","49047","26027","MI","41.983409,-86.115617","POINT (-86.115477 41.982653)"
"C281344-A","281344","CHERRY COUNTY HOSPITAL","P O BOX 410, 510 NORTH GREEN ST","VALENTINE","69201","31031","NE","42.878524,-100.539317",
"C390110-A","390110","Conemaugh Health System - Conemaugh Memorial Medical Center Main Campus","1086 FRANKLIN STREET","JOHNSTOWN","15905","42021","PA","40.305694,-78.918554","POINT (-78.918607 40.304994)"
"C140210-A","140210","Harrisburg Medical Center","100 DOCTOR WARREN TUTTLE DR","HARRISBURG","62946","17165","IL","37.72534,-88.56996",
"C374021-A","374021","Parkside Psychiatric Hospital & Clinic","1239 S TRENTON AVE","TULSA","74120","40143","OK","36.14461,-95.96963","POINT (-95.969772 36.145239)"
"C201300-A","201300","Northern Light Blue Hill Hospital","57 WATER STREET","BLUE HILL","04614","23009","ME","44.411637,-68.587196","POINT (-68.586231 44.411445)"
"C230089-A","230089","Beaumont Hospital - Grosse Pointe","468 CADIEUX RD","GROSSE POINTE","48230","26163","MI","42.384526,-82.91441","POINT (-82.91547 42.384327)"
"C450565-A","450565","Palo Pinto General Hospital","400 SOUTHWEST 25 AVE","MINERAL WELLS","76067","48363","TX","32.79966,-98.145334","POINT (-98.145406 32.799552)"
"C233026-A","233026","Mary Free Bed Rehabilitation Hospital","235 WEALTHY SE","GRAND RAPIDS","49503","26081","MI","42.956949,-85.662924",
"C180040-D","180040","UofL Health - Jewish Hospital","200 ABRAHAM FLEXNER WAY","LOUISVILLE","40202","21111","KY","38.249177,-85.751251","POINT (-85.751129 38.249359)"
"C490022-A","490022","Mary Washington Hospital","1001 SAM PERRY BOULEVARD","FREDERICKSBURG","22401","51630","VA","38.311132,-77.483493","POINT (-77.481562 38.310649)"
"C140040-A","140040","Galesburg Cottage Hospital","695 N KELLOGG ST","GALESBURG","61401","17095","IL","40.95569,-90.365329","POINT (-90.366199 40.955483)"
"C061302-A","061302","Family Health West (FKA Colorado Canyons Hospital and Medical Center)","300 W OTTLEY AVE","FRUITA","81521","08077","CO","39.162797,-108.737298","POINT (-108.736862 39.164335)"
"C161345-A","161345","OSCEOLA REGIONAL HEALTH CENTER","600 9TH AVENUE NORTH","SIBLEY","51249","19143","IA","43.402406,-95.741541","POINT (-95.74173 43.410421)"
"C101303-A","101303","Lake Butler Hospital (FKA Lake Butler Hand Surgery Center)","850 E MAIN ST","LAKE BUTLER","32054","12125","FL","30.02346,-82.32846","POINT (-82.327433 30.023603)"
"C511304-A","511304","Sistersville General Hospital","314 SOUTH WELLS STREET","SISTERSVILLE","26175","54095","WV","39.558696,-81.003986","POINT (-81.003799 39.558588)"
"C33015F-A","33015F","VA HUDSON VALLEY HEALTHCARE SYSTEM",,"MONTROSE","10548","36119","NY",,"POINT (-73.939579 41.249304)"
"C420078-A","420078","Prisma Health Greenville Memorial Hospital","701 GROVE ROAD","GREENVILLE","29605","45045","SC","34.820492,-82.410458","POINT (-82.41359 34.821617)"
"C050751-A","050751","MIRACLE MILE MEDICAL CENTER","5757 WILSHIRE BLVD","LOS ANGELES","90036","06037","CA","34.0626,-118.35342","POINT (-118.354316 34.062495)"
"C260209-A","260209","Fulton Medical Center (AKA Callaway Community Hospital)","10 SOUTH HOSPITAL DRIVE","FULTON","65251","29027","MO","38.84443,-91.966115","POINT (-91.966202 38.842247)"
"C054083-A","054083","Kedren Community Health Center","4211 SOUTH AVALON BLVD","LOS ANGELES","90011","06037","CA","34.007209,-118.265431","POINT (-118.265253 34.007332)"
"C152024-B","152024","Regency Hospital of Northwest Indiana","4321 FIR ST","EAST CHICAGO","46312","18089","IN","41.635027,-87.448655","POINT (-87.448542 41.634064)"
"C454139-A","454139","SUN BEHAVIORAL","7601 FANNIN STREET","HOUSTON","77054","48201","TX","29.690553,-95.400882","POINT (-95.401869 29.692073)"
"C100336-A","100336","Merritt Island Outpatient Surgery Center","50 E MERRITT ISLAND CSWY, STE 400","MERRITT ISLAND","32952","12009","FL","28.356944,-80.699402","POINT (-80.699369 28.357086)"
"C120011-A","120011","Kaiser Permanente Moanalua Medical Center","3288 MOANALUA RD","HONOLULU","96819","15003","HI","21.363242,-157.899592","POINT (-157.900297 21.362447)"
"C250007-A","250007","Merit Health Biloxi (FKA Biloxi Regional Medical Center)","150 REYNOIR STREET","BILOXI","39530","28047","MS","30.396019,-88.889687","POINT (-88.890438 30.396124)"
"C180036-A","180036","Our Lady of Bellefonte Hospital (Closing April 30 2020)","1000 SAINT CHRISTOPHER DR","ASHLAND","41101","21019","KY","38.508814,-82.693496","POINT (-82.69305 38.509303)"
"C451337-A","451337","W  J  MANGOLD MEMORIAL HOSPITAL","320 NORTH MAIN","LOCKNEY","79241","48153","TX","34.12717,-101.4415","POINT (-101.441802 34.126702)"
"C450028-A","450028","Valley Baptist Medical Center - Brownsville (FKA VHS Brownsville Hospital)","1040 W JEFFERSON ST","BROWNSVILLE","78520","48061","TX","25.918672,-97.511757","POINT (-97.511886 25.917822)"
"C374006-A","374006","Carl Albert Community Mental Health Center","1101 EAST MONROE","MCALESTER","74501","40121","OK","34.9349,-95.75278","POINT (-95.756535 34.936408)"
"C222048-A","222048","WHITTIER REHABILITATION HOSPITAL OF WESTBOROUGH","150 FLANDERS ROAD","WESTBOROUGH","01581","25027","MA","42.277243,-71.567878","POINT (-71.566659 42.275983)"
"C110069-A","110069","Houston Medical Center","1601 WATSON BOULEVARD","WARNER ROBINS","31093","13153","GA","32.616302,-83.631217","POINT (-83.629475 32.618198)"
"C450079-A","450079","BSW MC   IRVING","1901 N MACARTHUR BLVD","IRVING","75061","48113","TX","32.83377,-96.95916","POINT (-96.959221 32.835019)"
"C450010-A","450010","United Regional Eleventh Street Campus","1600 11TH STREET","WICHITA FALLS","76301","48485","TX","33.90302,-98.50039","POINT (-98.501483 33.902311)"
"C150048-A","150048","Reid Health (FKA Reid Hospital & Health Care Services)","1100 REID PKWY","RICHMOND","47374","18177","IN","39.862475,-84.886644","POINT (-84.887765 39.86303)"
"C192009-B","192009","Curahealth New Orleans Slidell","1444 LINDBERG DR","SLIDELL","70458","22103","LA","30.28357,-89.75415","POINT (-89.752388 30.280476)"
"C340091-G","340091","Cone Health Womens & Childrens Center at Moses Cone Hospital","1121 NORTH CHURCH STREET ENTRANCE C","GREENSBORO","27401","37081","NC","36.091102,-79.785543","POINT (-79.783886 36.090891)"
"C030148-A","030148","Northwest Medical Center Sahaurita","16260 SOUTH RANCHO SAHUARITA BOULEVARD","SAHUARITA","85629","04019","AZ","31.955862,-110.985188","POINT (-110.983245 31.956513)"
"C673044-A","673044","Encompass Health Rehabilitation Hospital of the Mid-Cities (FKA HealthSouth Rehabilitation Hospital of the Mid-Cities)","2304 HIGHWAY 121","BEDFORD","76021","48439","TX","32.845563,-97.113246","POINT (-97.113711 32.846289)"
"C330003-A","330003","Samaritan Hospital - Albany Memorial Campus (FKA Albany Memorial Hospital)","600 NORTHERN BLVD","ALBANY","12204","36001","NY","42.674114,-73.748619","POINT (-73.748921 42.674636)"
"C110236-A","110236","CHI Memorial Hospital Georgia (FKA Cornerstone Medical Center)","100 GROSS CRESCENT CIRCLE","FORT OGLETHORPE","30742","13047","GA","34.946484,-85.263422","POINT (-85.262811 34.94769)"
"C673076-A","673076","ClearSky Rehabilitation Hospital at Flower Mound","3100 PETERS COLONY ROAD","FLOWER MOUND","75022","48121","TX","33.035442,-97.077278","POINT (-97.076657 33.034738)"
"C281316-A","281316","WEBSTER COUNTY COMMUNITY HOSPITAL","P O BOX 465, 621 N FRANKLIN ST","RED CLOUD","68970","31181","NE","40.091441,-98.528162",
"C444004-A","444004","Lakeside Behavioral Health System (FKA Lakeside Hospital)","2911 BRUNSWICK RD","MEMPHIS","38133","47157","TN","35.207047,-89.772586","POINT (-89.772912 35.205986)"
"C063301-A","063301","Childrens Hospital Colorado - Anschutz Medical Campus","13123 E 16TH AVE","AURORA","80045","08001","CO","39.742306,-104.835499","POINT (-104.835018 39.741635)"
"C363037-A","363037","OhioHealth Rehabilitation Hospital","1087 DENNISON AVENUE 4TH FLOOR","COLUMBUS","43201","39049","OH","39.984266,-83.008831","POINT (-83.008429 39.983901)"
"C271344-A","271344","Sidney Health Center","216 14TH AVE SW","SIDNEY","59270","30083","MT","47.714235,-104.173411","POINT (-104.174171 47.715836)"
"C440151-A","440151","SAINT THOMAS RIVER PARK HOSPITAL","1559 SPARTA STREET","MC MINNVILLE","37110","47177","TN","35.69978,-85.743935","POINT (-85.742022 35.698949)"
"C050025-B","050025","UC San Diego Health - La Jolla Jacobs Medical Center","9300 CAMPUS POINT DR","LA JOLLA","92037","06073","CA","32.878012,-117.225642","POINT (-117.223799 32.879653)"
"C170186-A","170186","Kansas Heart Hospital","3601 NORTH WEBB ROAD","WICHITA","67226","20173","KS","37.75008,-97.22728","POINT (-97.226362 37.749761)"
"C150161-A","150161","IU Health North Hospital","11700 N MERIDIAN ST","CARMEL","46032","18057","IN","39.959285,-86.159444","POINT (-86.162356 39.959275)"
"C271304-A","271304","Missouri River Medical Center","1501 ST CHARLES ST","FORT BENTON","59442","30015","MT","47.820504,-110.67218",
"C180139-A","180139","KENTUCKY RIVER MEDICAL CENTER","540 JETT DRIVE","JACKSON","41339","21025","KY","37.565797,-83.369262","POINT (-83.370102 37.565956)"
"C45086F-A","45086F","Olin E. Teague Veterans' Medical Center",,"TEMPLE","76501","48027","TX",,"POINT (-97.276913 31.084933)"
"C151319-A","151319","Gibson General Hospital","1808 SHERMAN DR","PRINCETON","47670","18051","IN","38.360964,-87.589908","POINT (-87.589552 38.360231)"
"C150133-A","150133","Kosciusko Community Hospital","2101 E DUBOIS DR","WARSAW","46580","18085","IN","41.247864,-85.829274","POINT (-85.82832 41.24643)"
"C450235-A","450235","GONZALES HEALTHCARE SYSTEMS MEMORIAL HOSPITAL","1110 SARAH DEWITT DRIVE","GONZALES","78629","48177","TX","29.517599,-97.427225","POINT (-97.428875 29.515902)"
"C114028-A","114028","Georgia Regional Hospital-Savannah","1915 EISENHOWER DRIVE","SAVANNAH","31416","13051","GA","32.005679,-81.09728","POINT (-81.081686 32.001261)"
"C670062-E","670062","BAYLOR EMERGENCY MC   KELLER",,,"76248","48439","TX",,"POINT (-97.23005 32.924919)"
"C450119-B","450119","South Texas Health System Edinburg","1102 WEST TRENTON ROAD","EDINBURG","78539","48215","TX","26.261303,-98.181835","POINT (-98.182888 26.263347)"
"C292002-B","292002","Kindred Hospital - Las Vegas Sahara","5110 W SAHARA AVE","LAS VEGAS","89146","32003","NV","36.14467,-115.21074","POINT (-115.211164 36.144571)"
"C330223-A","330223","Massena Memorial Hospital","1 HOSPITAL DRIVE","MASSENA","13662","36089","NY","44.936304,-74.908852","POINT (-74.907893 44.936412)"
"C190125-A","190125","St Francis Medical Center","309 JACKSON STREET","MONROE","71201","22073","LA","32.499945,-92.114248","POINT (-92.11479 32.499732)"
"C381301-A","381301","PeaceHealth Cottage Grove Community Medical Center (FKA Cottage Grove Community Hospital)","1515 VILLAGE DRIVE","COTTAGE GROVE","97424","41039","OR","43.803701,-123.039637","POINT (-123.038676 43.803837)"
"C390093-A","390093","Clarion Hospital","ONE HOSPITAL DRIVE","CLARION","16214","42031","PA","41.19202,-79.396234",
"C520138-A","520138","Aurora Sinai Medical Center of Aurora Health Care Metro","945 N 12TH ST","MILWAUKEE","53233","55079","WI","43.042531,-87.927976","POINT (-87.927184 43.042616)"
"C140007-A","140007","AMITA Health Saint Joseph Medical Center Joliet (FKA Presence Saint Joseph Medical Center)","333 N MADISON ST","JOLIET","60435","17197","IL","41.52803,-88.13475","POINT (-88.134641 41.528145)"
"C050017-A","050017","Mercy General Hospital","4001 J ST","SACRAMENTO","95819","06067","CA","38.570607,-121.452484","POINT (-121.452675 38.569438)"
"C320058-A","320058","Mescalero Service Unit (AKA Mescalero Indian Hospital)","P O BOX 210","MESCALERO","88340","35035","NM","33.3464074,-105.5702296",
"C334053-A","334053","Bronx Psychiatric Center","1500 WATERS PLACE","BRONX","10461","36005","NY","40.848782,-73.839362",
"C452022-B","452022","Select Specialty Hospital - Dallas","2329 PARKER ROAD","CARROLLTON","75010","48121","TX","33.04567,-96.864747","POINT (-96.89252 33.07394)"
"C050771-A","050771","Coast Plaza Hospital","13100 STUDERBAKER ROAD","NORWALK","90650","06037","CA","33.912552,-118.098457","POINT (-118.099156 33.912428)"
"C450211-A","450211","CHI St Lukes Health-Memorial Lufkin (FKA Memorial Health System of East Texas - Lufkin)","1201 W FRANK AVE","LUFKIN","75904","48005","TX","31.336811,-94.743638","POINT (-94.742547 31.337301)"
"C360098-A","360098","West Medical Center","36000 EUCLID AVE","WILLOUGHBY","44094","39085","OH","41.625831,-81.43357","POINT (-81.432239 41.626543)"
"C014012-A","014012","MARY S  HARPER GERIATRIC PSYCHIATRY CENTER","201 UNIVERSITY BLVD","TUSCALOOSA","35401","01125","AL","33.211235,-87.555658","POINT (-87.537359 33.208009)"
"C450558-B","450558","HENDRICK MEDICAL CENTER SOUTH",,,"79606","48441","TX",,"POINT (-99.801962 32.371592)"
"C050688-A","050688","St Louise Regional Hospital","9400 N NAME UNO","GILROY","95020","06085","CA","37.035599,-121.571089","POINT (-121.573003 37.035046)"
"C393038-A","393038","Magee Rehabilitation Hospital","SIX FRANKLIN PLAZA","PHILADELPHIA","19102","42101","PA","39.95283,-75.166019",
"C450033-A","450033","Valley Baptist Medical Center - Harlingen (FKA VHS Harlingen Hospital)","2101 PEASE ST","HARLINGEN","78550","48061","TX","26.175284,-97.67051","POINT (-97.670459 26.173197)"
"H000049",,"SURGERY CENTER OF AMARILLO","1010 COULTER ST S","AMARILLO","79106","48375","TX","35.20387,-101.923083","POINT (-101.921941 35.203922)"
"C280119-A","280119","Twelve Clans Unity Hospital (FKA Winnebago Service Unit Winnebago Hospital)","HWY 77-75","WINNEBAGO","68071","31173","NE","42.23,-96.47",
"C451363-A","451363","JACKSON COUNTY HOSPITAL",,,"77957","48239","TX",,"POINT (-96.675304 28.994127)"
"C440130-A","440130","Baptist Memorial Hospital - Union City","1201 BISHOP ST, PO BOX 310","UNION CITY","38261","47131","TN","36.41418,-89.044848","POINT (-89.045471 36.4149)"
"C261313-A","261313","Macon County Samaritan Memorial Hospital","1205 NORTH MISSOURI ST","MACON","63552","29121","MO","39.747832,-92.468823","POINT (-92.468024 39.74803)"
"C050239-A","050239","Adventist Health Glendale (FKA Glendale Adventist Medical Center)","1509 E WILSON TERRACE","GLENDALE","91206","06037","CA","34.14929,-118.23039","POINT (-118.230397 34.14918)"
"C190242-A","190242","OUR LADY OF THE LAKE ASCENSION",,,"70737","22005","LA",,"POINT (-90.919992 30.239824)"
"C154005-A","154005","River Bend Hospital (FKA Wabash Valley Hospital)","2900 N RIVER RD","WEST LAFAYETTE","47906","18157","IN","40.45963,-86.894124","POINT (-86.892602 40.459145)"
"C241346-A","241346","Mayo Clinic Hospital - Cannon Falls","32021 COUNTY 24 BOULEVARD","CANNON FALLS","55009","27049","MN","44.485385,-92.90025","POINT (-92.90325 44.4859)"
"C052049-A","052049","Kindred Hospital Rancho (FKA Rancho Specialty Hospital)","10841 WHITE OAK AVENUE","RANCHO CUCAMONGA","91730","06071","CA","34.103719,-117.566203","POINT (-117.56643 34.104709)"
"C110071-A","110071","Appling HealthCare System (FKA Appling Hospital)","163 E TOLLISON STREET","BAXLEY","31513","13001","GA","31.768142,-82.34891","POINT (-82.349351 31.768768)"
"C390063-A","390063","UPMC Hamot","201 STATE STREET","ERIE","16550","42049","PA","42.13287,-80.08738","POINT (-80.087825 42.133331)"
"H000075",,"INSPIRA MEDICAL CENTER MULLICA HILL","700 MULLICA HILL RD,","MULLICA HILL","08062","34015","NJ","39.75,-75.21","POINT (-75.149563 39.717915)"
"C160047-A","160047","JENNIE EDMUNDSON MEMORIAL HOSPITAL","933 EAST PIERCE STREET","COUNCIL BLUFFS","51503","19155","IA","41.269164,-95.83508","POINT (-95.835709 41.268756)"
"C160001-A","160001","UNITYPOINT HEALTH   MARSHALLTOWN","3 S 4TH AVE","MARSHALLTOWN","50158","19127","IA","42.04873,-92.906831","POINT (-92.905911 42.048737)"
"C070018-A","070018","Greenwich Hospital","5 PERRYRIDGE RD","GREENWICH","06830","09001","CT","41.034316,-73.630198","POINT (-73.629639 41.034414)"
"C161360-A","161360","ORANGE CITY AREA HEALTH SYSTEM","1000 LINCOLN CIRCLE SE","ORANGE CITY","51041","19167","IA","42.994175,-96.04425","POINT (-96.045648 42.994889)"
"C520049-A","520049","Bellin Hospital Green Bay (AKA Bellin Memorial Hospital)","744 S WEBSTER AVE","GREEN BAY","54305","55009","WI","44.535061,-88.09373","POINT (-88.010691 44.502022)"
"C281307-A","281307","SAUNDERS MEDCAL CENTER","1760 COUNTY RD J","WAHOO","68066","31155","NE","41.195179,-96.635535","POINT (-96.634883 41.191535)"
"C673061-D","673061","HOSPITALITY HEALTH ER LONGVIEW","3111 MCCANN RD,","LONGVIEW","75605","48183","TX","32.535822,-94.754518","POINT (-94.754197 32.53645)"
"C050135-C","050135","Southern California Hospital at Culver City (FKA Hollywood Community Hospital at Brotman Medical Center)","3828 DELMAS TER","CULVER CITY","90232","06037","CA","34.023222,-118.396932","POINT (-118.396914 34.022646)"
"C370237-A","370237","Saint Francis Hospital Vinita (FKA Craig General Hospital)","735 NORTH FOREMAN STREET","VINITA","74301","40035","OK","36.653264,-95.155868","POINT (-95.155683 36.653301)"
"C443032-A","443032","Encompass Health Rehabilitation Hospital of Chattanooga (FKA HealthSouth Chattanooga Rehabilitation Hospital)","2412 MCCALLIE AVENUE","CHATTANOOGA","37404","47065","TN","35.032529,-85.266392","POINT (-85.266498 35.032864)"
"C450890-A","450890","BSW MEDICAL CENTER OF PLANO","4700 ALLIANCE BOULEVARD","PLANO","75093","48085","TX","33.013583,-96.788231","POINT (-96.789147 33.014196)"
"C161310-A","161310","ADAIR COUNTY MEMORIAL HOSPITAL","609 SE KENT","GREENFIELD","50849","19001","IA","41.303482,-94.451772","POINT (-94.451749 41.303082)"
"C033041-A","033041","Rehabilitation Hospital of Northern Arizona","1851 NORTH GEMINI DRIVE","FLAGSTAFF","86001","04005","AZ","35.210048,-111.630564","POINT (-111.630549 35.209284)"
"C450395-A","450395","CHI St Lukes Health-Memorial Livingston (FKA Memorial Medical Center Livingston)","1717 HIGHWAY 59 LOOP N","LIVINGSTON","77351","48373","TX","30.731631,-94.939636","POINT (-94.938109 30.730112)"
"H000020",,"Alexandria Emergency Hospital","5900 COLISEUM BLVD","ALEXANDRIA","71303","22079","LA","31.296603,-92.510383",
"C030013-A","030013","Yuma Regional Medical Center","2400 SOUTH AVENUE A","YUMA","85364","04027","AZ","32.68215,-114.635383","POINT (-114.633238 32.683899)"
"C191324-A","191324","Ochsner St Anne Hospital","4608 HIGHWAY 1","RACELAND","70394","22057","LA","29.7015,-90.56133","POINT (-90.564839 29.703883)"
"C061308-A","061308","Conejos County Hospital","19021 US HIGHWAY 285","LA JARA","81140","08021","CO","37.262914,-105.965733","POINT (-105.964351 37.262786)"
"C110042-A","110042","WellStar Paulding Hospital","2518 JIMMY LEE SMITH PARKWAY","HIRAM","30141","13223","GA","33.900812,-84.781608","POINT (-84.781316 33.902423)"
"C330395-A","330395","St Johns Episcopal Hospital at South Shore","327 BEACH 19TH STREET","FAR ROCKAWAY","11691","36081","NY","40.59818,-73.75302","POINT (-73.752688 40.598655)"
"C422006-A","422006","ContinueCARE Hospital at Palmetto Health Baptist (FKA Intermedical Hospital of South Carolina)","1330 TAYLOR AT MARION STREET","COLUMBIA","29201","45079","SC","34.00705,-81.03427","POINT (-81.03426 34.007177)"
"C150177-A","150177","Unity Medical and Surgical Hospital","4455 EDISON LAKES PKWY","MISHAWAKA","46545","18141","IN","41.701245,-86.178051","POINT (-86.177286 41.701543)"
"C231305-A","231305","Ascension Standish Hospital (FKA Ascension St Marys of Michigan Standish Hospital)","805 W CEDAR ST","STANDISH","48658","26011","MI","43.982673,-83.967162","POINT (-83.968909 43.982829)"
"C260062-B","260062","Saint Lukes North Hospital - Barry Road","5830 NW BARRY RD","KANSAS CITY","64154","29165","MO","39.247562,-94.648905","POINT (-94.647816 39.246884)"
"C450040-B","450040","COVENANT HIGH PLAINS SURGERY CENTER",,,"79336","48219","TX",,"POINT (-102.381615 33.587731)"
"C234044-A","234044","Brightwell Behavioral Health","3512 COOLIDGE RD","EAST LANSING","48823","26037","MI","42.76218,-84.49957","POINT (-84.503266 42.771597)"
"C104073-A","104073","Emerald Coast Behavioral Hospital","1940 HARRISON AVE","PANAMA CITY","32405","12005","FL","30.183795,-85.658677","POINT (-85.659569 30.183839)"
"C230047-A","230047","Henry Ford Macomb Hospital - Clinton Township","15855 NINETEEN MILE RD","CLINTON TOWNSHIP","48038","26099","MI","42.61486,-82.960722","POINT (-82.962911 42.612687)"
"C451360-A","451360","CHI St Lukes Health-Memorial San Augustine (FKA Memorial Medical Center - San Augustine)","511 E HOSPITAL ST","SAN AUGUSTINE","75972","48405","TX","31.53154,-94.103344","POINT (-94.103306 31.531418)"
"C100200-A","100200","Broward Health Imperial Point (FKA Imperial Point Medical Center)","6401 N FEDERAL HWY","FORT LAUDERDALE","33308","12011","FL","26.206456,-80.110092","POINT (-80.108043 26.206937)"
"C120026-A","120026","Pali Momi Medical Center","98-1079 MOANALUA ROAD","AIEA","96701","15003","HI","21.383205,-157.938684","POINT (-157.937675 21.383988)"
"C254009-A","254009","North Mississippi State Hospital","1937 BRIAR RIDGE RD","TUPELO","38804","28081","MS","34.23659,-88.67254","POINT (-88.672995 34.236989)"
"C501335-A","501335","St Elizabeth Hospital","1450 BATTERSBY AVENUE","ENUMCLAW","98022","53033","WA","47.208298,-121.988777","POINT (-121.988157 47.208417)"
"C521302-A","521302","Mayo Clinic Hospital - Oakridge","13025 8TH ST","OSSEO","54758","55121","WI","44.578824,-91.213332","POINT (-91.213363 44.57821)"
"C420070-A","420070","Prisma Health Tuomey Hospital (FKA Palmetto Health Tuomey)","129 N WASHINGTON ST","SUMTER","29150","45085","SC","33.923705,-80.343372","POINT (-80.344364 33.923386)"
"C100277-A","100277","Douglas Gardens Hospital (AKA Miami Jewish Health Systems)","5200 NE 2ND AVE","MIAMI","33137","12086","FL","25.822989,-80.192308","POINT (-80.191771 25.823068)"
"C050367-A","050367","NorthBay Medical Center","1200 B GALE WILSON BLVD","FAIRFIELD","94533","06095","CA","38.261745,-122.046633","POINT (-122.0476 38.261104)"
"C362022-A","362022","Select Specialty Hospital - Columbus","1087 DENNISON AVENUE, 2ND FLOOR","COLUMBUS","43201","39049","OH","39.984266,-83.008831","POINT (-83.008429 39.983901)"
"C161365-A","161365","GREATER REGIONAL MEDICAL CENTER","1700 WEST TOWNLINE STREET","CRESTON","50801","19175","IA","41.070098,-94.383803","POINT (-94.383799 41.071215)"
"C120004-A","120004","Wahiawa General Hospital","128 LEHUA STREET","WAHIAWA","96786","15003","HI","21.498793,-158.027175","POINT (-158.027269 21.498447)"
"C131318-A","131318","Valor Health (FKA Walter Knox Memorial Hospital)","1202 EAST LOCUST STREET","EMMETT","83617","16045","ID","43.880044,-116.484374","POINT (-116.485211 43.87911)"
"C350064-A","350064","Standing Rock Service Unit (AKA Fort Yates Hospital)","10 NORTH RIVER ROAD","FORT YATES","58538","38085","ND","46.11,-100.68",
"C144041-A","144041","Silver Oaks Behavioral Hospital","1004 PAWLAK PARKWAY","NEW LENOX","60451","17197","IL","41.55454,-87.96644",
"C454128-A","454128","WellBridge Healthcare Fort Worth (FKA Oceans Behavioral Hospital Fort Worth)","6200 OVERTON RIDGE BLVD","FORT WORTH","76132","48439","TX","32.680172,-97.419124","POINT (-97.419916 32.680019)"
"C53004F-A","53004F","CHEYENNE VA MEDICAL CENTER","2360 E PERSHING BLVD","CHEYENNE","82001","56021","WY","41.148004,-104.786698","POINT (-104.785619 41.1457)"
"C451331-B","451331","COON MEMORIAL HOSPITAL",,,"78756","48453","TX",,"POINT (-97.740236 30.321553)"
"C342020-A","342020","Select Specialty Hospital - Greensboro","1200 NORTH ELM STREET, 5TH FLOOR","GREENSBORO","27401","37081","NC","36.090681,-79.789242","POINT (-79.788771 36.091254)"
"C054155-A","054155","Bakersfield Behavioral Healthcare Hospital","5201 WHITE LANE","BAKERSFIELD","93309","06029","CA","35.316762,-119.060612","POINT (-119.060532 35.318043)"
"C510072-A","510072","Wetzel County Hospital","#3 EAST BENJAMIN DRIVE","NEW MARTINSVILLE","26155","54103","WV","39.681075,-80.849954","POINT (-80.856598 39.6805)"
"C180095-A","180095","CRITTENDEN COMMUNITY HOSPITAL","520 WEST GUM STREET","MARION","42064","21055","KY","37.328791,-88.092938","POINT (-88.092156 37.329639)"
"C301306-A","301306","Franklin Regional Hospital","15 AIKEN AVENUE","FRANKLIN","03235","33013","NH","43.448251,-71.645047","POINT (-71.643684 43.448071)"
"C250136-A","250136","Merit Health Womans Hospital (FKA Womans Hospital at River Oaks)","1026 RIVER OAKS DRIVE","FLOWOOD","39232","28121","MS","32.325487,-90.106911","POINT (-90.106656 32.32583)"
"C100067-A","100067","St Anthonys Hospital","1200 SEVENTH AVE N","SAINT PETERSBURG","33705","12103","FL","27.778513,-82.650842","POINT (-82.651207 27.779343)"
"C034032-A","034032","Copper Springs Hospital","10550 WEST MCDOWELL ROAD","AVONDALE","85392","04013","AZ","33.465399,-112.287717","POINT (-112.287709 33.464493)"
"C151304-A","151304","Rush Memorial Hospital","1300 N MAIN ST","RUSHVILLE","46173","18139","IN","39.621704,-85.443784","POINT (-85.44479 39.621567)"
"C330065-A","330065","Niagara Falls Memorial Medical Center","621 TENTH STREET","NIAGARA FALLS","14302","36063","NY","43.093947,-79.049787","POINT (-79.050481 43.094092)"
"C390137-A","390137","Wilkes-Barre General Hospital","575 NORTH RIVER STREET","WILKES-BARRE","18764","42079","PA","41.258487,-75.867982","POINT (-75.868165 41.258261)"
"C300019-A","300019","Cheshire Medical Center an Affiliate of Dartmouth-Hitchcock Health","580 COURT STREET","KEENE","03431","33005","NH","42.948348,-72.2921","POINT (-72.290725 42.949854)"
"C140113-A","140113","OSF Heart of Mary Medical Center (FKA Presence Covenant Medical Center)","1400 WEST PARK AVENUE","URBANA","61801","17019","IL","40.117676,-88.227508","POINT (-88.226951 40.117394)"
"C161301-A","161301","IOWA SPECIALTY HOSPITAL   BELMOND","403 FIRST STREET SE","BELMOND","50421","19197","IA","42.845093,-93.612562","POINT (-93.612855 42.844988)"
"C064023-A","064023","West Springs Hospital (AKA Colorado West Hospital)","515 28 3/4 RD","GRAND JUNCTION","81501","08077","CO","39.079079,-108.520891","POINT (-108.519807 39.079696)"
"C251329-A","251329","Greene County Hospital","1017 JACKSON STREET","LEAKESVILLE","39451","28041","MS","31.15468,-88.56369","POINT (-88.562769 31.154764)"
"C362024-B","362024","Select Specialty Hospital - Youngstown","1044 BELMONT AVE","YOUNGSTOWN","44501","39099","OH","41.100591,-80.649369","POINT (-80.655641 41.11398)"
"C440012-A","440012","Bristol Regional Medical Center (FKA Wellmont Bristol Regional Medical Center)","ONE MEDICAL PARK BLVD","BRISTOL","37620","47163","TN","36.5856850763558,-82.2529373467544",
"C362024-A","362024","SELECT SPECIALTY HOSPITAL - YOUNGSTOWN INC","8401 MARKET STREET","BOARDMAN","44512","39099","OH","40.99313,-80.66261","POINT (-80.662744 40.994957)"
"C150021-B","150021","Parkview Behavioral Health Hospital","1720 BEACON ST","FORT WAYNE","46805","18003","IN","41.091662,-85.102969","POINT (-85.103095 41.091862)"
"C520045-A","520045","ThedaCare Regional Medical Center - Neenah (FKA Theda Clark Medical Center)","130 2ND ST","NEENAH","54956","55139","WI","44.187825,-88.453253","POINT (-88.453832 44.187957)"
"C150018-A","150018","Elkhart General Hospital","600 E BLVD","ELKHART","46514","18039","IN","41.679763,-85.993953","POINT (-85.991823 41.678732)"
"C450082-A","450082","CHRISTUS Spohn Hospital Beeville","1500 E HOUSTON HWY","BEEVILLE","78102","48025","TX","28.407802,-97.73283","POINT (-97.731937 28.408348)"
"C154011-A","154011","Community Mental Health Center","285 BIELBY RD","LAWRENCEBURG","47025","18029","IN","39.111237,-84.882452","POINT (-84.881957 39.111393)"
"C340158-A","340158","Brunswick Medical Center (FKA Brunswick Community Hospital)","1 MEDICAL CENTER DR  PO BOX 139","SUPPLY","28462","37019","NC","34.00923,-78.291009","POINT (-78.289923 34.009092)"
"C250081-A","250081","Anderson Regional Medical Center - South (FKA Riley Hospital)","1102 CONSTITUTION AVENUE","MERIDIAN","39301","28075","MS","32.367342,-88.698956","POINT (-88.699318 32.368091)"
"C310024-A","310024","RWJ University Hospital Rahway","865 STONE ST","RAHWAY","07065","34039","NJ","40.61298,-74.290948","POINT (-74.291686 40.612237)"
"C670129-A","670129","THE HEIGHTS HOSPITAL","1917 ASHLAND STREET, SUITE 300","HOUSTON","77008","48201","TX","29.803679,-95.404396","POINT (-95.403641 29.803573)"
"C140122-A","140122","AMITA Health Adventist Medical Center Hinsdale","120 NORTH OAK ST","HINSDALE","60521","17043","IL","41.805379,-87.921319","POINT (-87.920076 41.805528)"
"C370212-A","370212","Oklahoma Center for Orthopaedic & Multi-Specialty Surgery","8100 SOUTH WALKER BLDG C","OKLAHOMA CITY","73139","40027","OK","35.385225,-97.519087","POINT (-97.521271 35.385689)"
"C090005-A","090005","Sibley Memorial Hospital","5255 LOUGHBORO RD NW","WASHINGTON","20016","11001","DC","38.936618,-77.109193","POINT (-77.10894 38.935747)"
"C190315-A","190315","AVAIL HEALTH LAKE CHARLES HOSPITAL","3730 NELSON ROAD","LAKE CHARLES","70605","22019","LA","30.190343,-93.251569","POINT (-93.249441 30.190489)"
"C450163-B","450163","CHRISTUS SPOHN KLEBERG",,,"75551","48067","TX",,"POINT (-94.172249 33.10151)"
"C010046-A","010046","Riverview Regional Medical Center","600 SOUTH THIRD STREET","GADSDEN","35901","01055","AL","34.003112,-86.004519","POINT (-86.004091 34.003763)"
"C520095-A","520095","Sauk Prairie Memorial Hospital","260 26TH STREET","PRAIRIE DU SAC","53578","55111","WI","43.287002,-89.753255","POINT (-89.752194 43.285911)"
"C010065-A","010065","RUSSELL MEDICAL CENTER","3316 HIGHWAY 280","ALEXANDER CITY","35010","01123","AL","32.88577,-85.86917","POINT (-85.968394 32.93103)"
"C491305-A","491305","Shenandoah Memorial Hospital","759 SOUTH MAIN STREET","WOODSTOCK","22664","51171","VA","38.870645,-78.512786","POINT (-78.513714 38.871837)"
"C174024-A","174024","St Anthonys Senior Care Hospital - Olathe","14200 WEST 134TH PLACE, SUITE 400","OLATHE","66062","20091","KS","38.885449,-94.750437","POINT (-94.750551 38.884908)"
"C141344-A","141344","Lawrence County Memorial Hospital","2200 STATE ST","LAWRENCEVILLE","62439","17101","IL","38.728489,-87.694098","POINT (-87.69415 38.729518)"
"C121304-A","121304","Kahuku Medical Center","56-117 PUALALEA STREET","KAHUKU","96731","15003","HI","21.677951,-157.954477","POINT (-157.952211 21.67644)"
"C034031-A","034031","Quail Run Behavioral Health","2545 WEST QUAIL AVENUE","PHOENIX","85027","04013","AZ","33.677528,-112.113824","POINT (-112.113815 33.678464)"
"C500027-B","500027","Swedish Medical Center - Ballard Campus","5300 TALLMAN AVE NW","SEATTLE","98107","53033","WA","47.667428,-122.379611","POINT (-122.379975 47.667175)"
"C111327-A","111327","Bacon County Hospital and Health System","302 SOUTH WAYNE STREET","ALMA","31510","13005","GA","31.539451,-82.45912","POINT (-82.459644 31.539334)"
"C291313-A","291313","Banner Churchill Community Hospital","801 EAST WILLIAMS AVENUE","FALLON","89406","32001","NV","39.476192,-118.765792","POINT (-118.76518 39.474876)"
"C231337-A","231337","OSF St Francis Hospital","3401 LUDINGTON ST","ESCANABA","49829","26041","MI","45.745613,-87.10081","POINT (-87.094712 45.74576)"
"C390324-A","390324","Physicians Care Surgical Hospital","454 ENTERPRISE DRIVE","ROYERSFORD","19468","42091","PA","40.21608,-75.553301","POINT (-75.552808 40.21681)"
"C161361-A","161361","VAN DIEST MEDICAL CENTER","2350 HOSPITAL DRIVE","WEBSTER CITY","50595","19079","IA","42.452879,-93.812224","POINT (-93.813484 42.45293)"
"C241315-A","241315","Sanford Jackson Medical Center","1430 NORTH HIGHWAY","JACKSON","56143","27063","MN","43.624489,-95.003956","POINT (-95.004534 43.623723)"
"C231325-A","231325","MidMichigan Medical Center - Gladwin","515 QUARTER STREET","GLADWIN","48624","26051","MI","43.975856,-84.493623","POINT (-84.495353 43.975629)"
"C054089-A","054089","Jewish Home & Rehab Center (AKA San Francisco Campus for Jewish Living)","302  SILVER AVENUE","SAN FRANCISCO","94112","06075","CA","37.727692,-122.430501","POINT (-122.430343 37.728542)"
"C341315-A","341315","CAPE FEAR VALLEY BLADEN HOSPITAL","501 SOUTH POPLAR STREET","ELIZABETHTOWN","28337","37017","NC","34.622627,-78.608026","POINT (-78.608593 34.623228)"
"C161302-A","161302","IOWA SPECIALTY HOSPITAL CLARION","1316 SOUTH MAIN STREET","CLARION","50525","19197","IA","42.72279,-93.733412","POINT (-93.732628 42.721646)"
"C520107-A","520107","Holy Family Memorial Medical Center (AKA HFM Medical Center)","2300 WESTERN AVE","MANITOWOC","54221","55071","WI","44.088611,-87.6575","POINT (-87.67694 44.094432)"
"C450831-A","450831","Surgery Specialty Hospitals of America","4301 B VISTA","PASADENA","77504","48201","TX","29.65871,-95.17738","POINT (-95.177462 29.658678)"
"C461333-A","461333","Garfield Memorial Hospital","200 NORTH 400 EAST","PANGUITCH","84759","49017","UT","37.825847,-112.427786","POINT (-112.427897 37.826012)"
"C350063-B",,"QUENTIN BURDICK MEMORIAL HEALTHCARE  IHS","MOONLIGHT DRIVE HIGHWAY 5","BELCOURT","58316","38079","ND","48.85,-99.74",
"C341318-A","341318","VIDANT CHOWAN HOSPITAL","211 VIRGINIA RD","EDENTON","27932","37041","NC","36.069786,-76.61058","POINT (-76.61017 36.071459)"
"C250084-A","250084","Merit Health Natchez (FKA Natchez Regional Medical Center)","52 SERGEANT PRENTISS DRIVE","NATCHEZ","39120","28001","MS","31.529514,-91.387994",
"C231308-A","231308","Munising Memorial Hospital","1500 SAND POINT RD","MUNISING","49862","26003","MI","46.424681,-86.626011","POINT (-86.62559 46.423856)"
"C330101-G","330101","NewYork-Presbyterian Komansky Childrens Hospital","525 E 68TH ST","NEW YORK","10065","36061","NY","40.764351,-73.954235","POINT (-73.954335 40.76415)"
"C241376-A","241376","Glacial Ridge Hospital","10 4TH AVENUE SOUTHEAST","GLENWOOD","56334","27121","MN","45.646029,-95.389187","POINT (-95.389029 45.646779)"
"C040076-A","040076","Baptist Health - Hot Spring County (FKA Hot Spring County Medical Center)","1001 SCHNEIDER DRIVE","MALVERN","72104","05059","AR","34.358803,-92.78596","POINT (-92.786406 34.358888)"
"C390194-A","390194","St Lukes Lehighton Campus (FKA Gnaden Huetten Memorial Hospital)","211 NORTH 12TH STREET","LEHIGHTON","18235","42025","PA","40.833163,-75.726031","POINT (-75.72679 40.832465)"
"C281334-A","281334","BOONE COUNTY HEALTH CENTER","P O BOX 151, 723 WEST FAIRVIEW ST","ALBION","68620","31011","NE","41.683551,-98.005369",
"C100032-A","100032","Bayfront Health - St Petersburg (FKA Bayfront Medical Center)","701 6TH ST S","SAINT PETERSBURG","33701","12103","FL","27.76352,-82.6418","POINT (-82.641663 27.763222)"
"C490088-A","490088","Centra Bedford Memorial Hospital","1613 OAKWOOD STREET","BEDFORD","24523","51019","VA","37.351416,-79.517353","POINT (-79.516415 37.351563)"
"C140067-A","140067","OSF Saint Francis Medical Center","530 NE GLEN OAK AVE","PEORIA","61637","17143","IL","40.71269,-89.57451","POINT (-89.591283 40.70215)"
"C404004-A","404004","Cidra Pan American Hospital (AKA First Hospital Panamericano)","STATE ROAD 787 KM 1  5","CIDRA","00739","72041","PR","18.18,-66.16",
"C171327-A","171327","Ellsworth County Medical Center","1604 AYLWARD AVENUE","ELLSWORTH","67439","20053","KS","38.742714,-98.219662","POINT (-98.218887 38.742836)"
"C193070-A","193070","ACCORD REHABILITATION HOSPITAL","59213 RIVER WEST DRIVE","PLAQUEMINE","70764","22047","LA","30.26365,-91.24433","POINT (-91.243621 30.264388)"
"C281356-A","281356","PERKINS COUNTY HEALTH SERVICES","900 LINCOLN AVENUE","GRANT","69140","31135","NE","40.84876,-101.726766","POINT (-101.727182 40.848268)"
"C521319-A","521319","Edgerton Hospital and Health Services","11101 N SHERMAN ROAD","EDGERTON","53534","55105","WI","42.834299,-89.045342","POINT (-89.043024 42.834871)"
"C230036-A","230036","MidMichigan Medical Center - Alpena (FKA Alpena Regional Medical Center)","1501 W CHISHOLM ST","ALPENA","49707","26007","MI","45.077729,-83.451425","POINT (-83.450697 45.076879)"
"C450775-C","450775","HCA HOUSTON HEALTHCARE NORTH CYPRESS",,,"77090","48201","TX",,"POINT (-95.441161 30.006938)"
"C440063-C","440063","WOODRIDGE HOSPITAL",,,"37604","47179","TN",,"POINT (-82.383514 36.312876)"
"C030119-A","030119","Mercy Gilbert Medical Center","3555 SOUTH VAL VISTA DRIVE","GILBERT","85297","04013","AZ","33.287856,-111.751389","POINT (-111.75531 33.286696)"
"C114035-A","114035","Riverwoods Behavioral Health System","223 MEDICAL CENTER DRIVE","RIVERDALE","30274","13063","GA","33.581998,-84.390752","POINT (-84.39032 33.581378)"
"C361304-A","361304","Adena Greenfield Medical Center","550 MIRABEAU STREET","GREENFIELD","45123","39071","OH","39.348627,-83.387677","POINT (-83.388054 39.349305)"
"C170199-A","170199","MISH Hospital and Clinics (AKA Institute for Advanced Bariatric Surgery)","10951 LAKEVIEW AVE","LENEXA","66219","20091","KS","38.929428,-94.768362","POINT (-94.769363 38.929331)"
"C450780-B","450780","METHODIST BOERNE EMERGENCY CENTER","134 MENGER SPRINGS RD","BOERNE","78006","48259","TX","29.771985,-98.730559","POINT (-98.729047 29.771001)"
"C271340-A","271340","Marcus Daly Memorial Hospital - CAH","1200 WESTWOOD DR","HAMILTON","59840","30081","MT","46.248152,-114.172035","POINT (-114.171509 46.247149)"
"C280129-A","280129","ORTHONEBRASKA","2808 SOUTH 143RD PLAZA","OMAHA","68144","31055","NE","41.233125,-96.135514","POINT (-96.13546 41.231987)"
"C330394-A","330394","UHS Wilson Medical Center","33-57 HARRISON ST","JOHNSON CITY","13790","36007","NY","42.11507,-75.95907","POINT (-75.95917 42.114777)"
"C393303-A","393303","Childrens Hospital of Philadelphia (AKA CHOP)","34TH ST & CIVIC CENTER BLVD","PHILADELPHIA","19104","42101","PA","39.96,-75.18","POINT (-75.192906 39.948669)"
"C260006-A","260006","Mosaic Life Care at St Joseph - Medical Center","5325 FARAON STREET","SAINT JOSEPH","64506","29021","MO","39.772278,-94.770551","POINT (-94.77025 39.770201)"
"C114008-A","114008","Coastal Behavioral Health","633 STEPHENSON AVE","SAVANNAH","31405","13051","GA","32.009773,-81.10188",
"C45075F-A","45075F","KERRVILLE VA MEDICAL CENTER",,"KERRVILLE","78028","48265","TX",,"POINT (-99.141107 30.034032)"
"C184002-A","184002","Western State Hospital","2400 RUSSELLVILLE ROAD","HOPKINSVILLE","42240","21047","KY","36.865636,-87.449882","POINT (-87.452564 36.86337)"
"C230030-A","230030","MidMichigan Medical Center - Gratiot","300 E WARWICK DR","ALMA","48801","26057","MI","43.390687,-84.662144","POINT (-84.662012 43.391719)"
"C100187-A","100187","Palmetto General Hospital","2001 W 68TH ST","HIALEAH","33016","12086","FL","25.884804,-80.32909","POINT (-80.324674 25.884165)"
"C420087-A","420087","Roper St Francis Healthcare - Roper Hospital","316 CALHOUN ST","CHARLESTON","29401","45019","SC","32.783026,-79.949468","POINT (-79.948734 32.782372)"
"C020024-A","020024","Central Peninsula General Hospital","250 HOSPITAL PLACE","SOLDOTNA","99669","02120","AK","60.493309,-151.07679","POINT (-151.077658 60.493865)"
"C341323-A","341323","CANNON HOSPITAL","434 HOSPITAL DRIVE","LINVILLE","28646","37011","NC","36.09,-81.85","POINT (-81.888254 36.061188)"
"C431334-A","431334","Winner Regional Hospital","745 EAST 8TH STREET","WINNER","57580","46123","SD","43.370287,-99.84748","POINT (-99.84747 43.370946)"
"C390138-A","390138","WellSpan Waynesboro Hospital","501 EAST MAIN ST","WAYNESBORO","17268","42055","PA","39.751738,-77.568493","POINT (-77.57045 39.751804)"
"C391304-A","391304","Bucktail Medical Center","1001 PINE STREET","RENOVO","17764","42035","PA","41.32732,-77.738296","POINT (-77.737395 41.326955)"
"C161325-A","161325","GREENE COUNTY MEDICAL CENTER","1000 WEST LINCOLN WAY","JEFFERSON","50129","19073","IA","42.015677,-94.363186","POINT (-94.388053 42.015241)"
"C450537-A","450537","Methodist Richardson Medical Center","2831 E PRESIDENT GEORGE BUSH HIGHWAY","RICHARDSON","75082","48113","TX","32.99254,-96.65722","POINT (-96.668865 32.995712)"
"C313090-A","313090","SAGE MEMORIAL HOSPITAL",,,,,"AZ",,"POINT (-111.664616 34.293239)"
"C360071-A","360071","Van Wert Health (FKA Van Wert County Hospital)","1250 S WASHINGTON STREET","VAN WERT","45891","39161","OH","40.85027,-84.581183","POINT (-84.581367 40.850774)"
"C230081-A","230081","Munson Healthcare Cadillac Hospital","400 HOBART ST","CADILLAC","49601","26165","MI","44.246033,-85.390458","POINT (-85.390386 44.246177)"
"C030088-A","030088","Banner Baywood Medical Center","6644 EAST BAYWOOD AVENUE","MESA","85206","04013","AZ","33.411543,-111.690966","POINT (-111.687625 33.410468)"
"C450369-B","450369","CHILDRESS REGIONAL MEDICAL CENTER",,,"79201","48075","TX",,"POINT (-100.203991 34.464324)"
"C050353-A","050353","Providence Little Company of Mary Medical Center Torrance","4101 TORRANCE BLVD","TORRANCE","90503","06037","CA","33.83821,-118.356809","POINT (-118.357117 33.837577)"
"C331316-A","331316","Community Memorial Hospital","150 BROAD STREET","HAMILTON","13346","36053","NY","42.812047,-75.544208","POINT (-75.541928 42.813814)"
"C392039-B","392039","Select Specialty Hospital - York","1701 INNOVATION DR","YORK","17408","42133","PA","39.980855,-76.772286","POINT (-76.7693 39.98219)"
"C342017-A","342017","Asheville Specialty Hospital","428 BILTMORE AVENUE 4TH FLOOR","ASHEVILLE","28802","37021","NC","35.594031,-82.55511","POINT (-82.550817 35.580843)"
"C050103-A","050103","Adventist Health White Memorial (FKA White Memorial Medical Center)","1720 E CESAR AVENUE","LOS ANGELES","90033","06037","CA","34.05084,-118.21702",
"C451354-A","451354","Olney Hamilton Hospital","901 WEST HAMILTON","OLNEY","76374","48503","TX","33.369307,-98.764445","POINT (-98.76463 33.369669)"
"C384008-A","384008","Oregon State Hospital - Salem","2600 CENTER STREET NE","SALEM","97301","41047","OR","44.941006,-123.000662","POINT (-123.003653 44.939942)"
"C240214-A","240214","Maple Grove Hospital","9875 HOSPITAL DRIVE","MAPLE GROVE","55369","27053","MN","45.132819,-93.480896","POINT (-93.479488 45.133376)"
"C100204-A","100204","North Florida Regional Medical Center","6500 NEWBERRY RD","GAINESVILLE","32605","12001","FL","29.66087,-82.411963","POINT (-82.411833 29.659701)"
"C360355-A","360355","Ohio Valley Surgical Hospital (Ohio Valley Medical Center)","100 W MAIN ST","SPRINGFIELD","45502","39023","OH","39.924887,-83.812827","POINT (-83.812885 39.92477)"
"C041307-A","041307","CrossRidge Community Hospital","310 SOUTH FALLS BOULEVARD","WYNNE","72396","05037","AR","35.219849,-90.786759","POINT (-90.787421 35.220245)"
"C390012-A","390012","Abington - Lansdale Hospital (FKA Lansdale Hospital)","100 MEDICAL CAMPUS DRIVE","LANSDALE","19446","42091","PA","40.250745,-75.270529","POINT (-75.270823 40.250795)"
"C360360-A","360360","Soin Medical Center","3535 PENTAGON PARK BLVD","BEAVER CREEK","45431","39057","OH","39.7725,-84.06596","POINT (-84.062725 39.77195)"
"C140275-A","140275","Genesis Medical Center - Silvis (FKA Genesis Medical Center -Illini Campus)","801 ILLINI DR","SILVIS","61282","17161","IL","41.495796,-90.418524","POINT (-90.418228 41.493062)"
"C180143-A","180143","SAINT JOSEPH EAST","150 NORTH EAGLE CREEK DRIVE","LEXINGTON","40509","21067","KY","37.99942,-84.439409","POINT (-84.440297 38.000274)"
"C161367-A","161367","PELLA REGIONAL HEALTH CENTER","404 JEFFERSON STREET","PELLA","50219","19125","IA","41.412407,-92.912157","POINT (-92.911575 41.412337)"
"C050517-A","050517","Victor Valley Global Medical Center","15248 11TH ST","VICTORVILLE","92392","06071","CA","34.47,-117.35","POINT (-117.292518 34.52897)"
"C452095-A","452095","Solara Specialty Hospitals McAllen","301 WEST EXPRESSWAY 83-8TH FLOOR","MC ALLEN","78503","48215","TX","26.186526,-98.225805","POINT (-98.225522 26.188113)"
"C360362-A","360362","TriHealth Evendale Hospital (FKA Evendale Medical Center)","3155 GLENDALE MILFORD ROAD","CINCINNATI","45241","39061","OH","39.25161,-84.42049","POINT (-84.420098 39.253934)"
"C521355-A","521355","ThedaCare Medical Center - Berlin (FKA CHN Medical Center - Berlin)","225 MEMORIAL DRIVE","BERLIN","54923","55047","WI","43.977675,-88.94145","POINT (-88.941154 43.977612)"
"C360039-A","360039","Genesis Hospital (AKA Genesis Healthcare System)","2951 MAPLE AVENUE","ZANESVILLE","43701","39119","OH","39.973635,-82.012139","POINT (-82.014245 39.975731)"
"C011300-A","011300","WASHINGTON COUNTY HOSPITAL","14600 ST. STEPHENS AVENUE","CHATOM","36518","01129","AL","31.45998,-88.23473","POINT (-88.234641 31.460072)"
"C100029-B","100029","NORTH SHORE MEDICAL CENTER",,,"33150","12086","FL",,"POINT (-80.206726 25.852189)"
"C501328-A","501328","Mid-Valley Hospital","810 JASMINE STREET","OMAK","98841","53047","WA","48.39649,-119.547795","POINT (-119.545328 48.396527)"
"C050071-A","050071","Kaiser Permanente Santa Clara Medical Center","700 LAWRENCE EXPRESSWAY","SANTA CLARA","95051","06085","CA","37.33572,-121.995842","POINT (-121.995767 37.335456)"
"C241318-A","241318","Ely Bloomenson Community Hospital","328 WEST CONAN STREET","ELY","55731","27137","MN","47.900288,-91.872476","POINT (-91.87197 47.900701)"
"C190256-A","190256","STERLING SURGICAL HOSPITAL","989 ROBERT BLVD","SLIDELL","70458","22103","LA","30.291747,-89.770861","POINT (-89.769406 30.290776)"
"C27003F-A","27003F","VA MONTANA HEALTHCARE SYSTEM",,"FORT HARRISON","59636","30049","MT",,"POINT (-112.101836 46.621532)"
"C400006-A","400006","Doctors Center Hospital San Juan","PDA. 20 C/ SAN RAFAEL # 1395","FERNANDEZ JUNCOS","00909","72127","PR","18.4436,-66.0714",
"C450893-A","450893","BSW THE HEART HOSPITAL   DENTON","2801 SOUTH MAYHILL ROAD","DENTON","76208","48121","TX","33.17522,-97.08826","POINT (-97.088199 33.17697)"
"C241306-A","241306","RC Hospital and Clinics","100 HEALTHY WAY","OLIVIA","56277","27129","MN","44.7744,-94.972561",
"C241378-A","241378","New Ulm Medical Center","1324 FIFTH NORTH STREET","NEW ULM","56073","27015","MN","44.313152,-94.4765","POINT (-94.475513 44.312348)"
"C180050-A","180050","HARLAN ARH HOSPITAL","81 BALL PARK ROAD","HARLAN","40831","21095","KY","36.81017,-83.31436","POINT (-83.312945 36.810262)"
"C050030-A","050030","Oroville Hospital","2767 OLIVE HIGHWAY","OROVILLE","95966","06007","CA","39.506883,-121.541311","POINT (-121.542556 39.504817)"
"C154014-A","154014","Bowen Center - Warsaw Office (FKA the Otis R Bowen Center)","9 PEQUIGNOT DR","PIERCETON","46562","18085","IN","41.206146,-85.700812","POINT (-85.70136 41.20541)"
"C360242-A","360242","The James Cancer Hospital and Solove Research Institute","460 WEST TENTH AVENUE","COLUMBUS","43210","39049","OH","39.994718,-83.019937","POINT (-83.019894 39.994067)"
"C050257-A","050257","Good Samaritan Hospital","901 OLIVE DRIVE","BAKERSFIELD","93308","06029","CA","35.411724,-119.039738","POINT (-119.039498 35.412258)"
"C193074-B","193074","UNITED MEDICAL REHABILITATION HOSPITAL",,,"70403","22105","LA",,"POINT (-90.481582 30.482339)"
"C490114-A","490114","Lonesome Pine Hospital (FKA Wellmont Lonesome Pine Hospital)","1990 HOLTON AVE E","BIG STONE GAP","24219","51195","VA","36.877162,-82.754394","POINT (-82.754433 36.877469)"
"C360123-A","360123","University Hospitals St John Medical Center","29000 CENTER RIDGE ROAD","WESTLAKE","44145","39035","OH","41.436591,-81.944291","POINT (-81.940834 41.43571)"
"C270086-A","270086","Great Falls Clinic Hospital","3010 15TH AVENUE SOUTH","GREAT FALLS","59405","30013","MT","47.487372,-111.254357","POINT (-111.254561 47.487737)"
"C392028-A","392028","CuraHealth Hospital - Pittsburgh (FKA Kindred Hospital Pittsburgh)","7777 STEUBENVILLE PIKE","OAKDALE","15071","42003","PA","40.438625,-80.208692","POINT (-80.209263 40.440482)"
"C040147-A","040147","Arkansas Surgical Hospital","5201 NORTH SHORE DRIVE","NO LITTLE ROCK","72118","05119","AR","34.80144,-92.34803","POINT (-92.347688 34.801458)"
"C301303-A","301303","Weeks Medical Center","173 MIDDLE STREET","LANCASTER","03584","33007","NH","44.486188,-71.554323","POINT (-71.554156 44.48699)"
"C314018-A","314018","Northbrook Behavioral Health Hospital","425  WOODBURY TURNERSVILLE ROAD","BLACKWOOD","08012","34007","NJ","39.78833,-75.07436","POINT (-75.074057 39.788248)"
"C520206-A","520206","Aurora Medical Center In Summit","36500 AURORA DRIVE","SUMMIT","53066","55133","WI","43.066012,-88.467464","POINT (-88.468525 43.063887)"
"C141340-A","141340","Northwestern Medicine Valley West Hospital (FKA Valley West Community Hospital)","1301 NORTH MAIN STREET","SANDWICH","60548","17037","IL","41.656247,-88.621931","POINT (-88.62192 41.657171)"
"C503025-A","503025","St Lukes Rehabilitation Institute","711 SOUTH COWLEY ST","SPOKANE","99202","53063","WA","47.649686,-117.407401","POINT (-117.408154 47.649276)"
"C431332-A","431332","Avera De Smet Memorial Hospital","306 PRAIRIE AVENUE SW  POST OFFICE BOX 160","DE SMET","57231","46077","SD","44.38307,-97.55159",
"C441316-A","441316","CAMDEN GENERAL HOSPITAL","175 HOSPITAL DRIVE","CAMDEN","38320","47005","TN","36.055075,-88.108199","POINT (-88.107517 36.05578)"
"C070034-A","070034","Norwalk Hospital","24 STEVENS STREET","NORWALK","06856","09001","CT","41.11066,-73.42057","POINT (-73.421229 41.110415)"
"C100012-C","100012","Golisano Childrens Hospital of Southwest Florida","9981 S HEALTHPARK DR","FORT MYERS","33908","12071","FL","26.506892,-81.913409","POINT (-81.912364 26.505149)"
"C220036-A","220036","ST  ELIZABETH S MEDICAL CENTER","736 CAMBRIDGE STREET","BRIGHTON","02135","25025","MA","42.348893,-71.148243","POINT (-71.147657 42.349955)"
"C061312-A","061312","Estes Park Health (FKA Estes Park Medical Center)","555 PROSPECT AVE","ESTES PARK","80517","08069","CO","40.371469,-105.515935","POINT (-105.514088 40.372259)"
"C270087-A","270087","The HealthCenter","320 SUNNYVIEW LANE","KALISPELL","59901","30029","MT","48.215499,-114.323442","POINT (-114.324047 48.216208)"
"C364047-A","364047","Ridgeview Behavioral Hospital","17872 LINCOLN HIGHWAY","MIDDLE POINT","45863","39161","OH","40.878424,-84.478309","POINT (-84.478679 40.878547)"
"C191303-A","191303","ASSUMPTION COMMUNITY HOSPITAL","135 HIGHWAY 402","NAPOLEONVILLE","70390","22007","LA","29.956549,-91.033732","POINT (-91.033875 29.957585)"
"C340069-B","340069","WakeMed North Hospital","10000 FALLS OF NEUSE RD","RALEIGH","27614","37183","NC","35.908912,-78.597846","POINT (-78.599003 35.909721)"
"C050468-A","050468","Memorial Hospital of Gardena","1145 W REDONDO BEACH BLVD","GARDENA","90247","06037","CA","33.893071,-118.29506","POINT (-118.295115 33.892375)"
"C282000-A","282000","Madonna Rehabilitation Specialty Hospital Lincoln","5401 SOUTH ST","LINCOLN","68506","31109","NE","40.790398,-96.647292","POINT (-96.647214 40.791637)"
"C251337-A","251337","Tippah County Hospital","1005 CITY AVE NORTH","RIPLEY","38663","28139","MS","34.73882,-88.94952","POINT (-88.949516 34.739345)"
"C034023-A","034023","The Guidance Center Inpatient Office","2187 NORTH VICKEY STREET","FLAGSTAFF","86004","04005","AZ","35.205813,-111.60753","POINT (-111.606008 35.206641)"
"C051307-A","051307","Catalina Island Medical Center","100 FALLS CANYON ROAD","AVALON","90704","06037","CA","33.339241,-118.33078","POINT (-118.330467 33.339108)"
"C243302-A","243302","Childrens Hospital and Clinics of Minnesota - St Paul","345 SMITH AVE N","SAINT PAUL","55102","27123","MN","44.941914,-93.108991","POINT (-93.107874 44.942199)"
"C450194-A","450194","UT Health Jacksonville (FKA East Texas Medical Center - Jacksonville)","501 S RAGSDALE","JACKSONVILLE","75766","48073","TX","31.961123,-95.270675","POINT (-95.270537 31.961399)"
"C100135-A","100135","Tallahassee Memorial HealthCare","1300 MICCOSUKEE RD","TALLAHASSEE","32308","12073","FL","30.456666,-84.261692","POINT (-84.261393 30.455974)"
"C330013-A","330013","Albany Medical Center","43 NEW SCOTLAND AVENUE, MAIL CODE 34","ALBANY","12208","36001","NY","42.653041,-73.77556","POINT (-73.774505 42.652821)"
"C454118-A","454118","LONE STAR BEHAVIORAL HEALTH HOSPITAL","16303 GRANT ROAD","CYPRESS","77429","48201","TX","30.022822,-95.662797","POINT (-95.664015 30.024483)"
"C300017-A","300017","Parkland Medical Center","1 PARKLAND DRIVE","DERRY","03038","33015","NH","42.877207,-71.316469","POINT (-71.317786 42.876371)"
"C520096-B","520096","Ascension All Saints at Wisconsin Avenue (FKA Ascension Wheaton Franciscan Healthcare - All Saints Wisconsin Avenue Campus)","1320 WISCONSIN AVE","RACINE","53404","55101","WI","42.75,-87.81","POINT (-87.783663 42.716319)"
"C050113-A","050113","San Mateo Medical Center (AKA San Mateo County Health System)","222 W 39TH AVE","SAN MATEO","94403","06081","CA","37.530907,-122.300188","POINT (-122.299415 37.530112)"
"C362019-B","362019","SELECT SPECIALTY HOSPITAL - CINCINNATI INC","10500 MONTGOMERY ROAD","CINCINNATI","45242","39061","OH","39.25349,-84.34361","POINT (-84.343886 39.252501)"
"C344007-A","344007","Old Vineyard Behavioral Health Services","3637 OLD VINEYARD ROAD","WINSTON SALEM","27104","37067","NC","36.078874,-80.32024","POINT (-80.318903 36.077679)"
"C281339-A","281339","Memorial Health Care Systems","300 NORTH COLUMBIA AVE","SEWARD","68434","31159","NE","40.909037,-97.091408","POINT (-97.091916 40.909237)"
"C453065-A","453065","CHRISTUS ST  MICHAEL REHAB","2400 ST MICHAEL DRIVE","TEXARKANA","75503","48037","TX","33.465094,-94.071025","POINT (-94.071428 33.463693)"
"C103027-A","103027","St Anthonys Rehabilitation Hospital","3487 NW 30TH ST","LAUDERDALE LAKES","33311","12011","FL","26.16351,-80.19254","POINT (-80.193739 26.163425)"
"C673049-A","673049","New Braunfels Regional Rehabilitation Hospital","2041 SUNDANCE PKWY","NEW BRAUNFELS","78130","48091","TX","29.735125,-98.095299","POINT (-98.094312 29.734788)"
"C040014-C","040014","Unity Health - White County Medical Center","3214 E RACE AVE","SEARCY","72143","05145","AR","35.251295,-91.697911","POINT (-91.696758 35.250446)"
"C440189-A","440189","WEST TENNESSEE HEALTHCARE NORTH HOSPITAL","367 HOSPITAL BLVD","JACKSON","38305","47113","TN","35.684306,-88.854022","POINT (-88.853057 35.683704)"
"C364015-A","364015","Appalachian Behavioral Healthcare Hospital","100 HOSPITAL DRIVE","ATHENS","45701","39009","OH","39.32868,-82.118749","POINT (-82.115731 39.328957)"
"C370099-A","370099","Hillcrest Hospital Cushing","1027 EAST CHERRY STREET","CUSHING","74023","40119","OK","35.97828,-96.757461","POINT (-96.757553 35.978941)"
"C430016-A","430016","Avera McKennan Hospital","1325 S CLIFF AVE  POST OFFICE BOX 5045","SIOUX FALLS","57117","46099","SD","43.532137,-96.754973","POINT (-96.711305 43.534515)"
"C390052-A","390052","Penn Highlands Clearfield","809 TURNPIKE AVE","CLEARFIELD","16830","42033","PA","41.033404,-78.449836","POINT (-78.449999 41.033012)"
"C194078-A","194078","VERMILION SOUTH",,,"70506","22055","LA",,"POINT (-92.067551 30.205421)"
"C453025-A","453025","TIRR Memorial Hermann","1333 MOURSUND AVE","HOUSTON","77030","48201","TX","29.708957,-95.395064","POINT (-95.394384 29.708413)"
"C030024-A","030024","St Josephs Hospital and Medical Center","350 W THOMAS RD","PHOENIX","85013","04013","AZ","33.482124,-112.080558","POINT (-112.079431 33.480298)"
"C110007-B","110007","PHOEBE PUTNEY NORTH",,,"31701","13095","GA",,"POINT (-84.160888 31.574877)"
"C171310-A","171310","Cheyenne County Hospital","210 WEST 1ST STREET","ST FRANCIS","67756","20023","KS","39.771353,-101.803338","POINT (-101.803259 39.771069)"
"C19S177-A","19S177","LAKEVIEW REGIONAL MEDICAL CENTER SENIOR BEHAVIORAL","5025 KEYSTONE BLVD #300,","COVINGTON","70433","22103","LA","30.412293,-90.080901",
"C501327-A","501327","Whitman Hospital & Medical Center","1200 WEST FAIRVIEW","COLFAX","99111","53075","WA","46.869274,-117.375984","POINT (-117.375012 46.868919)"
"C264027-A","264027","Southwest Missouri Psychiatric Rehabilitation Center","1301 INDUSTRIAL PKWY E","EL DORADO SPRINGS","64772","29217","MO","37.83,-94.36",
"C390180-A","390180","Taylor Hospital","175 E CHESTER PIKE","RIDLEY PARK","19078","42045","PA","39.880949,-75.317676","POINT (-75.319477 39.877193)"
"C231331-A","231331","Sparrow Ionia Hospital (AKA Sparrow Ionia County Memorial Hospital)","3565 S STATE ROAD","IONIA","48846","26067","MI","42.935154,-85.068389","POINT (-85.07478 42.935608)"
"C420079-B","420079","Trident Medical Center","9330 MEDICAL PLAZA DR","CHARLESTON","29406","45019","SC","32.976701,-80.072818","POINT (-80.072272 32.975128)"
"C390133-D","390133","Lehigh Valley Hospital - Muhlenberg","2545 SCHOENERSVILLE RD","BETHLEHEM","18017","42095","PA","40.644918,-75.408684","POINT (-75.418561 40.658028)"
"C390164-B","390164","UPMC Western Psychiatric Hospital","3811 OHARA ST","PITTSBURGH","15213","42003","PA","40.443998,-79.960556","POINT (-79.959784 40.443278)"
"C670076-A","670076","BAYLOR SURGICAL HOSPITAL   SHERMAN","3601 CALAIS DRIVE","SHERMAN","75090","48181","TX","33.67277,-96.60315","POINT (-96.602527 33.67686)"
"C230022-A","230022","ProMedica Coldwater Regional Hospital (FKA Community Health Center of Branch County)","274 E CHICAGO ST","COLDWATER","49036","26023","MI","41.937363,-84.988716","POINT (-84.990437 41.938944)"
"C510022-D","510022","CAMC General Hospital","501 MORRIS ST","CHARLESTON","25301","54039","WV","38.34787,-81.627186","POINT (-81.626184 38.34712)"
"C194096-A","194096","Oceans Behavioral Hospital Alexandria","2621 NORTH BOLTON AVENUE","ALEXANDRIA","71303","22079","LA","31.323116,-92.480381","POINT (-92.47926 31.324607)"
"C500051-A","500051","Overlake Hospital Medical Center (AKA Overlake Medical Center)","1035-116TH AVE NE","BELLEVUE","98004","53033","WA","47.621445,-122.18779",
"C171371-A","171371","Clay County Medical Center","617 LIBERTY","CLAY CENTER","67432","20027","KS","39.392112,-97.123555","POINT (-97.123777 39.39168)"
"C150113-A","150113","Community Hospital Anderson (FKA Community Hospital of Anderson and Madison County)","1515 N MADISON AVE","ANDERSON","46011","18095","IN","40.127987,-85.692796","POINT (-85.691569 40.130781)"
"C452044-C","452044","LIFECARE HOSPITALS OF PLANO",,,"75024","48085","TX",,"POINT (-96.80435 33.078218)"
"C440125-B","440125","SELECT SPECIALTY HOSPITAL   KNOXVILLE",,,"37916","47093","TN",,"POINT (-83.933251 35.955483)"
"C240057-A","240057","Abbott Northwestern Hospital","800 EAST 28TH STREET","MINNEAPOLIS","55407","27053","MN","44.954451,-93.261376","POINT (-93.262248 44.951954)"
"C220020-A","220020","Saint Annes Hospital","795 MIDDLE STREET","FALL RIVER","02721","25005","MA","41.692485,-71.1638","POINT (-71.163418 41.69328)"
"C210038-A","210038","UMMC Midtown Campus (FKA Maryland General Hospital)","827 LINDEN AVENUE","BALTIMORE","21201","24510","MD","39.299377,-76.620434",
"C400133-A","400133","HIMA San Pablo Cupey","CARR 844 KM 5 CUPEY BAJO","SAN JUAN","00928","72127","PR","18.3587,-66.0396",
"C370114-A","370114","St John Medical Center","1923 SOUTH UTICA AVENUE","TULSA","74104","40143","OK","36.134227,-95.966156","POINT (-95.967236 36.13362)"
"C530035-A","530035","Aspen Mountain Medical Center","4401 COLLEGE DR","ROCK SPRINGS","82901","56037","WY","41.60265,-109.246465","POINT (-109.247917 41.603187)"
"C361310-A","361310","Mercy Health - Willard Hospital","1100 NEAL ZICK ROAD","WILLARD","44890","39077","OH","41.038349,-82.712784","POINT (-82.724 41.048589)"
"C051315-A","051315","Trinity Hospital","60 EASTER AVENUE","WEAVERVILLE","96093","06105","CA","40.738013,-122.940055","POINT (-122.939444 40.737579)"
"C190019-A","190019","CHRISTUS St Frances Cabrini Hospital","3330 MASONIC DRIVE","ALEXANDRIA","71301","22079","LA","31.28224,-92.46199","POINT (-92.461454 31.281726)"
"C334049-A","334049","Four Winds Saratoga","30 CRESCENT AVE","SARATOGA SPRINGS","12866","36091","NY","43.05825,-73.783415","POINT (-73.783423 43.058364)"
"C420089-A","420089","East Cooper Medical Center","2000 HOSPITAL DR","MOUNT PLEASANT","29464","45019","SC","32.821012,-79.850668","POINT (-79.849614 32.821004)"
"C23011F-A","23011F","VA ANN ARBOR HEALTHCARE SYSTEM","2215 FULLER ROAD","ANN ARBOR","48105","26161","MI","42.287082,-83.718378","POINT (-83.712175 42.287103)"
"C381310-A","381310","Pioneer Memorial Hospital","564 E PIONEER DRIVE","HEPPNER","97836","41049","OR","45.35633,-119.54874","POINT (-119.54763 45.356268)"
"C330231-A","330231","NYC Health and Hospitals - Queens (FKA Queens Hospital Center)","82-68 164TH STREET","JAMAICA","11432","36081","NY","40.71708,-73.80337","POINT (-73.803448 40.717037)"
"C180088-B","180088","Norton Women's & Children's Hospital","4001 DUTCHMANS LANE","LOUISVILLE","40207","21111","KY","38.235446,-85.632881","POINT (-85.631774 38.23452)"
"C052032-A","052032","Kindred Hospital - Los Angeles","5525  W SLAUSON AVENUE","LOS ANGELES","90056","06037","CA","33.989155,-118.378382","POINT (-118.378447 33.988972)"
"C461335-A","461335","Beaver Valley Hospital","1109 NORTH 100 WEST","BEAVER","84713","49001","UT","38.28934,-112.643811","POINT (-112.643204 38.289251)"
"C310051-A","310051","Overlook Medical Center","99 BEAUVOIR AVENUE","SUMMIT","07902","34039","NJ","40.741378,-74.36003","POINT (-74.354543 40.712576)"
"C031309-A","031309","Sage Memorial Hospital","HIGHWAY 264 WEST AND 191 SOUTH","GANADO","86505","04001","AZ","35.75,-109.63",
"C10S150-A","10S150","DePoo Hospital","1200 KENNEDY DRIVE","KEY WEST","33040","12087","FL","24.564296,-81.7675","POINT (-81.766879 24.564256)"
"C340028-A","340028","CAPE FEAR VALLEY MEDICAL CENTER","1638 OWEN DRIVE P O BOX 2000","FAYETTEVILLE","28302","37051","NC","34.967779,-78.73927","POINT (-78.931194 35.032383)"
"C670054-A","670054","Foundation Surgical Hospital of San Antonio","9522 HUEBNER ROAD","SAN ANTONIO","78240","48029","TX","29.530183,-98.589944","POINT (-98.592554 29.531035)"
"C301302-A","301302","Littleton Regional Healthcare","600 ST JOHNSBURY ROAD","LITTLETON","03561","33009","NH","44.317667,-71.826335","POINT (-71.825316 44.316234)"
"C390304-A","390304","Roxborough Memorial Hospital","5800 RIDGE AVE","PHILADELPHIA","19128","42101","PA","40.02898,-75.21069","POINT (-75.210331 40.028606)"
"C150101-A","150101","Parkview Whitley Hospital","1260 E SR 205","COLUMBIA CITY","46725","18183","IN","41.16014,-85.46662","POINT (-85.466858 41.16013)"
"C241329-A","241329","Lakewood Health System","49725 COUNTY ROAD 83","STAPLES","56479","27153","MN","46.351184,-94.751658","POINT (-94.748393 46.351297)"
"C361313-A","361313","Morrow County Hospital","651 WEST MARION ROAD","MOUNT GILEAD","43338","39117","OH","40.549133,-82.849184","POINT (-82.849966 40.549373)"
"C460058-A","460058","Riverton Hospital","3741 WEST 12600 SOUTH","RIVERTON","84065","49035","UT","40.519961,-111.979855","POINT (-111.979715 40.522237)"
"C38004F-A","38004F","VA ROSEBURG HEALTHCARE SYSTEM","1440 W HARVARD BLVD","ROSEBURG","97470","41019","OR","43.21383,-123.365724","POINT (-123.365265 43.213964)"
"C450484-A","450484","WOODLAND HEIGHTS MEDICAL CENTER   LUFKIN","505 SOUTH JOHN REDDITT DRIVE","LUFKIN","75904","48005","TX","31.329219,-94.756536","POINT (-94.756121 31.327666)"
"C454122-A","454122","OCEANS BEHAVIORAL HOSPITAL ABILENE","6401 DIRECTORS PARKWAY","ABILENE","79606","48441","TX","32.371449,-99.744932","POINT (-99.745003 32.371621)"
"C240213-A","240213","M Health Fairview Woodwinds Hospital (FKA HealthEast - Woodwinds Health Campus)","1925 WOODWINDS DRIVE","WOODBURY","55125","27163","MN","44.921355,-92.976628","POINT (-92.977973 44.922868)"
"C454026-A","454026","West Oaks Hospital","6500 HORNWOOD","HOUSTON","77074","48201","TX","29.709538,-95.497935","POINT (-95.497586 29.708867)"
"C010061-A","010061","Highlands Medical Center","380 WOODS COVE ROAD","SCOTTSBORO","35768","01071","AL","34.662195,-86.047411","POINT (-86.046982 34.661401)"
"C451349-A","451349","SWISHER MEMORIAL HEALTHCARE SYSTEM","539 SOUTHEAST 2ND","TULIA","79088","48437","TX","34.536078,-101.755846","POINT (-101.755862 34.535564)"
"C450068-C","450068","Memorial Hermann Cypress Hospital","27800 HIGHWAY 290","CYPRESS","77433","48201","TX","29.986705,-95.732095","POINT (-95.732674 29.985654)"
"C044022-A","044022","Conway Behavioral Health Hospital","2255 STURGIS ROAD","CONWAY","72034","05045","AR","35.0385,-92.423895","POINT (-92.423111 35.038674)"
"C450064-A","450064","THR   ARLINGTON MEMORIAL","800 W RANDOL MILL RD","ARLINGTON","76012","48439","TX","32.748608,-97.116029","POINT (-97.115294 32.750117)"
"C250036-A","250036","George Regional Hospital","859 WINTER STREET","LUCEDALE","39452","28039","MS","30.923735,-88.594238","POINT (-88.592853 30.922235)"
"C491307-A","491307","Page Memorial Hospital","200 MEMORIAL DRIVE","LURAY","22835","51139","VA","38.663296,-78.468243","POINT (-78.469391 38.662447)"
"C500077-A","500077","Providence Holy Family Hospital","5633 NORTH LIDGERWOOD","SPOKANE","99208","53063","WA","47.7099,-117.40601","POINT (-117.405904 47.709751)"
"C190015-A","190015","NORTH OAKS MEDICAL CENTER","15790 PAUL VEGA MD DRIVE","HAMMOND","70403","22105","LA","30.46643,-90.45941","POINT (-90.45758 30.466698)"
"C281302-A","281302","Pawnee County Memorial Hospital","P O BOX 433, 600 I ST","PAWNEE CITY","68420","31133","NE","40.108473,-96.150828",
"C102010-B","102010","Kindred Hospital - South Florida Coral Gables","5190 SW 8TH ST","CORAL GABLES","33134","12086","FL","25.763646,-80.278796","POINT (-80.278612 25.763908)"
"C110111-A","110111","University Hospital McDuffie (FKA McDuffie Regional Medical Center)","2460 WASHINGTON ROAD","THOMSON","30824","13189","GA","33.523961,-82.500156","POINT (-82.504478 33.523237)"
"C110109-A","110109","Emanuel Medical Center","117 KITE ROAD","SWAINSBORO","30401","13107","GA","32.592585,-82.34746","POINT (-82.346477 32.59314)"
"C140127-A","140127","Carle BroMenn Medical Center","1304 FRANKLIN AVENUE","NORMAL","61761","17113","IL","40.497415,-88.989827","POINT (-88.990985 40.496392)"
"C371304-A","371304","Mercy Hospital Tishomingo (FKA Johnston Memorial Hospital)","1000 SOUTH BYRD ST","TISHOMINGO","73460","40069","OK","34.22431,-96.675104","POINT (-96.675294 34.222421)"
"C050641-A","050641","East Los Angeles Doctors Hospital","4060 WHITTIER BLVD","LOS ANGELES","90023","06037","CA","34.023713,-118.184037","POINT (-118.184093 34.023931)"
"C064029-A","064029","JOHNSTOWN HEIGHTS BEHAVIORAL HEALTH LLC","4770 LARIMER PKWY","JOHNSTOWN","80534","08069","CO","40.404535,-104.97532","POINT (-104.973885 40.404493)"
"C344027-A","344027","RJ Blackley Alcohol and Drug Abuse Treatment Center","BLDG 29, 30 BARRETT BLDG, 100 H STREET","BUTNER","27509","37077","NC","36.137296,-78.775962",
"C511322-A","511322","Summersville Regional Medical Center","400 FAIRVIEW HEIGHTS ROAD","SUMMERSVILLE","26651","54067","WV","38.29213,-80.83208","POINT (-80.830737 38.29185)"
"C190201-A","190201","CHRISTUS Ochsner Lake Area Hospital","4200 NELSON ROAD","LAKE CHARLES","70605","22019","LA","30.181929,-93.251095","POINT (-93.249344 30.181572)"
"C060004-A","060004","Platte Valley Medical Center","1600 PRAIRIE CENTER PKWY","BRIGHTON","80601","08001","CO","39.96305,-104.771404","POINT (-104.770924 39.965441)"
"C511319-A","511319","Jefferson Medical Center (FKA Jefferson Memorial Hospital)","300 SOUTH PRESTON STREET","RANSON","25438","54037","WV","39.296004,-77.858767","POINT (-77.858253 39.29595)"
"C320021-B","320021","Presbyterian Kaseman Hospital","8300 CONSTITUTION AVE NE","ALBUQUERQUE","87110","35001","NM","35.093512,-106.553529","POINT (-106.553116 35.094588)"
"C062014-A","062014","Vibra Hospital of Denver LT","8451 PEARL ST","THORNTON","80229","08001","CO","39.850155,-104.980373","POINT (-104.979306 39.8503)"
"C452096-A","452096","Laredo Specialty Hospital","2005 BUSTAMANTE STREET","LAREDO","78041","48479","TX","27.53304,-99.473991","POINT (-99.473035 27.534169)"
"C291309-A","291309","BOULDER CITY HOSPITAL","901 ADAMS BLVD","BOULDER CITY","89005","32003","NV","35.967346,-114.84282","POINT (-114.843486 35.968359)"
"C110079_C","110079","Grady Women's Center","285 ANDREW YOUNG INTERNATIONAL BLVD NW","ATLANTA","30313","13121","GA","33.759743,-84.396859","POINT (-84.396914 33.758164)"
"C454076-A","454076","HARRIS COUNTY PSYCHIATRIC CENTER","2800 MACGREGOR WAY","HOUSTON","77021","48201","TX","29.712239,-95.374356","POINT (-95.375284 29.712771)"
"C281363-A","281363","Community Hospital","P O BOX 1328, 1301 EAST H ST","MCCOOK","69001","31145","NE","40.204325,-100.607621",
"C440048-D","440048","Spence and Becky Wilson Baptist Children's Hospital","6225 HUMPHREYS BLVD","MEMPHIS","38120","47157","TN","35.127821,-89.855013","POINT (-89.854378 35.128419)"
"C281355-A","281355","Ogallala Community Hospital","2601 NORTH SPRUCE ST","OGALLALA","69153","31101","NE","41.150843,-101.718668","POINT (-101.720447 41.150177)"
"C400112-A","400112","University of Puerto Rico Hospital","CARR 3 KM 8 3 AVE 65TH INFANTERIA","CAROLINA","00984","72031","PR","18.3758,-65.9579",
"C100007-A","100007","AdventHealth Celebration (FKA Florida Hospital Celebration Health)","400 CELEBRATION PL","CELEBRATION","34747","12097","FL","28.328578,-81.543117","POINT (-81.539937 28.33009)"
"C380051-A","380051","Salem Hospital","890 OAK STREET, SE","SALEM","97301","41047","OR","44.932525,-123.034184","POINT (-123.033167 44.932885)"
"C052046-A","052046","Kindred Hospital - Paramount (FKA Promise Hospital of East Los Angeles)","16453  COLORADO AVENUE","PARAMOUNT","90723","06037","CA","33.884331,-118.162148","POINT (-118.161429 33.884768)"
"C370173-A","370173","Claremore Indian Hospital","101 SOUTH MOORE AVE","CLAREMORE","74017","40131","OK","36.31619,-95.62833","POINT (-95.628262 36.31564)"
"C171331-A","171331","Kiowa District Hospital","1002 SOUTH 4TH STREET","KIOWA","67070","20007","KS","37.005988,-98.489379","POINT (-98.489795 37.008544)"
"C110064-A","110064","The Childrens Hospital at Piedmont Columbus Regional Midtown Campus","710 CENTER ST","COLUMBUS","31901","13215","GA","32.480507,-84.98169","POINT (-84.981978 32.481714)"
"C450651-A","450651","Medical City Frisco (FKA Forest Park Medical Center - Frisco)","5500 FRISCO SQUARE BLVD","FRISCO","75034","48121","TX","33.150893,-96.83886","POINT (-96.838847 33.150284)"
"C154051-A","154051","Wellstone Regional Hospital","2700 VISSING PARK RD","JEFFERSONVILLE","47130","18019","IN","38.328294,-85.711031","POINT (-85.710703 38.328479)"
"C144038-A","144038","Choate Mental Health Center","1000 N MAIN ST","ANNA","62906","17181","IL","37.47836,-89.241282","POINT (-89.244157 37.477418)"
"C381315-A","381315","Saint Alphonsus Medical Center - Baker City","3325 POCAHONTAS ROAD","BAKER CITY","97814","41001","OR","44.794516,-117.847356","POINT (-117.847454 44.796119)"
"C310050-B","310050","Saint Clare's Behavioral Health - Boonton","130 POWERVILLE RD","BOONTON TOWNSHIP","07005","34027","NJ","40.90932,-74.42544","POINT (-74.427005 40.91018)"
"C494023-A","494023","Dominion Hospital","2960 SLEEPY HOLLOW ROAD","FALLS CHURCH","22044","51059","VA","38.870178,-77.158591","POINT (-77.157485 38.870077)"
"C364041-A","364041","Ohio Hospital for Psychiatry","880 GREENLAWN AVENUE","COLUMBUS","43223","39049","OH","39.940283,-83.019973","POINT (-83.017782 39.93977)"
"C160033-A","160033","GENESIS MEDICAL CENTER  DAVENPORT","1227 EAST RUSHOLME STREET","DAVENPORT","52803","19163","IA","41.542086,-90.556766","POINT (-90.557014 41.542838)"
"C100017-A","100017","Halifax Health Medical Center of Port Orange","1041 DUNLAWTON AVE","PORT ORANGE","32127","12127","FL","29.126239,-81.008596","POINT (-81.008117 29.125958)"
"C140001-A","140001","Graham Hospital Association","210 WEST WALNUT STREET","CANTON","61520","17057","IL","40.55323,-90.04067","POINT (-90.039217 40.553289)"
"C140158-A","140158","Mercy Hospital & Medical Center","2525 S MICHIGAN AVE","CHICAGO","60616","17031","IL","41.846666,-87.621328","POINT (-87.623561 41.846875)"
"C214012-A","214012","Thomas B Finan Center","10102 COUNTRY CLUB ROAD,  POST OFFICE BOX 1722","CUMBERLAND","21502","24001","MD","39.65857,-78.73888",
"C281306-A","281306","Kearney County Health Services Hospital","727 EAST 1ST ST","MINDEN","68959","31099","NE","40.49585,-98.94266",
"C454153-A","454153","CARRUS BEHAVIORAL HOSPITAL","1724 W US HIGHWAY 82 SUITE 200","SHERMAN","75092","48181","TX","33.670051,-96.633057","POINT (-96.632022 33.670555)"
"C244002-A","244002","Anoka-Metro Regional Treatment Center","3301 SEVENTH AVE NORTH","ANOKA","55303","27003","MN","45.216599,-93.381143","POINT (-93.378 45.2103)"
"C450865-A","450865","SETON SOUTHWEST HOSPITAL","7900 FM 1826","AUSTIN","78737","48453","TX","30.226519,-97.892373","POINT (-97.88951 30.22696)"
"C221303-A","221303","ATHOL MEMORIAL HOSPITAL","2033 MAIN STREET","ATHOL","01331","25027","MA","42.585424,-72.208873","POINT (-72.208674 42.586246)"
"C524002-A","524002","Winnebago Mental Health Institute","4100 TREFFERT DR","WINNEBAGO","54985","55139","WI","44.074935,-88.519937","POINT (-88.520911 44.073442)"
"C144035-A","144035","Linden Oaks Behavioral Health","852 S WEST STREET","NAPERVILLE","60540","17043","IL","41.759015,-88.156339","POINT (-88.157994 41.758582)"
"C370030-A","370030","Stillwater Medical - Blackwell (FKA Blackwell Regional Hospital)","710 S 13TH STREET","BLACKWELL","74631","40071","OK","36.798281,-97.299988","POINT (-97.300884 36.79826)"
"C100177-A","100177","Cape Canaveral Hospital","701 W COCOA BEACH CAUSEWAY","COCOA BEACH","32932","12009","FL","28.319889,-80.61081","POINT (-80.622702 28.357881)"
"C050697-A","050697","Patients Hospital of Redding","2900 EUREKA WAY","REDDING","96001","06089","CA","40.585935,-122.416796","POINT (-122.416264 40.58549)"
"C140150-A","140150","University of Illinois Hospital","1740 WEST TAYLOR ST SUITE 1400","CHICAGO","60612","17031","IL","41.86929,-87.6707","POINT (-87.670529 41.869224)"
"C143025-A","143025","Schwab Rehabilitation Hospital (FKA Schwab Rehab Hospital & Care Network)","1401 S CALIFORNIA BLVD","CHICAGO","60608","17031","IL","41.862429,-87.694967",
"C241332-A","241332","Windom Area Health (AKA Windom Area Hospital)","2150 HOSPITAL DRIVE, PO BOX 339","WINDOM","56101","27033","MN","43.879222,-95.113308","POINT (-95.113658 43.878587)"
"C33016F-A","33016F","BRONX VA MEDICAL CENTER","130 W KINGSBRIDGE RD","BRONX","10468","36005","NY","40.868671,-73.904997","POINT (-73.903294 40.86922)"
"C060032-A","060032","Rose Medical Center","4567 E 9TH AVE","DENVER","80220","08031","CO","39.731621,-104.934533","POINT (-104.933989 39.731084)"
"C060107-A","060107","National Jewish Health","1400 JACKSON ST","DENVER","80206","08031","CO","39.738932,-104.942363","POINT (-104.942461 39.7392)"
"C260110-A","260110","Southeast Hospital","1701 LACEY ST","CAPE GIRARDEAU","63701","29031","MO","37.310969,-89.540645","POINT (-89.540936 37.311273)"
"C121300-A","121300","Kauai Veterans Memorial Hospital","4643 WAIMEA CANYON DRIVE","WAIMEA","96796","15007","HI","21.960468,-159.670553","POINT (-159.670161 21.959978)"
"C050158-A","050158","Encino Hospital Medical Center","16237 VENTURA BLVD","ENCINO","91436","06037","CA","34.158036,-118.487551","POINT (-118.486948 34.156826)"
"C140082-A","140082","Weiss Memorial Hospital","4646 N MARINE DRIVE","CHICAGO","60640","17031","IL","41.967139,-87.649605","POINT (-87.648804 41.966241)"
"C050580-A","050580","La Palma Intercommunity Hospital","7901 WALKER STREET","LA PALMA","90623","06059","CA","33.847535,-118.038415","POINT (-118.03725 33.847585)"
"C200020-A","200020","York Hospital","15 HOSPITAL DRIVE","YORK","03909","23031","ME","43.142432,-70.651793","POINT (-70.651174 43.142844)"
"C261324-A","261324","Cass Regional Medical Center","2800 E ROCK HAVEN ROAD","HARRISONVILLE","64701","29037","MO","38.665025,-94.376776","POINT (-94.376095 38.663367)"
"C420106-A","420106","Prisma Health Baptist Parkridge Hospital (FKA Palmetto Health Baptist Parkridge)","400 PALMETTO HEALTH PARKWAY","COLUMBIA","29212","45063","SC","34.088587,-81.161374",
"C021308-A","021308","Norton Sound Regional Hospital","1000 GREG KRUSCHEK AVENUE (P O BOX 966)","NOME","99762","02180","AK","64.50094,-165.40597",
"C102009-A","102009","Kindred Hospital - Bay Area St Petersburg","3030 6TH ST S","ST PETERSBURG","33705","12103","FL","27.740387,-82.639733","POINT (-82.640777 27.740476)"
"C441304-A","441304","Johnson County Community Hospital","1901 S SHADY ST","MOUNTAIN CITY","37683","47091","TN","36.453075,-81.797065","POINT (-81.798671 36.453497)"
"C322002-A","322002","Kindred Hospital - Albuquerque","700 HIGH STREET NE","ALBUQUERQUE","87102","35001","NM","35.08886,-106.637379","POINT (-106.63855 35.088581)"
"C161313-A","161313","GENESIS MEDICAL CENTER  DEWITT","1118 11TH STREET","DEWITT","52742","19045","IA","41.826414,-90.544971","POINT (-90.546396 41.825921)"
"C490111-A","490111","Wythe County Community Hospital","600 WEST RIDGE ROAD","WYTHEVILLE","24382","51197","VA","36.954815,-81.096982","POINT (-81.095858 36.953118)"
"C670008-A","670008","HOUSTON PHYSICIANS HOSPITAL","333 N TEXAS AVENUE","WEBSTER","77598","48201","TX","29.533391,-95.126126","POINT (-95.125458 29.534547)"
"C170175-A","170175","Dodge City Healthcare LLC (DBA WESTERN PLAINS MEDICAL COMPLEX)","3001 AVENUE A","DODGE CITY","67801","20057","KS","37.786279,-100.017215","POINT (-100.014973 37.785944)"
"C100124-A","100124","Santa Rosa Medical Center","6002 BERRYHILL RD","MILTON","32570","12113","FL","30.634174,-87.067132","POINT (-87.068059 30.632521)"
"C190176-A","190176","Tulane Medical Center","1415 TULANE AVE","NEW ORLEANS","70112","22071","LA","29.955455,-90.075936","POINT (-90.076121 29.955263)"
"C390330-A","390330","St Lukes Monroe Campus","100 ST LUKE'S LANE","STROUDSBURG","18360","42089","PA","40.997492,-75.25983","POINT (-75.261745 40.9979)"
"C271328-A","271328","Marias Medical Center","640 PARK AVE","SHELBY","59474","30101","MT","48.509704,-111.849597","POINT (-111.850493 48.509651)"
"C360109-A","360109","Coshocton Regional Medical Center (FKA Coshocton County Memorial Hospital)","1460 ORANGE STREET","COSHOCTON","43812","39031","OH","40.270673,-81.847814","POINT (-81.847606 40.270443)"
"C431322-A","431322","Fall River Hospital","1201 HIGHWAY 71 SOUTH","HOT SPRINGS","57747","46047","SD","43.417467,-103.47967","POINT (-103.480143 43.418511)"
"H000022",,"The Queen's Medical Center - West Oahu","91-2141 FORT WEAVER ROAD","EWA BEACH","96706","15003","HI","21.359453,-158.030437","POINT (-158.026145 21.369835)"
"C260078-A","260078","Ozarks Medical Center","1100 KENTUCKY AVE","WEST PLAINS","65775","29091","MO","36.738046,-91.874703","POINT (-91.875554 36.737909)"
"C151328-A","151328","IU Health Bedford Hospital","2900 W 16TH ST","BEDFORD","47421","18093","IN","38.86087,-86.51233","POINT (-86.512167 38.860988)"
"C050261-A","050261","Sierra View Medical Center (FKA Sierra View District Hospital)","465 W PUTNAM AVE","PORTERVILLE","93257","06107","CA","36.06938,-119.027815","POINT (-119.027254 36.069573)"
"C110032-A","110032","Stephens County Hospital","163 HOSPITAL DRIVE","TOCCOA","30577","13257","GA","34.593726,-83.348944","POINT (-83.347439 34.593187)"
"C190183-A","190183","Leonard J Chabert Medical Center","1978 INDUSTRIAL BLVD","HOUMA","70363","22109","LA","29.568383,-90.688831","POINT (-90.687966 29.571363)"
"C471300-A","471300","GRACE COTTAGE HOSPITAL","PO BOX 216","TOWNSHEND","05353","50025","VT","43.099421,-72.648405",
"C444019-A","444019","Unity Psychiatric Care - Clarksville (FKA Behavioral Healthcare Center at Clarksville)","930 PROFESSIONAL PARK DRIVE","CLARKSVILLE","37040","47125","TN","36.576253,-87.273135","POINT (-87.272442 36.576173)"
"C194073-A","194073","Oceans Behavioral Hospital Broussard","420 ALBERTSONS PARKWAY","BROUSSARD","70518","22055","LA","30.13837,-91.98117","POINT (-91.979912 30.13822)"
"C273025-A","273025","The Rehabilitation Hospital of Montana","3572 HESPER ROAD","BILLINGS","59102","30111","MT","45.739965,-108.605992","POINT (-108.60476 45.740599)"
"C314020-A","314020","Essex County Hospital Center","204 GROVE AVENUE","CEDAR GROVE","07009","34013","NJ","40.851746,-74.234393","POINT (-74.233605 40.851198)"
"C050709-A","050709","Desert Valley Hospital","16850 BEAR VALLEY RD","VICTORVILLE","92395","06071","CA","34.472514,-117.298057","POINT (-117.297324 34.470905)"
"C110040-A","110040","Northridge Medical Center","70 MEDICAL CENTER DRIVE","COMMERCE","30529","13157","GA","34.220348,-83.470899","POINT (-83.469146 34.218752)"
"C260191-A","260191","Barnes-Jewish St Peters Hospital","10 HOSPITAL DR","SAINT PETERS","63376","29183","MO","38.794224,-90.580361","POINT (-90.579049 38.792905)"
"C334001-A","334001","Hutchings Psychiatric Center","620 MADISON STREET","SYRACUSE","13210","36067","NY","43.044896,-76.14111","POINT (-76.141239 43.045393)"
"C170185-A","170185","Saint Lukes South Hospital","12300 METCALF AVENUE","OVERLAND PARK","66213","20091","KS","38.900155,-94.669309","POINT (-94.667848 38.905261)"
"C050668-A","050668","Laguna Honda Hospital and Rehabilitation Center","375 LAGUNA HONDA BLVD","SAN FRANCISCO","94116","06075","CA","37.74,-122.48","POINT (-122.458666 37.748023)"
"C050597-A","050597","Emanate Health Foothill Presbyterian Hospital (FKA Foothill Presbyterian Hospital)","250 S GRAND AVE","GLENDORA","91740","06037","CA","34.12,-117.83","POINT (-117.872534 34.133196)"
"C670301-A","670301","TEXARKANA EMERGENCY CENTER AND HOSPITAL","4646 COWHORN CREEK RD","TEXARKANA","75503","48037","TX","33.458144,-94.075709","POINT (-94.076327 33.458348)"
"C450018-E","450018","UTMB John Sealy Hospital","301 8TH ST","GALVESTON","77550","48167","TX","29.309762,-94.776618","POINT (-94.776794 29.310302)"
"C394012-A","394012","Clarks Summit State Hospital","1451 HILLSIDE DRIVE","CLARKS SUMMIT","18411","42069","PA","41.48115,-75.73961","POINT (-75.739461 41.481137)"
"C191311-A","191311","Bunkie General Hospital (FKA Paces/Bunkie General Hospital)","427 EVERGREEN STREET","BUNKIE","71322","22009","LA","30.952696,-92.175852","POINT (-92.177046 30.952779)"
"C371330-A","371330","Mangum Regional Medical Center (FKA Quartz Mountain Medical Center)","1 WICKERSHAM DRIVE","MANGUM","73554","40055","OK","34.892299,-99.500542","POINT (-99.501011 34.89185)"
"C440007-A","440007","UNITY MEDICAL CENTER","481 INTERSTATE DRIVE","MANCHESTER","37355","47031","TN","35.496963,-86.078515","POINT (-86.077889 35.497842)"
"C434003-A","434003","South Dakota Human Services Center","3515 BROADWAY AVE   POST OFFICE BOX 7600","YANKTON","57078","46135","SD","42.916649,-97.399052","POINT (-97.39766 42.915206)"
"C340159-A","340159","Person Memorial Hospital","615 RIDGE RD","ROXBORO","27573","37145","NC","36.408677,-78.985323","POINT (-78.984445 36.407959)"
"C100075-A","100075","St Josephs Womens Hospital","3030 W DR MARTIN LUTHER KING JR BLVD","TAMPA","33607","12057","FL","27.980106,-82.492346","POINT (-82.492263 27.981293)"
"C053308-A","053308","Nexus Childrens Hospital - Orange Campus (AKA Healthbridge Childrens Hospital - Orange)","393 S TUSTIN STREET","ORANGE","92866","06059","CA","33.782732,-117.833958","POINT (-117.835745 33.782941)"
"C240059-A","240059","Regina Hospital","1175 NININGER ROAD","HASTINGS","55033","27037","MN","44.74627,-92.87159","POINT (-92.871399 44.747131)"
"C252008-A","252008","KPC Promise Hospital of Vicksburg","2100 HIGHWAY 61 NORTH 6TH FLOOR","VICKSBURG","39183","28149","MS","32.374397,-90.824725","POINT (-90.82752 32.374286)"
"C104049-A","104049","Southern Winds Hospital","4225 W 20TH AVE","HIALEAH","33012","12086","FL","25.86034,-80.32224","POINT (-80.322339 25.860337)"
"C013028-A","013028","Encompass Health Rehabilitation Hospital of Montgomery (FKA Healthsouth Rehab Hospital of Montgomery)","4465 NARROW LANE RD","MONTGOMERY","36116","01101","AL","32.319121,-86.28071","POINT (-86.282033 32.319284)"
"C152013-A","152013","Kindred Hospital Indianapolis North","8060 KNUE ROAD","INDIANAPOLIS","46250","18097","IN","39.902042,-86.060511","POINT (-86.060174 39.90199)"
"C161346-A","161346","SIOUX CENTER HEALTH","1101 9TH STREET SE","SIOUX CENTER","51250","19167","IA","43.068025,-96.157877","POINT (-96.158219 43.069685)"
"C673067-A","673067","POST ACUTE REHABILITATION HOSPITAL","345 S WATER ST","CORPUS CHRISTI","78401","48355","TX","27.789294,-97.395621","POINT (-97.394883 27.789843)"
"C271302-A","271302","Dahl Memorial Healthcare","215 SANDY ST","EKALAKA","59324","30011","MT","45.888051,-104.548491","POINT (-104.548505 45.887725)"
"C490043-A","490043","Inova Loudoun Hospital","44045 RIVERSIDE PARKWAY","LEESBURG","20176","51107","VA","39.073922,-77.478045","POINT (-77.475118 39.074364)"
"C220105-A","220105","WINCHESTER HOSPITAL","41 HIGHLAND AVENUE","WINCHESTER","01890","25017","MA","42.465951,-71.122658","POINT (-71.121408 42.465496)"
"C102029-A","102029","Select Specialty Hospital - Fort Myers (FKA Promise Hospital of Fort Myers)","3050 CHAMPION RING ROAD","FORT MYERS","33905","12071","FL","26.631656,-81.802256","POINT (-81.802028 26.630887)"
"C450002-A","450002","The Hospitals of Providence Memorial Campus","2001 N OREGON ST","EL PASO","79902","48141","TX","31.770319,-106.500861","POINT (-106.499431 31.77126)"
"C120001-C","120001","The Queen's Medical Center at Hale Pulama Mau","347 N. KUAKINI STREET, SUITE 501","HONOLULU","96817","15003","HI","21.32167,-157.857188","POINT (-157.856304 21.32231)"
"C140289-A","140289","Anderson Hospital","6800 STATE ROUTE 162","MARYVILLE","62062","17119","IL","38.734074,-89.952098","POINT (-89.946422 38.738127)"
"C100142-A","100142","Jackson Hospital","4250 HOSPITAL DR","MARIANNA","32446","12063","FL","30.786697,-85.242687","POINT (-85.240932 30.78748)"
"C33020F-A","33020F","VA NEW YORK HARBOR HEALTHCARE SYSTEM - BROOKLYN","800 POLY PL","BROOKLYN","11209","36047","NY","40.609789,-74.027593","POINT (-74.023717 40.609071)"
"C100007-C","100007","AdventHealth Orlando (FKA Florida Hospital Orlando)","601 E ROLLINS ST","ORLANDO","32803","12095","FL","28.575522,-81.370926","POINT (-81.370328 28.573457)"
"C010101-A","010101","Citizens Baptist Medical Center","604 STONE AVENUE","TALLADEGA","35161","01121","AL","33.435829,-86.10583","POINT (-86.090308 33.439794)"
"C360218-A","360218","Licking Memorial Hospital","1320 WEST MAIN STREET","NEWARK","43055","39089","OH","40.062963,-82.353202","POINT (-82.450306 40.046926)"
"C203025-A","203025","New England Rehabilitation Hospital of Portland","335 BRIGHTON AVENUE, UNIT 201","PORTLAND","04102","23005","ME","43.666258,-70.291772","POINT (-70.292186 43.665595)"
"C030108-A","030108","CORE Institute Specialty Hospital (FKA the Surgical Hospital of Phoenix)","6501 NORTH 19TH AVENUE","PHOENIX","85015","04013","AZ","33.532201,-112.098978","POINT (-112.099612 33.531909)"
"C054087-A","054087","Sierra Vista Hospital","8001 BRUCEVILLE ROAD","SACRAMENTO","95823","06067","CA","38.466878,-121.417118","POINT (-121.417814 38.465982)"
"C111312-A","111312","Optim Medical Center - Screven (FKA Screven County Hospital)","215 MIMS ROAD","SYLVANIA","30467","13251","GA","32.749604,-81.646582","POINT (-81.646363 32.75058)"
"C320005-A","320005","San Juan Regional Medical Center","801 WEST MAPLE STREET","FARMINGTON","87401","35045","NM","36.723968,-108.217559","POINT (-108.215426 36.724319)"
"C041309-A","041309","Lawrence Memorial Hospital","1309 WEST MAIN STREET","WALNUT RIDGE","72476","05075","AR","36.073772,-90.967805","POINT (-90.966982 36.074701)"
"C444027-A","444027","CREEKSIDE BEHAVIORAL HEALTH","1025 EXECUTIVE PARK BLVD","KINGSPORT","37660","47163","TN","36.54331,-82.51267","POINT (-82.512667 36.542463)"
"C070006-A","070006","Stamford Hospital (AKA Stamford Health)","ONE HOSPITAL PLAZA","STAMFORD","06904","09001","CT","41.048741,-73.53888",
"C441301-A","441301","TROUSDALE MEDICAL CENTER","500 CHURCH STREET","HARTSVILLE","37074","47169","TN","36.387795,-86.168189","POINT (-86.167697 36.387866)"
"C231326-A","231326","Sparrow Clinton Hospital","805 S OAKLAND","SAINT JOHNS","48879","26037","MI","42.993136,-84.554437","POINT (-84.555808 42.993435)"
"C520139-A","520139","Aurora West Allis Medical Center","8901 W LINCOLN AVE","WEST ALLIS","53227","55079","WI","43.001277,-88.02437","POINT (-88.023415 43.0027)"
"C060126-A","060126","Banner Fort Collins Medical Center","4700 LADY MOON DR","FORT COLLINS","80528","08069","CO","40.521516,-105.010173","POINT (-105.010885 40.521117)"
"H000031",,"University of the Pacific","3601 PACIFIC AVE T","STOCKTON","95211","06077","CA","37.980051,-121.312416","POINT (-121.307274 37.980627)"
"C101312-A","101312","Fishermens Community Hospital","3301 OVERSEAS HWY","MARATHON","33050","12087","FL","24.710205,-81.094559","POINT (-81.094704 24.711134)"
"C670078-A","670078","BAPTIST EMERGENCY CENTER  THOUSAND OAKS","16088 SAN PEDRO AVE,","SAN ANTONIO","78232","48029","TX","29.587664,-98.473621","POINT (-98.474151 29.588117)"
"C400105-A","400105","HOSPITAL UNIVERSITARIO DR RUIZ ARNAU","LAUREL AVE SANTA JUANITA #100","BAYAMON","00956","72021","PR","18.369244204462,-66.1662235449281",
"C394001-A","394001","Norristown State Hospital","1001 STERIGERE STREET","NORRISTOWN","19401","42091","PA","40.127673,-75.34813","POINT (-75.348566 40.129384)"
"C440084-A","440084","SWEETWATER HOSPITAL ASSOCIATION","304 WRIGHT ST","SWEETWATER","37874","47123","TN","35.60069,-84.46474","POINT (-84.464435 35.600384)"
"C533027-A","533027","Elkhorn Valley Rehabilitation Hospital","5715 EAST 2ND STREET","CASPER","82609","56025","WY","42.844183,-106.242364","POINT (-106.241985 42.844912)"
"C670056-A","670056","SETON MC HAYS","6001 KYLE PKWY","KYLE","78640","48209","TX","30.008853,-97.852649","POINT (-97.855081 30.00734)"
"C363038-A","363038","Cleveland Clinic Rehabilitation Hospital - Avon","33355 HEALTH CAMPUS BLVD","AVON","44011","39093","OH","41.472926,-81.985916","POINT (-81.986423 41.473741)"
"C141306-A","141306","Community Hospital of Staunton (FKA Community Memorial Hospital)","400 N CALDWELL ST","STAUNTON","62088","17117","IL","39.01468,-89.789401","POINT (-89.78989 39.015455)"
"C190199-A","190199","Villa Feliciana Medical Complex","5002 HIGHWAY 10","JACKSON","70748","22037","LA","30.83515,-91.158775","POINT (-91.157855 30.829624)"
"C142009-A","142009","Kindred - Chicago Central Hospital","4058 W MELROSE ST","CHICAGO","60641","17031","IL","41.940251,-87.729314","POINT (-87.728668 41.940001)"
"C330046-B","330046","Mount Sinai West (FKA Roosevelt Hospital Mount Sinai Roosevelt)","1000 10TH AVE","NEW YORK","10019","36061","NY","40.770077,-73.987402","POINT (-73.987846 40.770129)"
"C05128F-A","05128F","VA GREATER LOS ANGELES HEALTHCARE SYSTEM","11301 WILSHIRE BOULEVARD","LOS ANGELES","90073","06037","CA","34.053184,-118.455741","POINT (-118.4529 34.053085)"
"C150005-A","150005","Hendricks Regional Health - Brownsburg Hospital","5492 N RONALD REAGAN PKWY","BROWNSBURG","46112","18063","IN","39.844562,-86.357511","POINT (-86.35562 39.84187)"
"C040004-A","040004","Washington Regional Medical Center","3215 N NORTH HILLS BOULEVARD","FAYETTEVILLE","72703","05143","AR","36.10797,-94.15589","POINT (-94.157859 36.11091)"
"C180002-A","180002","WHITESBURG ARH HOSPITAL","240 HOSPITAL ROAD","WHITESBURG","41858","21133","KY","37.11382,-82.81315","POINT (-82.811878 37.113234)"
"C141303-A","141303","Warner Hospital and Health Services (FKA Dr John Warner Hospital)","422 W WHITE ST","CLINTON","61727","17039","IL","40.148508,-88.964705","POINT (-88.964799 40.148948)"
"C131301-A","131301","Boundary Community Hospital","6640 KANIKSU STREET","BONNERS FERRY","83805","16021","ID","48.70226,-116.321411","POINT (-116.321332 48.702578)"
"C251335-A","251335","John C Stennis Memorial Hospital","14365 HIGHWAY 16 WEST","DE KALB","39328","28069","MS","32.82718,-88.70863","POINT (-88.679594 32.776797)"
"C054153-A","054153","Ocean View Psychiatric Facility","2600 REDONDO AVENUE, SUITE 500","LONG BEACH","90806","06037","CA","33.80617,-118.151925","POINT (-118.151361 33.805598)"
"C192029-A","192029","AMG SPECIALTY HOSPITAL LAFAYETTE","4811 AMBASSADOR CAFFERY PKWY, 4TH FLOOR","LAFAYETTE","70506","22055","LA","30.149394,-92.036392",
"C100176-A","100176","Palm Beach Gardens Medical Center","3360 BURNS RD","PALM BEACH GARDENS","33410","12099","FL","26.8298,-80.086949","POINT (-80.087005 26.830716)"
"C030105-A","030105","Banner Heart Hospital","6750 EAST BAYWOOD AVENUE","MESA","85206","04013","AZ","33.411283,-111.68917","POINT (-111.685681 33.410391)"
"C181306-A","181306","DEACONESS UNION COUNTY HOSPITAL","4604 US HIGHWAY 60 WEST","MORGANFIELD","42437","21225","KY","37.628514,-87.947726","POINT (-87.943795 37.626339)"
"C131328-A","131328","Bonner General Hospital","520 NORTH THIRD AVENUE","SANDPOINT","83864","16017","ID","48.277895,-116.549789","POINT (-116.550314 48.277517)"
"C050454-B","050454","UCSF Helen Diller Medical Center at Parnassus Heights","400 PARNASSUS AVE","SAN FRANCISCO","94143","06075","CA","37.762371,-122.4573","POINT (-122.458137 37.763414)"
"C440031-A","440031","Roane Medical Center","8045 ROANE MEDICAL CENTER DRIVE","HARRIMAN","37748","47145","TN","35.8899,-84.55039","POINT (-84.554418 35.888312)"
"C161376-A","161376","CASS COUNTY MEMORIAL HOSPITAL","1501 EAST TENTH STREET","ATLANTIC","50022","19029","IA","41.401411,-94.991507","POINT (-94.991396 41.402098)"
"C454146-A","454146","Rio Vista Behavioral Health","1390 NORTHWESTERN DR.","EL PASO","79912","48141","TX","31.87926,-106.574325","POINT (-106.575437 31.880122)"
"C454107-A","454107","Behavioral Hospital of Bellaire","5314 DASHWOOD, SUITE 200","HOUSTON","77081","48201","TX","29.708309,-95.473437","POINT (-95.472952 29.707467)"
"C010016-A","010016","Shelby Baptist Medical Center","1000 FIRST STREET NORTH","ALABASTER","35007","01117","AL","33.25215,-86.813487","POINT (-86.814232 33.25384)"
"C452121-A","452121","CONTINUE CARE HOSPITAL","500 WEST  4TH STREET , 4TH FLOOR","ODESSA","79761","48135","TX","31.849512,-102.363847","POINT (-102.37491 31.844399)"
"C520057-A","520057","SSM Health St Clare Hospital - Baraboo","707 14TH ST","BARABOO","53913","55111","WI","43.481035,-89.730538","POINT (-89.730531 43.480624)"
"C400109-A","400109","HIMA San Pablo Bayamon","70 CALLE SANTA CRUZ","BAYAMON","00961","72021","PR","18.40114,-66.13988","POINT (-66.14773 18.397002)"
"C100023-A","100023","Citrus Memorial Hospital","502 W HIGHLAND BLVD","INVERNESS","34452","12017","FL","28.833092,-82.335854","POINT (-82.335266 28.832242)"
"C113033-A","113033","Encompass Health Rehabilitation Hospital of Savannah","6510 SEAWRIGHT DRIVE","SAVANNAH","31404","13051","GA","32.007833,-81.094176","POINT (-81.095453 32.007947)"
"C450742-A","450742","BSW MC   LAKE POINTE","6800 SCENIC DR","ROWLETT","75088","48113","TX","32.917635,-96.508664","POINT (-96.509529 32.918512)"
"C171370-A","171370","Goodland Regional Medical Center","220 WEST SECOND STREET","GOODLAND","67735","20181","KS","39.357697,-101.713433","POINT (-101.713782 39.357588)"
"C131307-A","131307","Weiser Memorial Hospital","645 EAST 5TH STREET","WEISER","83672","16087","ID","44.248547,-116.962447","POINT (-116.961735 44.248761)"
"C052031-A","052031","Barlow Respiratory Hospital - Main Campus","2000 STADIUM WAY","LOS ANGELES","90026","06037","CA","34.07595,-118.248471","POINT (-118.248646 34.075878)"
"H000050",,"CHRISTUS Santa Rosa Emergency Center - Creekside","244 CREEKSIDE CROSSING","NEW BRAUNFELS","78130","48091","TX","29.724446,-98.076122","POINT (-98.075355 29.724474)"
"C191305-A","191305","St James Parish Hospital","1645 LUTCHER AVENUE","LUTCHER","70071","22093","LA","30.051805,-90.703877","POINT (-90.702415 30.052291)"
"C250048-A","250048","St Dominic Hospital (AKA St Dominic Jackson Memorial Hospital)","969 LAKELAND DR","JACKSON","39216","28049","MS","32.332134,-90.165086","POINT (-90.165103 32.333691)"
"C423025-A","423025","Encompass Health Rehabilitation Hospital of Columbia","2935 COLONIAL DRIVE","COLUMBIA","29203","45079","SC","34.027757,-81.028656","POINT (-81.02739 34.027148)"
"C241348-A","241348","Avera Tyler Hospital","240 WILLOW STREET","TYLER","56178","27081","MN","44.272122,-96.130268","POINT (-96.130917 44.271883)"
"C251309-A","251309","Field Health System (FKA Field Memorial Community Hospital)","178 HIGHWAY 24","CENTREVILLE","39631","28157","MS","31.06787,-91.06946",
"C360143-A","360143","Marymount Hospital","12300 MCCRACKEN ROAD","GARFIELD HEIGHTS","44125","39035","OH","41.420011,-81.598611","POINT (-81.598167 41.422416)"
"C241308-A","241308","Lake View Hospital","325 ELEVENTH AVE","TWO HARBORS","55616","27075","MN","47.030215,-91.66634","POINT (-91.667157 47.02965)"
"C190218-A","190218","SABINE MEDICAL CENTER","240 HIGHLAND DRIVE","MANY","71449","22085","LA","31.560508,-93.472082","POINT (-93.470998 31.560471)"
"C34017F-A","34017F","W.G. (BILL) HEFNER SALISBURY VA MEDICAL CENTER (SALSBURY)","1601 BRENNER AVENUE","SALISBURY","28144","37159","NC","35.683538,-80.489515","POINT (-80.487085 35.681319)"
"C040020-A","040020","St Bernards Medical Center","225 E WASHIINGTON AVENUE","JONESBORO","72401","05031","AR","35.837476,-90.702895",
"C050528-A","050528","Memorial Hospital Los Banos","520 WEST I ST","LOS BANOS","93635","06047","CA","37.063577,-120.861113","POINT (-120.859427 37.06343)"
"C140252-A","140252","Northwest Community Hospital (AKA Northwest Community Healthcare)","800 W CENTRAL ROAD","ARLINGTON HEIGHTS","60005","17031","IL","42.068989,-87.995579","POINT (-87.993054 42.066605)"
"C26S195-A","26S195","Citizens Memorial Hospital, Parkview Geriatric Wellness","1500 N. OAKLAND AVE","BOLIVAR","65613","29167","MO","37.622605,-93.417141","POINT (-93.420927 37.626098)"
"C100030-A","100030","Orlando Health - Health Central Hospital","10000 W COLONIAL DR","OCOEE","34761","12095","FL","28.549913,-81.52771","POINT (-81.525687 28.551669)"
"C292007-A","292007","AMG SPECIALTY HOSPITAL","4015 SOUTH MCLEOD","LAS VEGAS","89121","32003","NV","36.11546,-115.10975",
"C194114-A","194114","River Place Behavioral Health","500 RUE DE SANTE","LA PLACE","70068","22095","LA","30.073487,-90.51526","POINT (-90.514023 30.071081)"
"C440091-A","440091","CHI Memorial Hospital Chattanooga","2525 DESALES AVE","CHATTANOOGA","37404","47065","TN","35.041671,-85.260562","POINT (-85.261047 35.040004)"
"C161377-A","161377","MERCYONE CENTERVILLE MEDICAL CENTER","ONE ST JOSEPH'S DRIVE","CENTERVILLE","52544","19007","IA","40.7523574,-92.8578264",
"C170145-A","170145","Coffeyville Regional Medical Center","1400 W 4TH ST","COFFEYVILLE","67337","20125","KS","37.041491,-95.639457","POINT (-95.638524 37.0404)"
"C012011-A","012011","NOLAND HOSPITAL ANNISTON II  LLC","400 EAST 10TH STREET, 4TH FLOOR","ANNISTON","36202","01015","AL","33.658831,-85.82808","POINT (-85.823647 33.657122)"
"C360056-A","360056","Mercy Health - Fairfield Hospital","3000 MACK ROAD","FAIRFIELD","45014","39017","OH","39.312929,-84.518017","POINT (-84.519364 39.310925)"
"C180046-A","180046","BOURBON COMMUNITY HOSPITAL","9 LINVILLE DRIVE","PARIS","40361","21017","KY","38.221775,-84.238893","POINT (-84.238941 38.22103)"
"C160058-B","160058","UNIVERSITY OF IOWA HOSPITALS AND CLINICS","200 HAWKINS DRIVE","IOWA CITY","52242","19103","IA","41.659929,-91.548097","POINT (-91.550759 41.661203)"
"C271323-A","271323","Clark Fork Valley Hospital","10 KRUGER RD","PLAINS","59859","30089","MT","47.468674,-114.88826","POINT (-114.889051 47.469528)"
"C150057-A","150057","Franciscan Health Mooresville (FKA Franciscan St Francis Health - Mooresville)","1201 HADLEY RD","MOORESVILLE","46158","18109","IN","39.607925,-86.356563","POINT (-86.356043 39.609324)"
"C031305-A","031305","Hopi Health Care Center","HIGHWAY 264, MILEPOST 388","POLACCA","86042","04017","AZ","35.82,-110.4",
"C110087-B","110087","Northside Hospital Gwinnett (FKA Gwinnett Medical Center - Lawrenceville)","1000 MEDICAL CENTER BOULEVARD","LAWRENCEVILLE","30046","13135","GA","33.96359,-84.01677","POINT (-84.014984 33.964319)"
"C510024-A","510024","Mon Health Medical Center (FKA Mon General Hospital)","1200 JD ANDERSON DRIVE","MORGANTOWN","26505","54061","WV","39.66233,-79.947677","POINT (-79.94639 39.66262)"
"C153042-A","153042","Lafayette Regional Rehabilitation Hospital","950 PARK EAST BLVD","LAFAYETTE","47905","18157","IN","40.405297,-86.829965","POINT (-86.828664 40.405912)"
"C673030-A","673030","Kate Dishman Rehabilitation Hospital","2830  CALDER ST 6TH FL SOUTH","BEAUMONT","77702","48245","TX","30.086587,-94.13148","POINT (-94.131766 30.085582)"
"C140228-A","140228","SwedishAmerican Medical Center - Belvidere","1625 S STATE ST","BELVIDERE","61008","17007","IL","42.242811,-88.839863","POINT (-88.839124 42.242884)"
"C670112-A","670112","Legent Orthopedic and Spine (FKA Cumberland Surgical Hospital)","5330 NORTH LOOP 1604 WEST","SAN ANTONIO","78249","48029","TX","29.590785,-98.590317","POINT (-98.590568 29.591468)"
"C36008F-A","36008F","CHILLICOTHE VA MEDICAL CENTER","17273 STATE ROUT 104","CHILLICOTHE","45601","39141","OH","39.384265,-83.022275","POINT (-83.011004 39.383383)"
"C250097-A","250097","Southwest Mississippi Regional Medical Center","215 MARION AV BOX 1307","MCCOMB","39649","28113","MS","31.243611,-90.45306",
"C414003-A","414003","Bradley Hospital","1011 VETERANS MEMORIAL PARKWAY","EAST PROVIDENCE","02915","44007","RI","41.792644,-71.369245","POINT (-71.365838 41.792537)"
"C173026-A","173026","MidAmerica Rehabilitation Hospital","5701 W 110TH STREET","OVERLAND PARK","66211","20091","KS","38.929002,-94.651184","POINT (-94.652209 38.929503)"
"C400125-A","400125","HIMA San Pablo Fajardo","GENERAL VALERO AVE#404","FAJARDO","00738","72053","PR","18.3331648,-65.6523897",
"C330005-A","330005","Buffalo General Medical Center (FKA Buffalo General Hospital)","100 HIGH ST","BUFFALO","14203","36029","NY","42.900803,-78.865659","POINT (-78.865983 42.900342)"
"C140101-A","140101","Morris Hospital & Healthcare Centers","150 W HIGH ST","MORRIS","60450","17063","IL","41.36904,-88.42576","POINT (-88.426168 41.368905)"
"C360247-A","360247","The Woods at Parkside","349 OLDE RIDENOUR ROAD","COLUMBUS","43230","39049","OH","40.027121,-82.881791","POINT (-82.881147 40.026831)"
"C190040-A","190040","Slidell Memorial Hospital","1001 GAUSE BLVD","SLIDELL","70458","22103","LA","30.28435,-89.769865","POINT (-89.770421 30.284651)"
"C084003-A","084003","MeadowWood Hospital","575 SOUTH DUPONT HIGHWAY","NEW CASTLE","19720","10003","DE","39.639824,-75.629425","POINT (-75.628871 39.63864)"
"C230077-A","230077","Ascension St Marys Hospital (FKA Ascension St Marys of Michigan St Marys Hospital)","800 S WASHINGTON AVENUE","SAGINAW","48601","26145","MI","43.424243,-83.938636","POINT (-83.941938 43.426009)"
"C054123-A","054123","St Josephs Behavioral Health Center","2510 N  CALIFORNIA ST","STOCKTON","95204","06077","CA","37.97674,-121.290423","POINT (-121.291374 37.976277)"
"C381324-A","381324","St Charles Health System - Madras","470 NE A STREET","MADRAS","97741","41031","OR","44.637456,-121.120002","POINT (-121.121452 44.637361)"
"C042013-A","042013","Arkansas Continued Care Hospital of Jonesboro","3024 RED WOLF BOULEVARD, SUITE 1","JONESBORO","72401","05031","AR","35.808689,-90.666683","POINT (-90.669168 35.811409)"
"C340132-B","340132","Maria Parham Medical Center (AKA Maria Parham Health)","566 RUIN CREEK RD","HENDERSON","27536","37181","NC","36.331309,-78.449455","POINT (-78.447837 36.330366)"
"C032002-A","032002","CuraHealth Hospital - Tuscon (FKA Kindred Hospital Tucson)","2025 W ORANGE GROVE ROAD","TUCSON","85741","04019","AZ","32.32247,-111.01051","POINT (-111.009712 32.323094)"
"C520070-A","520070","Mayo Clinic Hospital - Eau Claire","1221 WHIPPLE ST","EAU CLAIRE","54703","55035","WI","44.812009,-91.513686","POINT (-91.51354 44.812055)"
"C28006F-A","28006F","OMAHA VA MEDICAL CENTER (VA NEBRASKA WESTERN IOWA HEALTHCARE SYSTEM)","4101 WOOLWORTH AVE","OMAHA","68105","31055","NE","41.242991,-95.97135","POINT (-95.974545 41.245155)"
"C130025-A","130025","Madison Memorial Hospital","450 EAST MAIN STREET","REXBURG","83440","16065","ID","43.826002,-111.772202","POINT (-111.773168 43.826051)"
"C450828-A","450828","CHRISTUS Spohn Hospital Alice","2500 E MAIN ST","ALICE","78332","48249","TX","27.764735,-98.044871","POINT (-98.043699 27.765518)"
"C030136-A","030136","Arizona General Hospital - Laveen","7171 SOUTH 51ST AVENUE","LAVEEN","85339","04013","AZ","33.380767,-112.166999","POINT (-112.168233 33.380677)"
"C230080-A","230080","McLaren Central Michigan (FKA Central Michigan Community Hospital)","1221 SOUTH DRIVE","MOUNT PLEASANT","48858","26073","MI","43.598697,-84.762041","POINT (-84.761237 43.598529)"
"C453086-A","453086","HIGHLANDS REGIONAL REHAB HOSP","1395 GEORGE DIETER DRIVE","EL PASO","79936","48141","TX","31.732527,-106.302986","POINT (-106.301709 31.732529)"
"C324010-A","324010","Mesilla Valley Hospital","3751 DEL REY BOULEVARD","LAS CRUCES","88012","35013","NM","32.356222,-106.774007","POINT (-106.77177 32.357683)"
"C420066-A","420066","Lake City Community Hospital","258 N RON MCNAIR BLVD","LAKE CITY","29560","45041","SC","33.880652,-79.760438","POINT (-79.759109 33.880309)"
"C194074-A","194074","Serenity Springs Specialty Hospital","1495 FRAZIER ROAD","RUSTON","71270","22061","LA","32.576992,-92.602117","POINT (-92.601952 32.57647)"
"C140258-A","140258","AMITA Health Alexian Brothers Medical Center Elk Grove Village","800 W BIESTERFIELD RD","ELK GROVE VILLAGE","60007","17031","IL","42.00355,-88.01729","POINT (-88.014996 42.003705)"
"C320002-A","320002","CHRISTUS St Vincent Regional Medical Center (AKA CHRISTUS St Vincent Health System)","455 ST MICHAEL'S DRIVE","SANTA FE","87505","35049","NM","35.659498,-105.945571","POINT (-105.945678 35.657383)"
"C370032-A","370032","INTEGRIS Baptist Portland Ave","5501 N PORTLAND AVE","OKLAHOMA CITY","73112","40109","OK","35.526867,-97.58465","POINT (-97.583446 35.526826)"
"C232019-A","232019","Vibra Hospital of Southeastern Michigan","26400 W OUTER DR","LINCOLN PARK","48146","26163","MI","42.256271,-83.163717","POINT (-83.162705 42.256856)"
"C030022-A","030022","Valleywise Health Medical Center (FKA Maricopa Medical Center)","2601 EAST ROOSEVELT STREET","PHOENIX","85008","04013","AZ","33.457564,-112.026249","POINT (-112.026329 33.458524)"
"C394008-A","394008","Friends Hospital","4641 ROOSEVELT BOULEVARD","PHILADELPHIA","19124","42101","PA","40.025185,-75.103192","POINT (-75.100544 40.028313)"
"C431312-A","431312","Marshall County Healthcare Center Avera","413 9TH STREET","BRITTON","57430","46091","SD","45.788397,-97.745933","POINT (-97.745295 45.789178)"
"C240071-A","240071","District One Hospital","200 STATE AVENUE","FARIBAULT","55021","27131","MN","44.288676,-93.257489","POINT (-93.256022 44.288704)"
"C330219-A","330219","Erie County Medical Center (AKA ECMC)","462 GRIDER STREET","BUFFALO","14215","36029","NY","42.92669,-78.82927","POINT (-78.829151 42.927175)"
"C454149-A","454149","Perimeter Behavioral Hospital of Dallas","2696 W WALNUT STREET","GARLAND","75042","48113","TX","32.916384,-96.668905","POINT (-96.669199 32.916506)"
"C394055-A","394055","Lancaster Behavioral Health Hospital","333 HARRISBURG AVENUE","LANCASTER","17603","42071","PA","40.047676,-76.312983","POINT (-76.314489 40.048241)"
"C180004-A","180004","OWENSBORO HEALTH MUHLENBERG COMMUNITY HOSPITAL","440 HOPKINSVILLE STREET","GREENVILLE","42345","21177","KY","37.195913,-87.189676","POINT (-87.189447 37.196961)"
"C162003-A","162003","Select Specialty Hospital - Des Moines","1111 6TH AVENUE, 4TH FLOOR MAIN","DES MOINES","50314","19153","IA","41.5994,-93.623834","POINT (-93.62568 41.598048)"
"C331318-A","331318","Carthage Area Hospital","1001 WEST STREET","CARTHAGE","13619","36045","NY","43.986685,-75.594151","POINT (-75.594781 43.986183)"
